{"type": "FeatureCollection", "features": [{"type": "Feature", "properties": {"wf_develop": "\u00d8rsted", "turbine_mo": "H150-6", "fou_type": "Jacket", "wtg_hubhei": 100, "wtg_oem": "GE Energy", "cod": "2016-12-01T00:00:00", "wf_name": "Block Island", "status": "Fully Commissioned", "no_turbine": 5, "country": "United States", "capacity_m": 30, "wf_owners": "Orsted US", "tippecanoe_feature_density": 0}, "geometry": {"type": "Polygon", "coordinates": [[[-71.50348663330078, 41.126176673633665], [-71.51172637939453, 41.118417845375205], [-71.51893615722656, 41.11324478360737], [-71.52717590332031, 41.1083299973283], [-71.53850555419922, 41.103414843140456], [-71.54193878173828, 41.107036571369406], [-71.53060913085938, 41.1119514544674], [-71.52271270751953, 41.11660732012896], [-71.5155029296875, 41.12178011690935], [-71.50794982910156, 41.1287627458766], [-71.50348663330078, 41.126176673633665]]]}}]}