{"type": "FeatureCollection", "features": [{"type": "Feature", "properties": {"wf_develop": "Forthwind", "turbine_mo": "2B6", "wtg_oem": "2BEnergy", "wf_name": "Forthwind Offshore Wind Turbine Demonstration", "status": "Consent Authorised", "no_turbine": 2, "country": "United Kingdom", "capacity_m": 18, "wf_owners": "Cierco", "tippecanoe_feature_density": 0}, "geometry": {"type": "Polygon", "coordinates": [[[-2.999267578125, 56.16390607394953], [-3.003387451171875, 56.16161198189121], [-3.00750732421875, 56.16237669446815], [-3.011627197265625, 56.15931775281314], [-3.01025390625, 56.15855297933754], [-3.017120361328125, 56.155493733182624], [-3.017120361328125, 56.157023333423126], [-3.01849365234375, 56.15625856755955], [-3.01849365234375, 56.15931775281314], [-3.008880471695052, 56.164670660929666], [-3.008880615234375, 56.16467074085429], [-3.0047607421875, 56.16696465022673], [-2.999267578125, 56.16390607394953]]]}}]}