{"type":"FeatureCollection","name":"line","features":[{"id":"12ceb60b440e1b7bc0d391acf12f6d50","type":"Feature","properties":{"fid":"12ceb60b440e1b7bc0d391acf12f6d50","name":"LineString"},"geometry":{"coordinates":[[6.59371249614756,54.02166192047969],[6.605530284646903,54.02166192047969],[6.618102400071763,54.02180963738013],[6.618353842380856,54.01427540659907],[6.606787496189639,54.01427540659907],[6.593209611531165,54.014423149730305],[6.593963938456653,54.00762642269535],[6.606284611572391,54.007330887640165],[6.619108169306344,54.00747865543039],[6.622628361625544,54.00008962318853],[6.619862496231832,54.00023741668855],[6.607038938497851,54.00068079404073],[6.594466823072992,54.00068079404073]],"type":"LineString"},"name":"LineString"}]}