{"features":[{"id":"977574a382d17afb8fce8f7b2657923f","type":"Feature","properties":{"fid":"977574a382d17afb8fce8f7b2657923f","name":"LineString"},"geometry":{"coordinates":[[6.018276140333029,54.42202611447382],[6.018276210574896,54.414329748242466],[6.018276221615764,54.406641417255514],[6.018276277674687,54.39904599328369],[6.018276230460913,54.39145570971186],[6.018276216792458,54.38385497140632],[6.018276283875878,54.3608553346744],[6.01827621786552,54.35325123405883],[6.018276197169598,54.34555059663154],[6.018276249504538,54.3303267235859],[6.018276060231443,54.31501547848387],[6.017932811664792,54.307009657769385],[5.939311998883426,54.302802945030095],[5.939655267980612,54.387255157461766],[6.0182761516186645,54.42202610851214]],"type":"LineString"},"name":"LineString"}],"name":"line","type":"FeatureCollection"}