{"features":[{"id":"rDTkia8L9aYZbo1aCLJXSnqKgS39F8Yz","type":"Feature","properties":{"fid":"rDTkia8L9aYZbo1aCLJXSnqKgS39F8Yz","name":"LineString"},"geometry":{"coordinates":[[-70.37035014918351,41.021020285706186],[-70.38443047527697,41.02080472060439],[-70.38426223259376,41.010092938652434],[-70.39845863555206,41.00993880901089],[-70.39832954013733,40.99905985818907],[-70.41257036796848,40.99893036598283],[-70.41221901425506,40.98819915637736],[-70.42648240468053,40.98793177705801],[-70.42631145141387,40.977176589446486],[-70.44055928687587,40.97691730746206],[-70.44038776706508,40.96615967846515],[-70.45463556548813,40.9660299993798],[-70.45429226454615,40.955140936283755],[-70.46871180399957,40.955011298768994],[-70.46836857763579,40.94425005545412],[-70.48261640047195,40.94399071349051],[-70.48244480618116,40.93322772589943],[-70.49669258841672,40.9329683690805],[-70.49634936074585,40.92220352165677],[-70.51059719112298,40.9220737783138],[-70.51042557311195,40.91117747290653],[-70.52467343127854,40.911047741159365],[-70.5243301443407,40.90027935664406],[-70.5385780075552,40.900019845977965],[-70.53840633037379,40.889249673552285],[-70.55265426379141,40.888990135708866],[-70.55231098557559,40.87821810795626],[-70.56655877271386,40.878088361130295],[-70.56638719362553,40.867184743759736],[-70.5806350425753,40.867054921448414],[-70.58029177729354,40.85627933114054],[-70.59453959372105,40.85601965731007],[-70.59436801963768,40.845242295384],[-70.60861578359811,40.844982596805266],[-70.60827257879171,40.834203489096836],[-70.62252039712875,40.83407357740569],[-70.62217719762644,40.823162760375936],[-70.63642496107725,40.82303286260887],[-70.63625341059333,40.81225014458943],[-70.65050123538599,40.811990284160714],[-70.65015797080247,40.80120577240683],[-70.6644057689501,40.800945919875744],[-70.66406248519186,40.79015963207323],[-70.67831034688813,40.79002965694215],[-70.67813873122704,40.77924154470884],[-70.69221489949996,40.77898156396293],[-70.69204331345706,40.76819171526975],[-70.70629113158526,40.767931640760736],[-70.70594789743475,40.75714000054609],[-70.72019567591963,40.757009965466466],[-70.71985244403605,40.746086509943666],[-70.70560464699521,40.74634657540892],[-70.7033729764825,40.65993625634678],[-70.64672473923457,40.66071748367091],[-70.64638133592806,40.6499084029935],[-70.63230515522712,40.65016890498114],[-70.63247681202938,40.66097790483013],[-70.61822898253884,40.66110815871326],[-70.61857222531435,40.67191535221713],[-70.6043243893259,40.67217574979102],[-70.60466763356106,40.68298120232208],[-70.5904198220771,40.68311137246002],[-70.59076308067363,40.69391510582449],[-70.57651521538395,40.69417543137294],[-70.57668686392613,40.7049772951525],[-70.56261069134793,40.705107399518226],[-70.56278225943123,40.715907529753196],[-70.54853438928295,40.71616780746254],[-70.54887768182559,40.726966058797984],[-70.53462987661656,40.727096100314526],[-70.53497309339242,40.73789271256564],[-70.52072526479508,40.73815285605238],[-70.52089693846736,40.74894759631766],[-70.50664908656219,40.7490776563304],[-70.50699237622916,40.759870618045795],[-70.49274443859586,40.76013066923295],[-70.49308774451701,40.770921840059486],[-70.47883994206498,40.77105186162581],[-70.47901149759788,40.78197123732846],[-70.46476364656287,40.78210122136997],[-70.46510691641136,40.7928889274846],[-70.45085919803059,40.793018812036365],[-70.45103073304472,40.803934541959535],[-70.43678289748509,40.80406449728008],[-70.43712620230342,40.814848579541234],[-70.42287830108536,40.81510840058908],[-70.42304995370877,40.825890674087844],[-70.40880208387505,40.8260206086145],[-70.40914532284393,40.83680101076692],[-70.39489750091586,40.837060820835205],[-70.39506911526091,40.847839512235396],[-70.38082132323478,40.847969310625075],[-70.38099287112826,40.858746196782874],[-70.36691672202288,40.85900590756182],[-70.3670883572711,40.86978101093936],[-70.3528404430568,40.86991085495279],[-70.3530121181323,40.8806842306069],[-70.33876423279402,40.88094377367926],[-70.33910745737622,40.89171528083364],[-70.324859644985,40.89184507379801],[-70.32503130960136,40.902744607959335],[-70.31078345585482,40.90287434421819],[-70.31095508385644,40.91364223731193],[-70.29670721791308,40.91377204144595],[-70.29687883474479,40.924667914205486],[-70.36811823359082,40.92375999872294],[-70.37035037092281,41.021020384082675]],"type":"LineString"},"name":"LineString"}],"name":"line","type":"FeatureCollection"}