{"features":[{"id":"jFoJSgKq87HjqDCo9jilPVErjUBy1h1q","type":"Feature","properties":{"fid":"jFoJSgKq87HjqDCo9jilPVErjUBy1h1q","name":"LineString"},"geometry":{"coordinates":[[3.048550187169809,51.69817171251947],[3.0522084324409207,51.696121327439386],[3.054315262367396,51.695468382261254],[3.0587204522128104,51.6934798093686],[3.1131662331782763,51.67756777193577],[3.122469300770831,51.671618764427194],[3.102260643988359,51.60237512392712],[3.058372079488123,51.57026789790987],[3.0253104129835435,51.59017797553227],[3.0237678113336415,51.603340402663434],[3.0241231673618927,51.61393336062153],[3.0259576400559354,51.6226309070029],[3.028787900212194,51.6331227836985],[3.0360617626877797,51.65677676546892],[3.0485477971370756,51.698172354425594]],"type":"LineString"},"name":"LineString"}],"name":"line","type":"FeatureCollection"}