{"features":[{"id":"whWfYEo6mOwLpUBJXqLZAgpCYaXtR7mQ","type":"Feature","properties":{"fid":"whWfYEo6mOwLpUBJXqLZAgpCYaXtR7mQ","name":"LineString"},"geometry":{"coordinates":[[2.770786280648565,51.743080889236694],[2.8770446821908138,51.67947431104818],[2.9460525010225354,51.73330111995077],[2.9285431375659527,51.73978573188995],[2.9498291252014326,51.748501399905166],[3.001842429220744,51.788656622568766],[2.7707863452064316,51.74308094087081]],"type":"LineString"},"name":"LineString"}],"name":"line","type":"FeatureCollection"}