{"features":[{"id":"fs9N8eJYVsk9H8SN2lB2P6V369SmXU5E","type":"Feature","properties":{"fid":"fs9N8eJYVsk9H8SN2lB2P6V369SmXU5E","name":"LineString"},"geometry":{"coordinates":[[2.9548046009423103,51.72573155918815],[2.958711090058017,51.72454148632056],[2.960824436628485,51.72287533167531],[2.964064481781861,51.72192670140228],[2.964935448239345,51.721817568527484],[2.983301078109008,51.716394700267244],[2.981764990195643,51.71496275042179],[2.9812538715495975,51.71476122897215],[2.980231634257507,51.713638450171146],[2.9794881889539226,51.71263080443802],[2.979395258291305,51.71193983438934],[2.9790175401594468,51.71139913610142],[2.9788397214820748,51.71086579928192],[2.978839495583145,51.70852479664072],[2.979014186138386,51.70788829984636],[2.9793499883849677,51.70736156334607],[2.979527194914567,51.70670989499175],[2.980213135512173,51.705650745519506],[2.9807279366130786,51.70511863707384],[2.981238412106393,51.70470201297147],[2.981761168442148,51.70416054583177],[2.9824345075542453,51.7037469865916],[2.982955471952323,51.703313271959246],[2.983626228293133,51.70290072441691],[2.984507929205506,51.70245897661667],[2.984673459262126,51.70246107021865],[2.9852073146462317,51.702130182628025],[2.9860446861390813,51.701827454446544],[2.9869053179517095,51.70160641354272],[2.9870758936256436,51.701500697946074],[3.002479887745551,51.697045214943984],[3.002862922042141,51.69692911589621],[3.0033786178388766,51.69671605712361],[3.0044243587677784,51.696501207417896],[3.0080018799838797,51.696087783752546],[3.0099130447960647,51.696074653377565],[3.013669966968507,51.69650167636817],[3.014542804128439,51.69671284959688],[3.0154028850390944,51.697036942285195],[3.0162599013302724,51.69724586611926],[3.016945280227901,51.69756560802841],[3.0178040255958933,51.697883321669394],[3.0198575661084703,51.69915323809545],[3.0248756395156704,51.70334739484872],[3.0253660638738893,51.703640471424364],[3.026389257561391,51.70469232126143],[3.026389257561391,51.70480398615044],[3.035099415412475,51.702257160452746],[3.0117412409883,51.624616355411405],[3.01016226187582,51.61517168671233],[3.009564879404735,51.608416059517396],[3.0095598723762578,51.599696515484084],[2.8875086360517344,51.67318930748365],[2.9548009000943694,51.72573320545189]],"type":"LineString"},"name":"LineString"}],"name":"line","type":"FeatureCollection"}