{"features":[{"id":"YENkmFLClCClYDrlc9RartWIzw8J8w33","type":"Feature","properties":{"fid":"YENkmFLClCClYDrlc9RartWIzw8J8w33","name":"LineString"},"geometry":{"coordinates":[[-75.48488608594423,36.8757869667685],[-75.49799441587037,36.875518098206555],[-75.49833052689418,36.940288043551476],[-75.48555830799187,36.940288043551476],[-75.48555830799187,36.97278665361364],[-75.47211386704262,36.97359222807778],[-75.47221707136157,36.983814605143635],[-75.45868296408523,36.983978409802376],[-75.45868296408523,36.99495251848336],[-75.21588609324698,36.99555103961488],[-75.21540692504769,36.82275754138115],[-75.48433911036078,36.821673086292165],[-75.4848244751205,36.8758084107659]],"type":"LineString"},"name":"LineString"}],"name":"line","type":"FeatureCollection"}