{"features":[{"id":"9MS5AwDzgEAnmOP807mz4vDNlDToxy2O","type":"Feature","properties":{"fid":"9MS5AwDzgEAnmOP807mz4vDNlDToxy2O","name":"LineString"},"geometry":{"coordinates":[[-73.20940469880556,40.19400322989722],[-73.20920915567395,40.20445820319679],[-73.19513005020157,40.20415951204663],[-73.19454342080672,40.21506088635988],[-73.1808554015976,40.21491156431088],[-73.18046431533438,40.22551261215514],[-73.166385209862,40.225363313138956],[-73.16579858046718,40.24700823497818],[-73.13774438050802,40.246630143508725],[-73.13724468820182,40.257461047664066],[-73.12335324208033,40.25723224366877],[-73.12301017477715,40.267907397829816],[-73.10892696017493,40.26783527750874],[-73.10835985086193,40.27850824853331],[-73.09446567269651,40.27829192125273],[-73.09405422952636,40.28917433038731],[-73.08006966030209,40.28891860703342],[-73.07971970417887,40.29977314297392],[-73.12209240199395,40.300493282270196],[-73.12192996149884,40.30480058551393],[-73.16432060078905,40.30374195479175],[-73.16449884876884,40.30113192243675],[-73.17854123600084,40.301389928821436],[-73.17838702843187,40.30333881354815],[-73.19517094167409,40.30334828033901],[-73.58643797506168,40.379244050509755],[-73.58643797506168,40.37198611221129],[-73.58981640697633,40.37203758970341],[-73.33733291880921,40.2605011934925],[-73.33504483761949,40.2605011934925],[-73.33432981224749,40.25897336773127],[-73.28647943959996,40.238127599809644],[-73.27910267949721,40.238007787568534],[-73.27823944161304,40.23471286785838],[-73.26139273087163,40.227098199169035],[-73.25124267786549,40.22671072452104],[-73.25124267786549,40.222835856135646],[-73.24532181361093,40.21973580184249],[-73.22468492941357,40.20489547991011],[-73.22337523647597,40.20483832182728],[-73.22337523647597,40.20403810360378],[-73.20940490467129,40.1939969298256]],"type":"LineString"},"name":"LineString"}],"name":"line","type":"FeatureCollection"}