{"features":[{"id":"f9317c086ed11322c3f50a4168f62f54","type":"Feature","properties":{"fid":"f9317c086ed11322c3f50a4168f62f54","name":"LineString"},"geometry":{"coordinates":[[6.415844790582952,54.54080448786743],[6.31816836714728,54.540903789885675],[6.318338794023703,54.50414015417721],[6.319880709544094,54.49815901742494],[6.362090630110913,54.470962195631444],[6.367022872350816,54.46776280455276],[6.376877337807258,54.461656667789896],[6.39009519148982,54.46165657175021],[6.392185857775331,54.467742640899814],[6.395498086619028,54.47969278470933],[6.4006085997134505,54.4980147487737],[6.410180792503866,54.52865208571191],[6.415845143904022,54.54080415275391]],"type":"LineString"},"name":"LineString"}],"name":"line","type":"FeatureCollection"}