{"features":[{"id":"Kgt7w5k0EQNc7DCrAZbiLi9NBB6ijfM6","type":"Feature","properties":{"fid":"Kgt7w5k0EQNc7DCrAZbiLi9NBB6ijfM6","name":"LineString"},"geometry":{"coordinates":[[-70.14162791221278,41.130397239964594],[-70.1960784497852,41.19351374975486],[-70.27905069751425,41.194164118845976],[-70.31016529041295,41.16684305399832],[-70.22460015994227,41.0958852220308],[-70.20817856924575,41.101747032224125],[-70.218550100212,41.11086436379847],[-70.19867133252689,41.11021316781071],[-70.1978070382795,41.123886927162516],[-70.18138544758301,41.11932932387327],[-70.18052115333607,41.13300118422137],[-70.16064238565097,41.129095229078985],[-70.16064238565097,41.141463289269524],[-70.14162781199997,41.13039725379326]],"type":"LineString"},"name":"LineString"}],"name":"line","type":"FeatureCollection"}