{"features":[{"id":"ifpi1QMFDfxVpRkO1h61VCl0LGpdMCEK","type":"Feature","properties":{"fid":"ifpi1QMFDfxVpRkO1h61VCl0LGpdMCEK","name":"LineString"},"geometry":{"coordinates":[[-69.79702795933034,40.123406361326886],[-69.75269287972944,40.180288098452024],[-69.62760461942459,40.228660556276964],[-69.41067940851619,40.234704686385385],[-69.33150962351354,40.15245830708156],[-69.45343109241753,40.06284158583455],[-69.63552159792503,40.067688751180924],[-69.7970280888486,40.12340639518348]],"type":"LineString"},"name":"LineString"}],"name":"line","type":"FeatureCollection"}