{"features":[{"id":"eIfYUi40xjzVchD9j2xJ2v4gPrJUtPC4","type":"Feature","properties":{"fid":"eIfYUi40xjzVchD9j2xJ2v4gPrJUtPC4","name":"LineString"},"geometry":{"coordinates":[[-69.98791503160663,40.97475933600302],[-70.05098099124574,41.004591136913746],[-70.04173131716578,41.014743564008825],[-70.05518538855512,41.02362565444935],[-70.04677659393722,41.02933493723913],[-70.05098099124574,41.04202046004596],[-70.03836779931846,41.04772814775089],[-70.04425395555107,41.057873925747316],[-70.02827724577556,41.06041012576631],[-70.02743636631439,41.0718218156224],[-70.00557350030535,41.070553947880626],[-70.00305086192009,41.062312211602176],[-69.9887559110678,41.067384171558984],[-69.94671193797477,41.04265467201563],[-69.98791504065623,40.974759279954185]],"type":"LineString"},"name":"LineString"}],"name":"line","type":"FeatureCollection"}