{"features":[{"id":"93ec58fe831e3d4370c8324ab9871d90","type":"Feature","properties":{"fid":"93ec58fe831e3d4370c8324ab9871d90","name":"New England Wind 2"},"geometry":{"coordinates":[[-70.6682781625386,40.98267208263968],[-70.68201581614629,40.984331368009606],[-70.68165520273925,40.97443984782814],[-70.69777977366142,40.973674971304206],[-70.69595953455806,40.9630168530166],[-70.71007497364079,40.96231653039629],[-70.7099891133053,40.95034664952931],[-70.72528942501197,40.95165650999388],[-70.72374393898093,40.941409909436544],[-70.7386836372805,40.94029431370794],[-70.73859777694506,40.92977348633349],[-70.75444759479561,40.930045936465916],[-70.75271321602774,40.92014627631778],[-70.76856303387831,40.91896547331666],[-70.76466497466657,40.90680603056012],[-70.77999963050702,40.90751974455358],[-70.77989659810432,40.897318138873885],[-70.79399486511977,40.895228304749054],[-70.793805972383,40.88566105410945],[-70.8093638650947,40.88438878251776],[-70.80761231425964,40.874183664633364],[-70.8221227108832,40.873651225957275],[-70.82124693546601,40.86397697343193],[-70.83754322705913,40.862301674251256],[-70.83570581588924,40.852729644481144],[-70.85181321474488,40.851040993195795],[-70.85016469631252,40.841064560463764],[-70.75125359033217,40.843143107801325],[-70.74740704732216,40.74538093050012],[-70.71938223396147,40.746213556347016],[-70.71989739597157,40.756828640367814],[-70.7072244105179,40.75578800432854],[-70.70499204180646,40.76765001512075],[-70.69231905635279,40.7682743427967],[-70.69197561501221,40.77846978565242],[-70.6780662407336,40.778157747331164],[-70.67844402620854,40.78907963673515],[-70.6637103927126,40.79079576117306],[-70.66436293125923,40.801247789752466],[-70.64918282402184,40.802183679070936],[-70.65011011563936,40.81232192971976],[-70.63565123521748,40.812477904625865],[-70.63657852683639,40.82303050579037],[-70.6221196464142,40.82277053324353],[-70.6221196464142,40.843143107801325],[-70.66443161952789,40.8448058987384],[-70.66553063181635,40.9079610377714],[-70.68806038373395,40.91086804678494],[-70.68806038373395,40.93079837985999],[-70.68091680385783,40.928722583905284],[-70.68311482843546,40.96234244891218],[-70.67432273012625,40.96275740201338],[-70.67487223627016,40.974375029588714],[-70.6682781625386,40.974375029588714],[-70.667728656394,40.98267208263968]],"type":"LineString"},"name":"New England Wind 2"}],"name":"line","type":"FeatureCollection"}