{"features":[{"id":"5aa7e4a59f5226f52bc65f15e726aaf6","type":"Feature","properties":{"fid":"5aa7e4a59f5226f52bc65f15e726aaf6","name":"LineString"},"geometry":{"coordinates":[[2.8006540938588955,51.71224888797056],[2.810450367099236,51.70650556988696],[2.835816454613024,51.691310441863465],[2.840817893136432,51.68820949832826],[2.846836078822662,51.68462227448438],[2.867432569172877,51.67234272641707],[2.801340896791089,51.620250388049556],[2.791900785081225,51.636451586840394],[2.7635737614019718,51.6498751437378],[2.8006546676137702,51.712247453779014]],"type":"LineString"},"name":"LineString"}],"name":"line","type":"FeatureCollection"}