{"features":[{"id":"660lw9C3qfe5csTXh2JJZdSm231kYr8A","type":"Feature","properties":{"fid":"660lw9C3qfe5csTXh2JJZdSm231kYr8A","name":"LineString"},"geometry":{"coordinates":[[6.74754852707531,53.993993794437756],[6.894466520729196,53.997461006204674],[6.894796424600145,53.982932335686],[6.903417891910294,53.97683547637118],[6.851922260079476,53.968957053533785],[6.841209966019022,53.97175028559377],[6.775357727649833,53.9634092220181],[6.747314569962555,53.9614266018238],[6.7475490367761495,53.994002707011305]],"type":"LineString"},"name":"LineString"}],"name":"line","type":"FeatureCollection"}