{"features":[{"id":"rEqbJ9MNrUJrlwiHG8bdjzXvRO90xAS6","type":"Feature","properties":{"fid":"rEqbJ9MNrUJrlwiHG8bdjzXvRO90xAS6","name":"LineString"},"geometry":{"coordinates":[[2.8785904618382574,51.66596070453204],[2.906621627829253,51.649150931915955],[2.8638285967351464,51.61523325051536],[2.843729245308168,51.607033441575936],[2.8308792036984016,51.60787878456901],[2.8142169703700404,51.61460639757675],[2.819299307193404,51.61968278826825],[2.858221626716187,51.65094044528769],[2.8785891064868565,51.665960724068896]],"type":"LineString"},"name":"LineString"}],"name":"line","type":"FeatureCollection"}