{"features":[{"id":"5g14gmDGogmlfQMEAKQ7lXiE1izIEqIE","type":"Feature","properties":{"fid":"5g14gmDGogmlfQMEAKQ7lXiE1izIEqIE","name":"Sunrise wind"},"geometry":{"coordinates":[[-71.28443554742086,41.03858591613482],[-71.27007390334585,41.03905689369279],[-71.2706983226536,41.06024739570674],[-71.25758551719338,41.06118903739272],[-71.25571225927078,41.050359344062514],[-71.19951452158548,41.051301127302395],[-71.19826568297064,41.03010774381568],[-70.99845150453496,41.03340494057201],[-70.9990759238427,41.04470836152777],[-70.95661541092468,41.04517929527506],[-70.95599099161758,41.05648069414602],[-70.92851654208236,41.056009841284805],[-70.92664328415974,41.034817974346964],[-70.82860945286484,41.03623097779257],[-70.8261117756345,40.9877005054214],[-70.86794786924408,40.98675781235849],[-70.86794786924408,40.97072996840467],[-70.88917812570308,40.97025850227189],[-70.88917812570308,40.95422664931212],[-70.91040838216145,40.95328347786423],[-70.90915954354658,40.921679448168646],[-70.9310142193127,40.920735811887056],[-70.9310142193127,40.90516386821801],[-70.95162005646397,40.90421999617956],[-70.95162005646397,40.88817211048945],[-70.99345615007421,40.88722799597926],[-70.99408056938198,40.871648161874475],[-71.05090272637437,40.870231631484046],[-71.05277598429697,40.95611295178469],[-71.28131345088273,40.9523402929413],[-71.28443545092611,41.03858586409501]],"type":"LineString"},"name":"Sunrise wind"}],"name":"line","type":"FeatureCollection"}