{"features":[{"id":"3b289d143efa192550073274037cc2c2","type":"Feature","properties":{"fid":"3b289d143efa192550073274037cc2c2","name":"LineString"},"geometry":{"coordinates":[[2.908287064943977,51.55807632509132],[2.931845580493075,51.54768206836448],[2.9553851276507714,51.537275357533474],[2.9580622480200134,51.53609115514456],[2.9620208814774003,51.53427047762165],[2.937645034097642,51.52305767484728],[2.9280281448479,51.52017281972948],[2.9101567793131267,51.53085662375895],[2.883567441260027,51.546762089767356],[2.886995488647159,51.548362115811614],[2.8887131791067304,51.54916096765652],[2.8904455366321997,51.54995752536189],[2.899373120222265,51.554015562847184],[2.908286989252076,51.558076392096325]],"type":"LineString"},"name":"LineString"}],"name":"line","type":"FeatureCollection"}