{"features":[{"id":"gZCYQqnMU3rWt9sexdiIPWXNnsCkgKDO","type":"Feature","properties":{"fid":"gZCYQqnMU3rWt9sexdiIPWXNnsCkgKDO","name":"LineString"},"geometry":{"coordinates":[[6.456871052687518,54.08809346344137],[6.471118961840659,54.080037687657494],[6.47335058819516,54.044876448264375],[6.4874268052699335,54.03923179256836],[6.489486687298779,54.00000025534328],[6.448287946641159,54.00020196376664],[6.447257936444515,54.016342805069286],[6.466827364167614,54.04648915205334],[6.45841597995431,54.06110072426449],[6.430950155289395,54.06079841035225],[6.417045575689343,54.06130219157515],[6.415672289040742,54.08759004019453],[6.456871088802927,54.088093396219705]],"type":"LineString"},"name":"LineString"}],"name":"line","type":"FeatureCollection"}