{"type": "FeatureCollection", "features": [{"type": "Feature", "properties": {"wf_develop": "Vattenfall", "turbine_mo": "Senvion 5.0M-126", "fou_type": "Jacket", "wtg_hubhei": 97, "wtg_oem": "Senvion", "cod": "2012-02-01T00:00:00", "wf_name": "Ormonde", "status": "Fully Commissioned", "no_turbine": 30, "country": "United Kingdom", "capacity_m": 150, "wf_owners": "Vattenfall/AMF", "tippecanoe_feature_density": 0}, "geometry": {"type": "Polygon", "coordinates": [[[-3.4012985229492188, 54.08336089891938], [-3.4280776977539062, 54.06845493895585], [-3.473052978515625, 54.09181865749633], [-3.4445571899414062, 54.108527730139684], [-3.4012985229492188, 54.08336089891938]]]}}]}