{"features":[{"id":"8e1caa72bd04af802bb208b012f07af9","type":"Feature","properties":{"fid":"8e1caa72bd04af802bb208b012f07af9","name":"LineString"},"geometry":{"coordinates":[[-71.28105938477657,40.95245713524454],[-71.054844552087,40.956016405765325],[-71.05013174307267,40.868759044323696],[-70.99357803490012,40.87143189662396],[-70.99357803490012,40.88657602158949],[-70.95234095602389,40.88657602158949],[-70.9499845515171,40.90438820312565],[-70.92877691095231,40.90438820312565],[-70.9311333154598,40.919524786467946],[-70.90874747264088,40.92219558850246],[-70.909925674895,40.95245713524454],[-70.88871803433021,40.95423679449141],[-70.88989623658361,40.971141164599345],[-70.866332191512,40.971141164599345],[-70.866332191512,40.98626245705552],[-70.82391691038241,40.98804120473346],[-70.8274515171433,41.036049253630665],[-70.92642050644551,41.03516053361545],[-70.9299551132057,41.056486502374355],[-70.95587556278483,41.05470960228823],[-70.95469736053141,41.044047193843255],[-70.99593443940691,41.044047193843255],[-70.99593443940691,41.032494301580584],[-71.19740702477146,41.03071675356705],[-71.19858522702486,41.05026714208512],[-71.25513893519745,41.04849007401069],[-71.25631713745156,41.060928542600465],[-71.27045556449454,41.06004015855402],[-71.26927736224114,41.03960401370952],[-71.28577219379089,41.03871534168741],[-71.28105938477657,40.95245713524454]],"type":"LineString"},"name":"LineString"}],"name":"line","type":"FeatureCollection"}