{"features":[{"id":"n0eLHtJOyvnHaoS7eJiO0g6MeKzplorJ","type":"Feature","properties":{"fid":"n0eLHtJOyvnHaoS7eJiO0g6MeKzplorJ","name":"LineString"},"geometry":{"coordinates":[[-70.4301352016529,41.137924921192024],[-70.61463133870126,41.137924921192024],[-70.61268927410018,41.12549144389405],[-70.6447333400091,41.12622289013882],[-70.64279127540803,41.11525034038817],[-70.67289327671587,41.11525034038817],[-70.67192224441577,41.104275956246255],[-70.77290960364223,41.10208085929898],[-70.76999650674105,41.06987767496335],[-70.80009850804892,41.07060974077379],[-70.80009850804892,41.05743130909286],[-70.81369296025306,41.05743130909286],[-70.81077986335188,41.047179592045296],[-70.82728741245637,41.04791191052573],[-70.82728741245637,41.03472893092126],[-70.92924580398297,41.03472893092126],[-70.92924580398297,41.05596687589147],[-70.9583767729907,41.055234647064935],[-70.95643470839049,41.04351787739026],[-70.99721806500044,41.04425023662131],[-70.99818909730139,41.03253151093432],[-71.19725071885318,41.02886898129711],[-71.19725071885318,41.052305650253544],[-71.25551265686863,41.050841102945725],[-71.25551265686863,41.05962789776609],[-71.27202020597231,41.05962789776609],[-71.26813607677185,41.03765871014201],[-71.28367259357542,41.038391134572606],[-71.28173052897516,40.95264217917642],[-71.05256690611552,40.95630894577917],[-71.04674071231399,40.69767126964692],[-71.00207322650186,40.699879829027225],[-71.0069283880033,40.83887141760084],[-70.75057586073616,40.8425444959266],[-70.74863379613593,40.74477132070089],[-70.70590837492489,40.745506994541955],[-70.70396631032384,40.660114557919314],[-70.6457043723092,40.659377940304836],[-70.6447333400091,40.61664020225891],[-70.53209359317952,40.618114372806104],[-70.53209359317952,40.58567510695735],[-70.31943751942356,40.5886247816388],[-70.31846648712344,40.601159447621086],[-70.30292997031904,40.60042217937857],[-70.30487203492012,40.62106261631308],[-70.0213306032455,40.624747737716206],[-70.02521473244684,40.75433444587753],[-70.19417435269077,40.75359886969227],[-70.19611641729185,40.83887141760084],[-70.25534938760741,40.83887141760084],[-70.25340732300636,40.92476809765111],[-70.3689601667371,40.92330071490366],[-70.37090223133734,41.09622690873988],[-70.4301352016529,41.09549512823526],[-70.43110623395302,41.137924921192024]],"type":"LineString"},"name":"LineString"}],"name":"us_eastcoast_cluster","type":"FeatureCollection"}