{"type": "FeatureCollection", "features": [{"type": "Feature", "properties": {"wf_develop": "Cerulean Winds", "turbine_mo": "TBA", "cod": "2031-12-31T00:00:00", "wf_name": "Beech", "status": "Early Planning", "country": "United Kingdom", "capacity_m": 1008, "wf_owners": "Frontier Power International Limited, Worley, Siemens Gamesa, Siemens Energy, DEME, NOV, GoBe", "tippecanoe_feature_density": 0}, "geometry": {"type": "Polygon", "coordinates": [[[1.64794921875, 58.031372421776354], [1.70013427734375, 58.00664262597164], [1.7083730464096132, 58.004459912308356], [1.72210693359375, 58.00154907522011], [1.7450204573428618, 57.98021636433383], [1.7852783203125, 57.94401445403341], [1.77703857421875, 57.93380880891465], [1.836090087890625, 57.8768956380562], [1.82098388671875, 57.84036540787082], [1.77703857421875, 57.79940752710536], [1.775665283203125, 57.79940752710536], [1.7583622674770238, 57.79940752710536], [1.7138671875, 57.75986834637442], [1.614990234375, 57.78330419811965], [1.61224365234375, 57.83159263591682], [1.6055023384582991, 57.83817125803123], [1.59576416015625, 57.846943585179076], [1.53533935546875, 57.88784747983195], [1.5356030181267795, 57.8883990041874], [1.53533935546875, 57.888577484047545], [1.5503660123229872, 57.91927994470207], [1.608123779296875, 58.04009650416663], [1.60936409234802, 58.03982480363057], [1.6094970703125, 58.04009650416663], [1.64794921875, 58.031372421776354]]]}}]}