{"type": "FeatureCollection", "features": [{"type": "Feature", "properties": {"wf_develop": "Shell/ScottishPower", "turbine_mo": "TBA", "fou_type": "Floating", "wf_name": "MarramWind", "status": "Early Planning", "country": "United Kingdom", "capacity_m": 3000, "wf_owners": "Shell/ScottishPower", "tippecanoe_feature_density": 0}, "geometry": {"type": "Polygon", "coordinates": [[[-0.4559326171875, 58.00955290100552], [-0.800628662109375, 58.014645312914865], [-0.806121826171875, 58.02846392123138], [-0.7745361328125, 58.070589181242255], [-0.74432373046875, 58.11271444125313], [-0.867919921875, 58.15476518570205], [-0.6536865234375, 58.365715792065174], [-0.495758056640625, 58.28495164762444], [-0.42572021484375, 58.19097599302563], [-0.4559326171875, 58.00955290100552]]]}}]}