{"type": "FeatureCollection", "features": [{"type": "Feature", "properties": {"wf_develop": "SSE Renewables/Marubeni/CIP", "turbine_mo": "TBA", "fou_type": "Floating", "wf_name": "Ossian", "status": "Early Planning", "country": "United Kingdom", "capacity_m": 3600, "wf_owners": "SSE Renewables/Marubeni/CIP", "tippecanoe_feature_density": 0}, "geometry": {"type": "Polygon", "coordinates": [[[-0.10986328125, 56.67961942071588], [-0.05767822265625, 56.66603819878972], [0.03431698267801744, 56.593740004610936], [0.0494384765625, 56.582179097916196], [0.010986328125, 56.57158903959723], [0.0, 56.57310208666115], [-0.09648347682292908, 56.586091475749086], [-0.10986328125, 56.58747301491775], [-0.10986328125, 56.587657375640475], [-0.122222900390625, 56.58898542646165], [-0.14831431103855677, 56.587473049500105], [-0.17303466796875, 56.58520428412791], [-0.19775390625, 56.55645523938577], [-0.2142333984375, 56.517079019323745], [-0.3790283203125, 56.49434334164599], [-0.451812744140625, 56.57915366960847], [-0.5223657410768002, 56.647659391188846], [-0.56304931640625, 56.68640819588569], [-0.67291259765625, 56.779817910776046], [-0.83221435546875, 56.86398859051971], [-0.8308409039751042, 56.86473917727313], [-0.830841064453125, 56.86473926282153], [-0.79925537109375, 56.882000567784644], [-0.76904296875, 56.90450333908814], [-0.7680219976423026, 56.90425233385537], [-0.767669677734375, 56.90450333908814], [-0.6935528848404419, 56.885944139968366], [-0.604248046875, 56.86398859051971], [-0.5425507256682772, 56.84165860962442], [-0.424346923828125, 56.799374390088246], [-0.237579345703125, 56.712043637437034], [-0.2197265625, 56.707478212227755], [-0.2197265625, 56.707521004705455], [-0.21103076437343454, 56.705254468426574], [-0.10986328125, 56.67938328786299], [-0.10986328125, 56.67961942071588]]]}}]}