{"type": "FeatureCollection", "features": [{"type": "Feature", "properties": {"wf_develop": "Bay State Wind LLC", "turbine_mo": "TBA", "wf_name": "Bay State Wind (OCS-A 0500)", "status": "Consent Application Submitted", "country": "United States", "capacity_m": 2000, "wf_owners": "Orsted, Eversource", "tippecanoe_feature_density": 0}, "geometry": {"type": "MultiPolygon", "coordinates": [[[[-70.66886901855469, 40.98482245739558], [-70.66887718893248, 40.98482231054572], [-70.66886901855469, 40.98456328825827], [-70.68328857421875, 40.98430411810247], [-70.68328857421875, 40.979898069620134], [-70.68294525146484, 40.97367726477833], [-70.697021484375, 40.973418051845556], [-70.697021484375, 40.96253018900654], [-70.71109771728516, 40.962270932280745], [-70.71075439453125, 40.95164052968215], [-70.72517395019531, 40.95138123018407], [-70.7248306274414, 40.94048973170135], [-70.73890686035156, 40.94048973170135], [-70.73890686035156, 40.92959643692987], [-70.75298309326172, 40.92933705087589], [-70.75263977050781, 40.91844191714796], [-70.76705932617188, 40.91844191714796], [-70.76671600341797, 40.90754498732906], [-70.78079223632812, 40.907285514728756], [-70.78079223632812, 40.896386746156395], [-70.79486846923828, 40.896386746156395], [-70.79452514648438, 40.88548618169196], [-70.80894470214844, 40.88522662255491], [-70.80860137939453, 40.87432421954122], [-70.82267761230469, 40.87432421954122], [-70.82233428955078, 40.863420020835434], [-70.83675384521484, 40.863160375171276], [-70.83641052246094, 40.85225433812161], [-70.8504867553711, 40.85225433812161], [-70.8504867553711, 40.841346505581015], [-71.00669860839844, 40.838749137964584], [-71.00257873535156, 40.698340181787756], [-71.04515075683594, 40.69755930345005], [-71.05064392089844, 40.87043006899356], [-70.99365234375, 40.87146853153462], [-70.9939956665039, 40.887562618139384], [-70.95142364501953, 40.88834126500964], [-70.95176696777344, 40.90443124892883], [-70.93048095703125, 40.90495021551013], [-70.93082427978516, 40.921036159521435], [-70.90953826904297, 40.92155499577768], [-70.91056823730469, 40.9539741793387], [-70.8892822265625, 40.95423346865314], [-70.8896255493164, 40.97030741721204], [-70.86833953857422, 40.970825866502224], [-70.86868286132812, 40.979898069620134], [-70.86868286132812, 40.98689577382686], [-70.86868286132812, 40.98715493379734], [-70.82576751708984, 40.98767325068272], [-70.82645416259766, 41.00062984868538], [-70.82614245550417, 41.00062984868538], [-70.82748413085938, 41.0469935915377], [-70.81340789794922, 41.04725251517243], [-70.81340789794922, 41.05812638780225], [-70.79933166503906, 41.05838526762571], [-70.79967498779297, 41.069257300135035], [-70.77117919921875, 41.069516136144955], [-70.77186584472656, 41.102121320364915], [-70.67195892333984, 41.103414843140456], [-70.67230224609375, 41.114279428574434], [-70.64346313476562, 41.114796744942964], [-70.64380645751953, 41.12540083208583], [-70.61531066894531, 41.1259180608036], [-70.61565399169922, 41.136778922098955], [-70.60123443603516, 41.13703749212047], [-70.48690795898438, 41.13833032693901], [-70.48656463623047, 41.127728329210186], [-70.50098419189453, 41.127469722495505], [-70.50064086914062, 41.11660732012896], [-70.51506042480469, 41.11634866958849], [-70.51471710205078, 41.105743119932214], [-70.52913665771484, 41.105484426587395], [-70.52879333496094, 41.094618385851476], [-70.543212890625, 41.09435964868544], [-70.5428695678711, 41.08375054747407], [-70.55728912353516, 41.083491767508235], [-70.55694580078125, 41.07262208878544], [-70.5710220336914, 41.07236326500299], [-70.5710220336914, 41.06175061261109], [-70.58509826660156, 41.06149174603334], [-70.58475494384766, 41.05061842970855], [-70.59917449951172, 41.050359519318874], [-70.59883117675781, 41.03974331612318], [-70.61325073242188, 41.039484362942744], [-70.61290740966797, 41.028607409403065], [-70.62732696533203, 41.02834841241537], [-70.62698364257812, 41.01772865879491], [-70.64105987548828, 41.017469619021], [-70.64105987548828, 41.00658902865581], [-70.65513610839844, 41.006329945079386], [-70.65479278564453, 40.99570664141535], [-70.6692123413086, 40.99544751505735], [-70.66886901855469, 40.98482245739558]]], [[[-70.80001831054688, 41.07986874098995], [-70.81409454345703, 41.07960994573898], [-70.81375122070312, 41.0689984631062], [-70.82817077636719, 41.068739625058384], [-70.828857421875, 41.09021971543652], [-70.81443786621094, 41.09047846890749], [-70.81478118896484, 41.10134519447027], [-70.78628540039062, 41.101862612752456], [-70.78594207763672, 41.090995972792314], [-70.80001831054688, 41.09073722135943], [-70.80001831054688, 41.07986874098995]]]]}}]}