{"type": "FeatureCollection", "features": [{"type": "Feature", "properties": {"wf_develop": "RWE Renewables, Stadtwerke Muenchen, Siemens Financial Services", "turbine_mo": "TBA", "cod": "2030-12-31T00:00:00", "wf_name": "Awel Y Mor", "status": "Consent Authorised", "no_turbine": 50, "country": "United Kingdom", "capacity_m": 1100, "wf_owners": "RWE Renewables", "tippecanoe_feature_density": 0}, "geometry": {"type": "Polygon", "coordinates": [[[-3.626861572265625, 53.485185606792584], [-3.6756134033203125, 53.46802198158528], [-3.6920928955078125, 53.45044250555688], [-3.687286376953125, 53.44594426113315], [-3.7459945678710938, 53.42160459030089], [-4.000053405761719, 53.474152644708], [-4.000053405761719, 53.486207032236734], [-3.610382080078125, 53.49070101200215], [-3.626861572265625, 53.485185606792584]]]}}]}