{"type": "FeatureCollection", "features": [{"type": "Feature", "properties": {"point_type": "turbine", "turbinemod": "V90-3.0", "oem": "Vestas", "foundation": "Monopile", "water_dept": -16, "turbine_mw": 3, "distance_to_shore": 11898, "tippecanoe_feature_density": 0}, "geometry": {"type": "Point", "coordinates": [-3.302764892578125, 54.008979318660835]}}, {"type": "Feature", "properties": {"point_type": "turbine", "turbinemod": "V90-3.0", "oem": "Vestas", "foundation": "Monopile", "water_dept": -18, "turbine_mw": 3, "distance_to_shore": 14205, "tippecanoe_feature_density": 0}, "geometry": {"type": "Point", "coordinates": [-3.3292007446289062, 53.99505579013578]}}, {"type": "Feature", "properties": {"point_type": "turbine", "turbinemod": "V90-3.0", "oem": "Vestas", "foundation": "Monopile", "water_dept": -17, "turbine_mw": 3, "distance_to_shore": 13403, "tippecanoe_feature_density": 0}, "geometry": {"type": "Point", "coordinates": [-3.3185577392578125, 53.998890269910135]}}, {"type": "Feature", "properties": {"point_type": "turbine", "turbinemod": "V90-3.0", "oem": "Vestas", "foundation": "Monopile", "water_dept": -18, "turbine_mw": 3, "distance_to_shore": 14111, "tippecanoe_feature_density": 0}, "geometry": {"type": "Point", "coordinates": [-3.3233642578125, 53.99223015799399]}}, {"type": "Feature", "properties": {"point_type": "turbine", "turbinemod": "V90-3.0", "oem": "Vestas", "foundation": "Monopile", "water_dept": -17, "turbine_mw": 3, "distance_to_shore": 14024, "tippecanoe_feature_density": 0}, "geometry": {"type": "Point", "coordinates": [-3.31787109375, 53.98920248219227]}}, {"type": "Feature", "properties": {"point_type": "turbine", "turbinemod": "V90-3.0", "oem": "Vestas", "foundation": "Monopile", "water_dept": -16, "turbine_mw": 3, "distance_to_shore": 12694, "tippecanoe_feature_density": 0}, "geometry": {"type": "Point", "coordinates": [-3.3134078979492188, 54.005549316476475]}}, {"type": "Feature", "properties": {"point_type": "turbine", "turbinemod": "V90-3.0", "oem": "Vestas", "foundation": "Monopile", "water_dept": -16, "turbine_mw": 3, "distance_to_shore": 12606, "tippecanoe_feature_density": 0}, "geometry": {"type": "Point", "coordinates": [-3.3079147338867188, 54.002522609191146]}}, {"type": "Feature", "properties": {"point_type": "turbine", "turbinemod": "V90-3.0", "oem": "Vestas", "foundation": "Monopile", "water_dept": -17, "turbine_mw": 3, "distance_to_shore": 13315, "tippecanoe_feature_density": 0}, "geometry": {"type": "Point", "coordinates": [-3.3130645751953125, 53.99586307838487]}}, {"type": "Feature", "properties": {"point_type": "turbine", "turbinemod": "V90-3.0", "oem": "Vestas", "foundation": "Monopile", "water_dept": -16, "turbine_mw": 3, "distance_to_shore": 11803, "tippecanoe_feature_density": 0}, "geometry": {"type": "Point", "coordinates": [-3.297271728515625, 54.00615463152167]}}, {"type": "Feature", "properties": {"point_type": "turbine", "turbinemod": "V90-3.0", "oem": "Vestas", "foundation": "Monopile", "water_dept": -16, "turbine_mw": 3, "distance_to_shore": 12513, "tippecanoe_feature_density": 0}, "geometry": {"type": "Point", "coordinates": [-3.3024215698242188, 53.99949568180131]}}, {"type": "Feature", "properties": {"point_type": "turbine", "turbinemod": "V90-3.0", "oem": "Vestas", "foundation": "Monopile", "water_dept": -16, "turbine_mw": 3, "distance_to_shore": 12426, "tippecanoe_feature_density": 0}, "geometry": {"type": "Point", "coordinates": [-3.2965850830078125, 53.99646853429937]}}, {"type": "Feature", "properties": {"point_type": "turbine", "turbinemod": "V90-3.0", "oem": "Vestas", "foundation": "Monopile", "water_dept": -16, "turbine_mw": 3, "distance_to_shore": 13221, "tippecanoe_feature_density": 0}, "geometry": {"type": "Point", "coordinates": [-3.3072280883789062, 53.99303750102993]}}, {"type": "Feature", "properties": {"point_type": "turbine", "turbinemod": "V90-3.0", "oem": "Vestas", "foundation": "Monopile", "water_dept": -17, "turbine_mw": 3, "distance_to_shore": 13931, "tippecanoe_feature_density": 0}, "geometry": {"type": "Point", "coordinates": [-3.3123779296875, 53.98637645283094]}}, {"type": "Feature", "properties": {"point_type": "turbine", "turbinemod": "V90-3.0", "oem": "Vestas", "foundation": "Monopile", "water_dept": -16, "turbine_mw": 3, "distance_to_shore": 13137, "tippecanoe_feature_density": 0}, "geometry": {"type": "Point", "coordinates": [-3.3017349243164062, 53.99000988393033]}}, {"type": "Feature", "properties": {"point_type": "turbine", "turbinemod": "V90-3.0", "oem": "Vestas", "foundation": "Monopile", "water_dept": -17, "turbine_mw": 3, "distance_to_shore": 13858, "tippecanoe_feature_density": 0}, "geometry": {"type": "Point", "coordinates": [-3.306884765625, 53.983348351422734]}}, {"type": "Feature", "properties": {"point_type": "turbine", "turbinemod": "V90-3.0", "oem": "Vestas", "foundation": "Monopile", "water_dept": -16, "turbine_mw": 3, "distance_to_shore": 13062, "tippecanoe_feature_density": 0}, "geometry": {"type": "Point", "coordinates": [-3.2962417602539062, 53.986982046694976]}}, {"type": "Feature", "properties": {"point_type": "turbine", "turbinemod": "V90-3.0", "oem": "Vestas", "foundation": "Monopile", "water_dept": -17, "turbine_mw": 3, "distance_to_shore": 13803, "tippecanoe_feature_density": 0}, "geometry": {"type": "Point", "coordinates": [-3.3010482788085938, 53.980320029862185]}}, {"type": "Feature", "properties": {"point_type": "turbine", "turbinemod": "V90-3.0", "oem": "Vestas", "foundation": "Monopile", "water_dept": -16, "turbine_mw": 3, "distance_to_shore": 11716, "tippecanoe_feature_density": 0}, "geometry": {"type": "Point", "coordinates": [-3.291778564453125, 54.00312796825634]}}, {"type": "Feature", "properties": {"point_type": "turbine", "turbinemod": "V90-3.0", "oem": "Vestas", "foundation": "Monopile", "water_dept": -16, "turbine_mw": 3, "distance_to_shore": 11624, "tippecanoe_feature_density": 0}, "geometry": {"type": "Point", "coordinates": [-3.2859420776367188, 54.00030288396033]}}, {"type": "Feature", "properties": {"point_type": "turbine", "turbinemod": "V90-3.0", "oem": "Vestas", "foundation": "Monopile", "water_dept": -15, "turbine_mw": 3, "distance_to_shore": 11545, "tippecanoe_feature_density": 0}, "geometry": {"type": "Point", "coordinates": [-3.2804489135742188, 53.9972757951557]}}, {"type": "Feature", "properties": {"point_type": "turbine", "turbinemod": "V90-3.0", "oem": "Vestas", "foundation": "Monopile", "water_dept": -15, "turbine_mw": 3, "distance_to_shore": 12337, "tippecanoe_feature_density": 0}, "geometry": {"type": "Point", "coordinates": [-3.2910919189453125, 53.99364299803423]}}, {"type": "Feature", "properties": {"point_type": "turbine", "turbinemod": "V90-3.0", "oem": "Vestas", "foundation": "Monopile", "water_dept": -16, "turbine_mw": 3, "distance_to_shore": 12275, "tippecanoe_feature_density": 0}, "geometry": {"type": "Point", "coordinates": [-3.2855987548828125, 53.99061542496088]}}, {"type": "Feature", "properties": {"point_type": "turbine", "turbinemod": "V90-3.0", "oem": "Vestas", "foundation": "Monopile", "water_dept": -16, "turbine_mw": 3, "distance_to_shore": 13012, "tippecanoe_feature_density": 0}, "geometry": {"type": "Point", "coordinates": [-3.2904052734375, 53.98395398931632]}}, {"type": "Feature", "properties": {"point_type": "turbine", "turbinemod": "V90-3.0", "oem": "Vestas", "foundation": "Monopile", "water_dept": -14, "turbine_mw": 3, "distance_to_shore": 11486, "tippecanoe_feature_density": 0}, "geometry": {"type": "Point", "coordinates": [-3.2749557495117188, 53.99424848623346]}}, {"type": "Feature", "properties": {"point_type": "turbine", "turbinemod": "V90-3.0", "oem": "Vestas", "foundation": "Monopile", "water_dept": -16, "turbine_mw": 3, "distance_to_shore": 12231, "tippecanoe_feature_density": 0}, "geometry": {"type": "Point", "coordinates": [-3.2801055908203125, 53.987587631753286]}}, {"type": "Feature", "properties": {"point_type": "turbine", "turbinemod": "V90-3.0", "oem": "Vestas", "foundation": "Monopile", "water_dept": -15, "turbine_mw": 3, "distance_to_shore": 12201, "tippecanoe_feature_density": 0}, "geometry": {"type": "Point", "coordinates": [-3.2742691040039062, 53.984761492809525]}}, {"type": "Feature", "properties": {"point_type": "turbine", "turbinemod": "V90-3.0", "oem": "Vestas", "foundation": "Monopile", "water_dept": -14, "turbine_mw": 3, "distance_to_shore": 11448, "tippecanoe_feature_density": 0}, "geometry": {"type": "Point", "coordinates": [-3.2694625854492188, 53.991220957186044]}}, {"type": "Feature", "properties": {"point_type": "turbine", "turbinemod": "V90-3.0", "oem": "Vestas", "foundation": "Monopile", "water_dept": -16, "turbine_mw": 3, "distance_to_shore": 13758, "tippecanoe_feature_density": 0}, "geometry": {"type": "Point", "coordinates": [-3.2955551147460938, 53.97749339777263]}}, {"type": "Feature", "properties": {"point_type": "turbine", "turbinemod": "V90-3.0", "oem": "Vestas", "foundation": "Monopile", "water_dept": -16, "turbine_mw": 3, "distance_to_shore": 12982, "tippecanoe_feature_density": 0}, "geometry": {"type": "Point", "coordinates": [-3.284912109375, 53.98112760380474]}}, {"type": "Feature", "properties": {"point_type": "turbine", "turbinemod": "V90-3.0", "oem": "Vestas", "foundation": "Monopile", "water_dept": -16, "turbine_mw": 3, "distance_to_shore": 13738, "tippecanoe_feature_density": 0}, "geometry": {"type": "Point", "coordinates": [-3.2900619506835938, 53.974464650562794]}}]}