{"type": "FeatureCollection", "features": [{"type": "Feature", "properties": {"wf_develop": "Orsted", "turbine_mo": "SWT-3.6-107", "fou_type": "Monopile", "wtg_hubhei": 84, "wtg_oem": "Siemens Gamesa", "cod": "2007-10-01T00:00:00", "wf_name": "Burbo Bank", "status": "Fully Commissioned", "no_turbine": 25, "country": "United Kingdom", "capacity_m": 90, "wf_owners": "Orsted", "tippecanoe_feature_density": 0}, "geometry": {"type": "Polygon", "coordinates": [[[-3.1475830078125, 53.48171257630568], [-3.1788253784179688, 53.47026999422229], [-3.2238006591796875, 53.494581793167185], [-3.2200241088867188, 53.50275069799929], [-3.1867218017578125, 53.50315910192688], [-3.1475830078125, 53.48171257630568]]]}}]}