{"type": "FeatureCollection", "features": [{"type": "Feature", "properties": {"point_type": "turbine", "turbinemod": "MHI V164-8.0", "oem": "Vestas", "foundation": "Monopile", "water_dept": -14, "turbine_mw": 8, "distance_to_shore": 16751, "tippecanoe_feature_density": 0}, "geometry": {"type": "Point", "coordinates": [-3.3724594116210938, 53.50152546260912]}}, {"type": "Feature", "properties": {"point_type": "turbine", "turbinemod": "MHI V164-8.0", "oem": "Vestas", "foundation": "Monopile", "water_dept": -13, "turbine_mw": 8, "distance_to_shore": 16169, "tippecanoe_feature_density": 0}, "geometry": {"type": "Point", "coordinates": [-3.363189697265625, 53.49641993397924]}}, {"type": "Feature", "properties": {"point_type": "turbine", "turbinemod": "MHI V164-8.0", "oem": "Vestas", "foundation": "Monopile", "water_dept": -13, "turbine_mw": 8, "distance_to_shore": 16413, "tippecanoe_feature_density": 0}, "geometry": {"type": "Point", "coordinates": [-3.3528900146484375, 53.50152546260912]}}, {"type": "Feature", "properties": {"point_type": "turbine", "turbinemod": "MHI V164-8.0", "oem": "Vestas", "foundation": "Monopile", "water_dept": -13, "turbine_mw": 8, "distance_to_shore": 15458, "tippecanoe_feature_density": 0}, "geometry": {"type": "Point", "coordinates": [-3.352203369140625, 53.49008822461744]}}, {"type": "Feature", "properties": {"point_type": "turbine", "turbinemod": "MHI V164-8.0", "oem": "Vestas", "foundation": "Monopile", "water_dept": -13, "turbine_mw": 8, "distance_to_shore": 14417, "tippecanoe_feature_density": 0}, "geometry": {"type": "Point", "coordinates": [-3.3405303955078125, 53.483755569850075]}}, {"type": "Feature", "properties": {"point_type": "turbine", "turbinemod": "MHI V164-8.0", "oem": "Vestas", "foundation": "Monopile", "water_dept": -12, "turbine_mw": 8, "distance_to_shore": 15750, "tippecanoe_feature_density": 0}, "geometry": {"type": "Point", "coordinates": [-3.3377838134765625, 53.50152546260912]}}, {"type": "Feature", "properties": {"point_type": "turbine", "turbinemod": "MHI V164-8.0", "oem": "Vestas", "foundation": "Monopile", "water_dept": -11, "turbine_mw": 8, "distance_to_shore": 15015, "tippecanoe_feature_density": 0}, "geometry": {"type": "Point", "coordinates": [-3.3195877075195312, 53.50152546260912]}}, {"type": "Feature", "properties": {"point_type": "turbine", "turbinemod": "MHI V164-8.0", "oem": "Vestas", "foundation": "Monopile", "water_dept": -10, "turbine_mw": 8, "distance_to_shore": 14983, "tippecanoe_feature_density": 0}, "geometry": {"type": "Point", "coordinates": [-3.3367538452148438, 53.49294782332984]}}, {"type": "Feature", "properties": {"point_type": "turbine", "turbinemod": "MHI V164-8.0", "oem": "Vestas", "foundation": "Monopile", "water_dept": -9, "turbine_mw": 8, "distance_to_shore": 14474, "tippecanoe_feature_density": 0}, "geometry": {"type": "Point", "coordinates": [-3.3051681518554688, 53.50172967096657]}}, {"type": "Feature", "properties": {"point_type": "turbine", "turbinemod": "MHI V164-8.0", "oem": "Vestas", "foundation": "Monopile", "water_dept": -7, "turbine_mw": 8, "distance_to_shore": 13843, "tippecanoe_feature_density": 0}, "geometry": {"type": "Point", "coordinates": [-3.2866287231445312, 53.50172967096657]}}, {"type": "Feature", "properties": {"point_type": "turbine", "turbinemod": "MHI V164-8.0", "oem": "Vestas", "foundation": "Monopile", "water_dept": -8, "turbine_mw": 8, "distance_to_shore": 13156, "tippecanoe_feature_density": 0}, "geometry": {"type": "Point", "coordinates": [-3.2900619506835938, 53.49335632169161]}}, {"type": "Feature", "properties": {"point_type": "turbine", "turbinemod": "MHI V164-8.0", "oem": "Vestas", "foundation": "Monopile", "water_dept": -7, "turbine_mw": 8, "distance_to_shore": 13177, "tippecanoe_feature_density": 0}, "geometry": {"type": "Point", "coordinates": [-3.2694625854492188, 53.50172967096657]}}, {"type": "Feature", "properties": {"point_type": "turbine", "turbinemod": "MHI V164-8.0", "oem": "Vestas", "foundation": "Monopile", "water_dept": -5, "turbine_mw": 8, "distance_to_shore": 12105, "tippecanoe_feature_density": 0}, "geometry": {"type": "Point", "coordinates": [-3.2522964477539062, 53.50172967096657]}}, {"type": "Feature", "properties": {"point_type": "turbine", "turbinemod": "MHI V164-8.0", "oem": "Vestas", "foundation": "Monopile", "water_dept": -7, "turbine_mw": 8, "distance_to_shore": 12195, "tippecanoe_feature_density": 0}, "geometry": {"type": "Point", "coordinates": [-3.2660293579101562, 53.491518048075704]}}, {"type": "Feature", "properties": {"point_type": "turbine", "turbinemod": "MHI V164-8.0", "oem": "Vestas", "foundation": "Monopile", "water_dept": -15, "turbine_mw": 8, "distance_to_shore": 13369, "tippecanoe_feature_density": 0}, "geometry": {"type": "Point", "coordinates": [-3.328857421875, 53.47742196961332]}}, {"type": "Feature", "properties": {"point_type": "turbine", "turbinemod": "MHI V164-8.0", "oem": "Vestas", "foundation": "Monopile", "water_dept": -10, "turbine_mw": 8, "distance_to_shore": 13009, "tippecanoe_feature_density": 0}, "geometry": {"type": "Point", "coordinates": [-3.3058547973632812, 53.48538989384906]}}, {"type": "Feature", "properties": {"point_type": "turbine", "turbinemod": "MHI V164-8.0", "oem": "Vestas", "foundation": "Monopile", "water_dept": -14, "turbine_mw": 8, "distance_to_shore": 12354, "tippecanoe_feature_density": 0}, "geometry": {"type": "Point", "coordinates": [-3.3175277709960938, 53.47129177878884]}}, {"type": "Feature", "properties": {"point_type": "turbine", "turbinemod": "MHI V164-8.0", "oem": "Vestas", "foundation": "Monopile", "water_dept": -12, "turbine_mw": 8, "distance_to_shore": 11241, "tippecanoe_feature_density": 0}, "geometry": {"type": "Point", "coordinates": [-3.3051681518554688, 53.464547546043235]}}, {"type": "Feature", "properties": {"point_type": "turbine", "turbinemod": "MHI V164-8.0", "oem": "Vestas", "foundation": "Monopile", "water_dept": -12, "turbine_mw": 8, "distance_to_shore": 11262, "tippecanoe_feature_density": 0}, "geometry": {"type": "Point", "coordinates": [-3.2866287231445312, 53.474152644708]}}, {"type": "Feature", "properties": {"point_type": "turbine", "turbinemod": "MHI V164-8.0", "oem": "Vestas", "foundation": "Monopile", "water_dept": -10, "turbine_mw": 8, "distance_to_shore": 10226, "tippecanoe_feature_density": 0}, "geometry": {"type": "Point", "coordinates": [-3.28216552734375, 53.464547546043235]}}, {"type": "Feature", "properties": {"point_type": "turbine", "turbinemod": "MHI V164-8.0", "oem": "Vestas", "foundation": "Monopile", "water_dept": -11, "turbine_mw": 8, "distance_to_shore": 11480, "tippecanoe_feature_density": 0}, "geometry": {"type": "Point", "coordinates": [-3.269805908203125, 53.48293838423851]}}, {"type": "Feature", "properties": {"point_type": "turbine", "turbinemod": "MHI V164-8.0", "oem": "Vestas", "foundation": "Monopile", "water_dept": -9, "turbine_mw": 8, "distance_to_shore": 9584, "tippecanoe_feature_density": 0}, "geometry": {"type": "Point", "coordinates": [-3.26568603515625, 53.464547546043235]}}, {"type": "Feature", "properties": {"point_type": "turbine", "turbinemod": "MHI V164-8.0", "oem": "Vestas", "foundation": "Monopile", "water_dept": -6, "turbine_mw": 8, "distance_to_shore": 10977, "tippecanoe_feature_density": 0}, "geometry": {"type": "Point", "coordinates": [-3.2344436645507812, 53.501933878340424]}}, {"type": "Feature", "properties": {"point_type": "turbine", "turbinemod": "MHI V164-8.0", "oem": "Vestas", "foundation": "Monopile", "water_dept": -6, "turbine_mw": 8, "distance_to_shore": 11386, "tippecanoe_feature_density": 0}, "geometry": {"type": "Point", "coordinates": [-3.236846923828125, 53.49294782332984]}}, {"type": "Feature", "properties": {"point_type": "turbine", "turbinemod": "MHI V164-8.0", "oem": "Vestas", "foundation": "Monopile", "water_dept": -9, "turbine_mw": 8, "distance_to_shore": 10263, "tippecanoe_feature_density": 0}, "geometry": {"type": "Point", "coordinates": [-3.231353759765625, 53.483142682117176]}}, {"type": "Feature", "properties": {"point_type": "turbine", "turbinemod": "MHI V164-8.0", "oem": "Vestas", "foundation": "Monopile", "water_dept": -9, "turbine_mw": 8, "distance_to_shore": 10026, "tippecanoe_feature_density": 0}, "geometry": {"type": "Point", "coordinates": [-3.2495498657226562, 53.474765662314326]}}, {"type": "Feature", "properties": {"point_type": "turbine", "turbinemod": "MHI V164-8.0", "oem": "Vestas", "foundation": "Monopile", "water_dept": -7, "turbine_mw": 8, "distance_to_shore": 9033, "tippecanoe_feature_density": 0}, "geometry": {"type": "Point", "coordinates": [-3.24920654296875, 53.464547546043235]}}, {"type": "Feature", "properties": {"point_type": "turbine", "turbinemod": "MHI V164-8.0", "oem": "Vestas", "foundation": "Monopile", "water_dept": -6, "turbine_mw": 8, "distance_to_shore": 8512, "tippecanoe_feature_density": 0}, "geometry": {"type": "Point", "coordinates": [-3.2330703735351562, 53.46475193247676]}}, {"type": "Feature", "properties": {"point_type": "turbine", "turbinemod": "MHI V164-8.0", "oem": "Vestas", "foundation": "Monopile", "water_dept": -6, "turbine_mw": 8, "distance_to_shore": 8664, "tippecanoe_feature_density": 0}, "geometry": {"type": "Point", "coordinates": [-3.2131576538085938, 53.472722235855315]}}, {"type": "Feature", "properties": {"point_type": "turbine", "turbinemod": "MHI V164-8.0", "oem": "Vestas", "foundation": "Monopile", "water_dept": -6, "turbine_mw": 8, "distance_to_shore": 7988, "tippecanoe_feature_density": 0}, "geometry": {"type": "Point", "coordinates": [-3.21624755859375, 53.46475193247676]}}, {"type": "Feature", "properties": {"point_type": "turbine", "turbinemod": "MHI V164-8.0", "oem": "Vestas", "foundation": "Monopile", "water_dept": -6, "turbine_mw": 8, "distance_to_shore": 7488, "tippecanoe_feature_density": 0}, "geometry": {"type": "Point", "coordinates": [-3.2007980346679688, 53.46475193247676]}}, {"type": "Feature", "properties": {"point_type": "turbine", "turbinemod": "MHI V164-8.0", "oem": "Vestas", "foundation": "Monopile", "water_dept": -6, "turbine_mw": 8, "distance_to_shore": 7400, "tippecanoe_feature_density": 0}, "geometry": {"type": "Point", "coordinates": [-3.1877517700195312, 53.46802198158528]}}]}