{"type": "FeatureCollection", "features": [{"type": "Feature", "properties": {"point_type": "substation", "distance_to_shore": 26745, "foundation": "Jacket", "item": "Substation", "seabed_soil": "Coarse-grained sediment", "sub_name": "SUBSTATION WEST", "topside_manufacture": "Siemens", "topside_weight": 1500, "water_dept": -18, "wf_name": "Gwynt y Mor", "tippecanoe_feature_density": 0}, "geometry": {"type": "Point", "coordinates": [-3.6237716674804688, 53.43715086245288]}}, {"type": "Feature", "properties": {"point_type": "substation", "distance_to_shore": 27828, "foundation": "Jacket", "item": "Substation", "seabed_soil": "Coarse-grained sediment", "sub_name": "SUBSTATION EAST", "topside_manufacture": "Siemens", "topside_weight": 1500, "water_dept": -17, "wf_name": "Gwynt y Mor", "tippecanoe_feature_density": 0}, "geometry": {"type": "Point", "coordinates": [-3.5406875610351562, 53.46556946837046]}}]}