{"type": "FeatureCollection", "features": [{"type": "Feature", "properties": {"wf_develop": "CIP", "turbine_mo": "TBA", "cod": "2030-01-01T00:00:00", "wf_name": "Morecambe Offshore Windfarm", "status": "Consent Authorised", "no_turbine": 32, "country": "United Kingdom", "capacity_m": 480, "wf_owners": "CIP", "tippecanoe_feature_density": 0}, "geometry": {"type": "Polygon", "coordinates": [[[-3.5708999633789062, 53.82821782952169], [-3.4967422485351562, 53.8292309767462], [-3.4939956665039062, 53.75459785670182], [-3.6011123657226562, 53.75013188687072], [-3.7384414672851562, 53.80004252626637], [-3.6999893188476562, 53.85596920182317], [-3.5708999633789062, 53.82821782952169]]]}}]}