{"type": "FeatureCollection", "features": [{"type": "Feature", "properties": {"point_type": "turbine", "turbinemod": "V80-2.0", "oem": "Vestas", "foundation": "Monopile", "water_dept": -10, "turbine_mw": 2, "distance_to_shore": 10440, "tippecanoe_feature_density": 0}, "geometry": {"type": "Point", "coordinates": [-3.47442626953125, 53.423036721528206]}}, {"type": "Feature", "properties": {"point_type": "turbine", "turbinemod": "V80-2.0", "oem": "Vestas", "foundation": "Monopile", "water_dept": -10, "turbine_mw": 2, "distance_to_shore": 10099, "tippecanoe_feature_density": 0}, "geometry": {"type": "Point", "coordinates": [-3.4733963012695312, 53.41976320783971]}}, {"type": "Feature", "properties": {"point_type": "turbine", "turbinemod": "V80-2.0", "oem": "Vestas", "foundation": "Monopile", "water_dept": -10, "turbine_mw": 2, "distance_to_shore": 9761, "tippecanoe_feature_density": 0}, "geometry": {"type": "Point", "coordinates": [-3.4723663330078125, 53.41689867661603]}}, {"type": "Feature", "properties": {"point_type": "turbine", "turbinemod": "V80-2.0", "oem": "Vestas", "foundation": "Monopile", "water_dept": -10, "turbine_mw": 2, "distance_to_shore": 10251, "tippecanoe_feature_density": 0}, "geometry": {"type": "Point", "coordinates": [-3.4627532958984375, 53.42426422418569]}}, {"type": "Feature", "properties": {"point_type": "turbine", "turbinemod": "V80-2.0", "oem": "Vestas", "foundation": "Monopile", "water_dept": -11, "turbine_mw": 2, "distance_to_shore": 10064, "tippecanoe_feature_density": 0}, "geometry": {"type": "Point", "coordinates": [-3.4507369995117188, 53.42569626582656]}}, {"type": "Feature", "properties": {"point_type": "turbine", "turbinemod": "V80-2.0", "oem": "Vestas", "foundation": "Monopile", "water_dept": -11, "turbine_mw": 2, "distance_to_shore": 9724, "tippecanoe_feature_density": 0}, "geometry": {"type": "Point", "coordinates": [-3.44970703125, 53.42262754609996]}}, {"type": "Feature", "properties": {"point_type": "turbine", "turbinemod": "V80-2.0", "oem": "Vestas", "foundation": "Monopile", "water_dept": -10, "turbine_mw": 2, "distance_to_shore": 9912, "tippecanoe_feature_density": 0}, "geometry": {"type": "Point", "coordinates": [-3.4617233276367188, 53.42119540108985]}}, {"type": "Feature", "properties": {"point_type": "turbine", "turbinemod": "V80-2.0", "oem": "Vestas", "foundation": "Monopile", "water_dept": -9, "turbine_mw": 2, "distance_to_shore": 9419, "tippecanoe_feature_density": 0}, "geometry": {"type": "Point", "coordinates": [-3.4713363647460938, 53.4136246903569]}}, {"type": "Feature", "properties": {"point_type": "turbine", "turbinemod": "V80-2.0", "oem": "Vestas", "foundation": "Monopile", "water_dept": -9, "turbine_mw": 2, "distance_to_shore": 9079, "tippecanoe_feature_density": 0}, "geometry": {"type": "Point", "coordinates": [-3.470306396484375, 53.41055509932639]}}, {"type": "Feature", "properties": {"point_type": "turbine", "turbinemod": "V80-2.0", "oem": "Vestas", "foundation": "Monopile", "water_dept": -10, "turbine_mw": 2, "distance_to_shore": 9571, "tippecanoe_feature_density": 0}, "geometry": {"type": "Point", "coordinates": [-3.460693359375, 53.4181263564833]}}, {"type": "Feature", "properties": {"point_type": "turbine", "turbinemod": "V80-2.0", "oem": "Vestas", "foundation": "Monopile", "water_dept": -9, "turbine_mw": 2, "distance_to_shore": 9233, "tippecanoe_feature_density": 0}, "geometry": {"type": "Point", "coordinates": [-3.4596633911132812, 53.415057090358744]}}, {"type": "Feature", "properties": {"point_type": "turbine", "turbinemod": "V80-2.0", "oem": "Vestas", "foundation": "Monopile", "water_dept": -9, "turbine_mw": 2, "distance_to_shore": 8891, "tippecanoe_feature_density": 0}, "geometry": {"type": "Point", "coordinates": [-3.4586334228515625, 53.411987602709075]}}, {"type": "Feature", "properties": {"point_type": "turbine", "turbinemod": "V80-2.0", "oem": "Vestas", "foundation": "Monopile", "water_dept": -11, "turbine_mw": 2, "distance_to_shore": 9877, "tippecanoe_feature_density": 0}, "geometry": {"type": "Point", "coordinates": [-3.4390640258789062, 53.42712825922956]}}, {"type": "Feature", "properties": {"point_type": "turbine", "turbinemod": "V80-2.0", "oem": "Vestas", "foundation": "Monopile", "water_dept": -10, "turbine_mw": 2, "distance_to_shore": 9535, "tippecanoe_feature_density": 0}, "geometry": {"type": "Point", "coordinates": [-3.4380340576171875, 53.42405964287062]}}, {"type": "Feature", "properties": {"point_type": "turbine", "turbinemod": "V80-2.0", "oem": "Vestas", "foundation": "Monopile", "water_dept": -10, "turbine_mw": 2, "distance_to_shore": 9382, "tippecanoe_feature_density": 0}, "geometry": {"type": "Point", "coordinates": [-3.4486770629882812, 53.41955860486593]}}, {"type": "Feature", "properties": {"point_type": "turbine", "turbinemod": "V80-2.0", "oem": "Vestas", "foundation": "Monopile", "water_dept": -9, "turbine_mw": 2, "distance_to_shore": 9044, "tippecanoe_feature_density": 0}, "geometry": {"type": "Point", "coordinates": [-3.4476470947265625, 53.416489442117324]}}, {"type": "Feature", "properties": {"point_type": "turbine", "turbinemod": "V80-2.0", "oem": "Vestas", "foundation": "Monopile", "water_dept": -9, "turbine_mw": 2, "distance_to_shore": 8703, "tippecanoe_feature_density": 0}, "geometry": {"type": "Point", "coordinates": [-3.4466171264648438, 53.41342005784696]}}, {"type": "Feature", "properties": {"point_type": "turbine", "turbinemod": "V80-2.0", "oem": "Vestas", "foundation": "Monopile", "water_dept": -8, "turbine_mw": 2, "distance_to_shore": 8363, "tippecanoe_feature_density": 0}, "geometry": {"type": "Point", "coordinates": [-3.445587158203125, 53.41035045204762]}}, {"type": "Feature", "properties": {"point_type": "turbine", "turbinemod": "V80-2.0", "oem": "Vestas", "foundation": "Monopile", "water_dept": -10, "turbine_mw": 2, "distance_to_shore": 9195, "tippecanoe_feature_density": 0}, "geometry": {"type": "Point", "coordinates": [-3.4370040893554688, 53.42099080500762]}}, {"type": "Feature", "properties": {"point_type": "turbine", "turbinemod": "V80-2.0", "oem": "Vestas", "foundation": "Monopile", "water_dept": -9, "turbine_mw": 2, "distance_to_shore": 8855, "tippecanoe_feature_density": 0}, "geometry": {"type": "Point", "coordinates": [-3.43597412109375, 53.41792174563341]}}, {"type": "Feature", "properties": {"point_type": "turbine", "turbinemod": "V80-2.0", "oem": "Vestas", "foundation": "Monopile", "water_dept": -9, "turbine_mw": 2, "distance_to_shore": 8515, "tippecanoe_feature_density": 0}, "geometry": {"type": "Point", "coordinates": [-3.4349441528320312, 53.41485246474073]}}, {"type": "Feature", "properties": {"point_type": "turbine", "turbinemod": "V80-2.0", "oem": "Vestas", "foundation": "Monopile", "water_dept": -8, "turbine_mw": 2, "distance_to_shore": 8174, "tippecanoe_feature_density": 0}, "geometry": {"type": "Point", "coordinates": [-3.4339141845703125, 53.41178296232246]}}, {"type": "Feature", "properties": {"point_type": "turbine", "turbinemod": "V80-2.0", "oem": "Vestas", "foundation": "Monopile", "water_dept": -9, "turbine_mw": 2, "distance_to_shore": 8739, "tippecanoe_feature_density": 0}, "geometry": {"type": "Point", "coordinates": [-3.4692764282226562, 53.40748528676022]}}, {"type": "Feature", "properties": {"point_type": "turbine", "turbinemod": "V80-2.0", "oem": "Vestas", "foundation": "Monopile", "water_dept": -9, "turbine_mw": 2, "distance_to_shore": 8550, "tippecanoe_feature_density": 0}, "geometry": {"type": "Point", "coordinates": [-3.4576034545898438, 53.40891789352713]}}, {"type": "Feature", "properties": {"point_type": "turbine", "turbinemod": "V80-2.0", "oem": "Vestas", "foundation": "Monopile", "water_dept": -11, "turbine_mw": 2, "distance_to_shore": 9688, "tippecanoe_feature_density": 0}, "geometry": {"type": "Point", "coordinates": [-3.4270477294921875, 53.428560204395495]}}, {"type": "Feature", "properties": {"point_type": "turbine", "turbinemod": "V80-2.0", "oem": "Vestas", "foundation": "Monopile", "water_dept": -11, "turbine_mw": 2, "distance_to_shore": 9340, "tippecanoe_feature_density": 0}, "geometry": {"type": "Point", "coordinates": [-3.426361083984375, 53.42528711599428]}}, {"type": "Feature", "properties": {"point_type": "turbine", "turbinemod": "V80-2.0", "oem": "Vestas", "foundation": "Monopile", "water_dept": -10, "turbine_mw": 2, "distance_to_shore": 9006, "tippecanoe_feature_density": 0}, "geometry": {"type": "Point", "coordinates": [-3.4253311157226562, 53.42242295690912]}}, {"type": "Feature", "properties": {"point_type": "turbine", "turbinemod": "V80-2.0", "oem": "Vestas", "foundation": "Monopile", "water_dept": -9, "turbine_mw": 2, "distance_to_shore": 8668, "tippecanoe_feature_density": 0}, "geometry": {"type": "Point", "coordinates": [-3.4243011474609375, 53.419354000907674]}}, {"type": "Feature", "properties": {"point_type": "turbine", "turbinemod": "V80-2.0", "oem": "Vestas", "foundation": "Monopile", "water_dept": -8, "turbine_mw": 2, "distance_to_shore": 8327, "tippecanoe_feature_density": 0}, "geometry": {"type": "Point", "coordinates": [-3.4232711791992188, 53.41608020368045]}}, {"type": "Feature", "properties": {"point_type": "turbine", "turbinemod": "V80-2.0", "oem": "Vestas", "foundation": "Monopile", "water_dept": -8, "turbine_mw": 2, "distance_to_shore": 7987, "tippecanoe_feature_density": 0}, "geometry": {"type": "Point", "coordinates": [-3.4222412109375, 53.41301078987331]}}]}