{"type": "FeatureCollection", "features": [{"type": "Feature", "properties": {"point_type": "turbine", "turbinemod": "REpower-5M", "oem": "REpower", "foundation": "Jacket", "water_dept": -20, "turbine_mw": 5, "distance_to_shore": 13758, "tippecanoe_feature_density": 0}, "geometry": {"type": "Point", "coordinates": [-3.4503936767578125, 54.100274692210405]}}, {"type": "Feature", "properties": {"point_type": "turbine", "turbinemod": "REpower-5M", "oem": "REpower", "foundation": "Jacket", "water_dept": -21, "turbine_mw": 5, "distance_to_shore": 14556, "tippecanoe_feature_density": 0}, "geometry": {"type": "Point", "coordinates": [-3.462066650390625, 54.09685221914697]}}, {"type": "Feature", "properties": {"point_type": "turbine", "turbinemod": "REpower-5M", "oem": "Repower", "foundation": "Jacket", "water_dept": -21, "turbine_mw": 5, "distance_to_shore": 15024, "tippecanoe_feature_density": 0}, "geometry": {"type": "Point", "coordinates": [-3.467559814453125, 54.090207788773256]}}, {"type": "Feature", "properties": {"point_type": "turbine", "turbinemod": "REpower-5M", "oem": "Repower", "foundation": "Jacket", "water_dept": -21, "turbine_mw": 5, "distance_to_shore": 14695, "tippecanoe_feature_density": 0}, "geometry": {"type": "Point", "coordinates": [-3.4613800048828125, 54.08698586369118]}}, {"type": "Feature", "properties": {"point_type": "turbine", "turbinemod": "REpower-5M", "oem": "REpower", "foundation": "Jacket", "water_dept": -21, "turbine_mw": 5, "distance_to_shore": 14213, "tippecanoe_feature_density": 0}, "geometry": {"type": "Point", "coordinates": [-3.4558868408203125, 54.093630810050456]}}, {"type": "Feature", "properties": {"point_type": "turbine", "turbinemod": "REpower-5M", "oem": "REpower", "foundation": "Jacket", "water_dept": -21, "turbine_mw": 5, "distance_to_shore": 13883, "tippecanoe_feature_density": 0}, "geometry": {"type": "Point", "coordinates": [-3.4500503540039062, 54.09040915078404]}}, {"type": "Feature", "properties": {"point_type": "turbine", "turbinemod": "REpower-5M", "oem": "REpower", "foundation": "Jacket", "water_dept": -19, "turbine_mw": 5, "distance_to_shore": 13041, "tippecanoe_feature_density": 0}, "geometry": {"type": "Point", "coordinates": [-3.4445571899414062, 54.1071187911578]}}, {"type": "Feature", "properties": {"point_type": "turbine", "turbinemod": "REpower-5M", "oem": "REpower", "foundation": "Jacket", "water_dept": -19, "turbine_mw": 5, "distance_to_shore": 12973, "tippecanoe_feature_density": 0}, "geometry": {"type": "Point", "coordinates": [-3.438720703125, 54.10369688287696]}}, {"type": "Feature", "properties": {"point_type": "turbine", "turbinemod": "REpower-5M", "oem": "REpower", "foundation": "Jacket", "water_dept": -18, "turbine_mw": 5, "distance_to_shore": 12624, "tippecanoe_feature_density": 0}, "geometry": {"type": "Point", "coordinates": [-3.4328842163085938, 54.100274692210405]}}, {"type": "Feature", "properties": {"point_type": "turbine", "turbinemod": "REpower-5M", "oem": "REpower", "foundation": "Jacket", "water_dept": -20, "turbine_mw": 5, "distance_to_shore": 13413, "tippecanoe_feature_density": 0}, "geometry": {"type": "Point", "coordinates": [-3.4442138671875, 54.097053548909315]}}, {"type": "Feature", "properties": {"point_type": "turbine", "turbinemod": "REpower-5M", "oem": "REpower", "foundation": "Jacket", "water_dept": -20, "turbine_mw": 5, "distance_to_shore": 13565, "tippecanoe_feature_density": 0}, "geometry": {"type": "Point", "coordinates": [-3.4438705444335938, 54.08718724133848]}}, {"type": "Feature", "properties": {"point_type": "turbine", "turbinemod": "REpower-5M", "oem": "REpower", "foundation": "Jacket", "water_dept": -20, "turbine_mw": 5, "distance_to_shore": 13081, "tippecanoe_feature_density": 0}, "geometry": {"type": "Point", "coordinates": [-3.4383773803710938, 54.0938321554481]}}, {"type": "Feature", "properties": {"point_type": "turbine", "turbinemod": "REpower-5M", "oem": "REpower", "foundation": "Jacket", "water_dept": -19, "turbine_mw": 5, "distance_to_shore": 12763, "tippecanoe_feature_density": 0}, "geometry": {"type": "Point", "coordinates": [-3.4325408935546875, 54.09040915078404]}}, {"type": "Feature", "properties": {"point_type": "turbine", "turbinemod": "REpower-5M", "oem": "Repower", "foundation": "Jacket", "water_dept": -21, "turbine_mw": 5, "distance_to_shore": 14377, "tippecanoe_feature_density": 0}, "geometry": {"type": "Point", "coordinates": [-3.4552001953125, 54.08396508170449]}}, {"type": "Feature", "properties": {"point_type": "turbine", "turbinemod": "REpower-5M", "oem": "Repower", "foundation": "Jacket", "water_dept": -20, "turbine_mw": 5, "distance_to_shore": 14072, "tippecanoe_feature_density": 0}, "geometry": {"type": "Point", "coordinates": [-3.4493637084960938, 54.08074267187291]}}, {"type": "Feature", "properties": {"point_type": "turbine", "turbinemod": "REpower-5M", "oem": "Repower", "foundation": "Jacket", "water_dept": -21, "turbine_mw": 5, "distance_to_shore": 13782, "tippecanoe_feature_density": 0}, "geometry": {"type": "Point", "coordinates": [-3.4431838989257812, 54.07752001183448]}}, {"type": "Feature", "properties": {"point_type": "turbine", "turbinemod": "REpower-5M", "oem": "REpower", "foundation": "Jacket", "water_dept": -20, "turbine_mw": 5, "distance_to_shore": 13262, "tippecanoe_feature_density": 0}, "geometry": {"type": "Point", "coordinates": [-3.4380340576171875, 54.08396508170449]}}, {"type": "Feature", "properties": {"point_type": "turbine", "turbinemod": "REpower-5M", "oem": "REpower", "foundation": "Jacket", "water_dept": -19, "turbine_mw": 5, "distance_to_shore": 12972, "tippecanoe_feature_density": 0}, "geometry": {"type": "Point", "coordinates": [-3.431854248046875, 54.08074267187291]}}, {"type": "Feature", "properties": {"point_type": "turbine", "turbinemod": "REpower-5M", "oem": "Repower", "foundation": "Jacket", "water_dept": -20, "turbine_mw": 5, "distance_to_shore": 13505, "tippecanoe_feature_density": 0}, "geometry": {"type": "Point", "coordinates": [-3.4370040893554688, 54.07449854080156]}}, {"type": "Feature", "properties": {"point_type": "turbine", "turbinemod": "REpower-5M", "oem": "Repower", "foundation": "Jacket", "water_dept": -20, "turbine_mw": 5, "distance_to_shore": 13244, "tippecanoe_feature_density": 0}, "geometry": {"type": "Point", "coordinates": [-3.4311676025390625, 54.07127539596104]}}, {"type": "Feature", "properties": {"point_type": "turbine", "turbinemod": "REpower-5M", "oem": "REpower", "foundation": "Jacket", "water_dept": -19, "turbine_mw": 5, "distance_to_shore": 12289, "tippecanoe_feature_density": 0}, "geometry": {"type": "Point", "coordinates": [-3.4270477294921875, 54.097053548909315]}}, {"type": "Feature", "properties": {"point_type": "turbine", "turbinemod": "REpower-5M", "oem": "REpower", "foundation": "Jacket", "water_dept": -19, "turbine_mw": 5, "distance_to_shore": 11970, "tippecanoe_feature_density": 0}, "geometry": {"type": "Point", "coordinates": [-3.4212112426757812, 54.093630810050456]}}, {"type": "Feature", "properties": {"point_type": "turbine", "turbinemod": "REpower-5M", "oem": "REpower", "foundation": "Jacket", "water_dept": -19, "turbine_mw": 5, "distance_to_shore": 12459, "tippecanoe_feature_density": 0}, "geometry": {"type": "Point", "coordinates": [-3.426361083984375, 54.08718724133848]}}, {"type": "Feature", "properties": {"point_type": "turbine", "turbinemod": "REpower-5M", "oem": "REpower", "foundation": "Jacket", "water_dept": -18, "turbine_mw": 5, "distance_to_shore": 11665, "tippecanoe_feature_density": 0}, "geometry": {"type": "Point", "coordinates": [-3.415374755859375, 54.090207788773256]}}, {"type": "Feature", "properties": {"point_type": "turbine", "turbinemod": "REpower-5M", "oem": "REpower", "foundation": "Jacket", "water_dept": -18, "turbine_mw": 5, "distance_to_shore": 11379, "tippecanoe_feature_density": 0}, "geometry": {"type": "Point", "coordinates": [-3.4095382690429688, 54.0867844850666]}}, {"type": "Feature", "properties": {"point_type": "turbine", "turbinemod": "REpower-5M", "oem": "REpower", "foundation": "Jacket", "water_dept": -19, "turbine_mw": 5, "distance_to_shore": 12172, "tippecanoe_feature_density": 0}, "geometry": {"type": "Point", "coordinates": [-3.4205245971679688, 54.083763688420134]}}, {"type": "Feature", "properties": {"point_type": "turbine", "turbinemod": "REpower-5M", "oem": "Repower", "foundation": "Jacket", "water_dept": -20, "turbine_mw": 5, "distance_to_shore": 12699, "tippecanoe_feature_density": 0}, "geometry": {"type": "Point", "coordinates": [-3.4260177612304688, 54.07752001183448]}}, {"type": "Feature", "properties": {"point_type": "turbine", "turbinemod": "REpower-5M", "oem": "Repower", "foundation": "Jacket", "water_dept": -19, "turbine_mw": 5, "distance_to_shore": 12443, "tippecanoe_feature_density": 0}, "geometry": {"type": "Point", "coordinates": [-3.4198379516601562, 54.07429710157993]}}, {"type": "Feature", "properties": {"point_type": "turbine", "turbinemod": "REpower-5M", "oem": "REpower", "foundation": "Jacket", "water_dept": -18, "turbine_mw": 5, "distance_to_shore": 11901, "tippecanoe_feature_density": 0}, "geometry": {"type": "Point", "coordinates": [-3.4146881103515625, 54.080541262950874]}}, {"type": "Feature", "properties": {"point_type": "turbine", "turbinemod": "REpower-5M", "oem": "REpower", "foundation": "Jacket", "water_dept": -18, "turbine_mw": 5, "distance_to_shore": 11111, "tippecanoe_feature_density": 0}, "geometry": {"type": "Point", "coordinates": [-3.4037017822265625, 54.08336089891938]}}]}