{"type": "FeatureCollection", "features": [{"type": "Feature", "properties": {"wf_develop": "E.ON Climate Renewables", "turbine_mo": "V90-3.0", "fou_type": "Monopile", "wtg_hubhei": 80, "wtg_oem": "Vestas", "cod": "2010-04-01T00:00:00", "wf_name": "Robin Rigg West", "status": "Fully Commissioned", "no_turbine": 30, "country": "United Kingdom", "capacity_m": 90, "wf_owners": "E.ON Climate Renewables", "tippecanoe_feature_density": 0}, "geometry": {"type": "Polygon", "coordinates": [[[-3.7017059326171875, 54.75217052988833], [-3.70513916015625, 54.748009450543464], [-3.690032958984375, 54.74424429600754], [-3.702392578125, 54.73532542836449], [-3.7418746948242188, 54.73433432185101], [-3.7562942504882812, 54.75335933116352], [-3.7398147583007812, 54.76286848484], [-3.7017059326171875, 54.75217052988833]]]}}]}