{"type": "FeatureCollection", "features": [{"type": "Feature", "properties": {"point_type": "turbine", "turbinemod": "V90-3.0", "oem": "Vestas", "foundation": "Monopile", "water_dept": -4, "turbine_mw": 3, "distance_to_shore": 8893, "tippecanoe_feature_density": 0}, "geometry": {"type": "Point", "coordinates": [-3.736724853515625, 54.76267040025493]}}, {"type": "Feature", "properties": {"point_type": "turbine", "turbinemod": "V90-3.0", "oem": "Vestas", "foundation": "Monopile", "water_dept": -2, "turbine_mw": 3, "distance_to_shore": 9035, "tippecanoe_feature_density": 0}, "geometry": {"type": "Point", "coordinates": [-3.7281417846679688, 54.765047351291486]}}, {"type": "Feature", "properties": {"point_type": "turbine", "turbinemod": "V90-3.0", "oem": "Vestas", "foundation": "Monopile", "water_dept": -1, "turbine_mw": 3, "distance_to_shore": 9468, "tippecanoe_feature_density": 0}, "geometry": {"type": "Point", "coordinates": [-3.72161865234375, 54.76346273277832]}}, {"type": "Feature", "properties": {"point_type": "turbine", "turbinemod": "V90-3.0", "oem": "Vestas", "foundation": "Monopile", "water_dept": -2, "turbine_mw": 3, "distance_to_shore": 9303, "tippecanoe_feature_density": 0}, "geometry": {"type": "Point", "coordinates": [-3.7185287475585938, 54.76722610044152]}}, {"type": "Feature", "properties": {"point_type": "turbine", "turbinemod": "V90-3.0", "oem": "Vestas", "foundation": "Monopile", "water_dept": -3, "turbine_mw": 3, "distance_to_shore": 9252, "tippecanoe_feature_density": 0}, "geometry": {"type": "Point", "coordinates": [-3.7308883666992188, 54.76108568867383]}}, {"type": "Feature", "properties": {"point_type": "turbine", "turbinemod": "V90-3.0", "oem": "Vestas", "foundation": "Monopile", "water_dept": -1, "turbine_mw": 3, "distance_to_shore": 9683, "tippecanoe_feature_density": 0}, "geometry": {"type": "Point", "coordinates": [-3.7240219116210938, 54.75950091504589]}}, {"type": "Feature", "properties": {"point_type": "turbine", "turbinemod": "V90-3.0", "oem": "Vestas", "foundation": "Monopile", "water_dept": -2, "turbine_mw": 3, "distance_to_shore": 9932, "tippecanoe_feature_density": 0}, "geometry": {"type": "Point", "coordinates": [-3.7144088745117188, 54.76167996278778]}}, {"type": "Feature", "properties": {"point_type": "turbine", "turbinemod": "V90-3.0", "oem": "Vestas", "foundation": "Monopile", "water_dept": -2, "turbine_mw": 3, "distance_to_shore": 10117, "tippecanoe_feature_density": 0}, "geometry": {"type": "Point", "coordinates": [-3.7171554565429688, 54.75771797054759]}}, {"type": "Feature", "properties": {"point_type": "turbine", "turbinemod": "V90-3.0", "oem": "Vestas", "foundation": "Monopile", "water_dept": -3, "turbine_mw": 3, "distance_to_shore": 9615, "tippecanoe_feature_density": 0}, "geometry": {"type": "Point", "coordinates": [-3.709259033203125, 54.76920667969907]}}, {"type": "Feature", "properties": {"point_type": "turbine", "turbinemod": "V90-3.0", "oem": "Vestas", "foundation": "Monopile", "water_dept": -3, "turbine_mw": 3, "distance_to_shore": 9753, "tippecanoe_feature_density": 0}, "geometry": {"type": "Point", "coordinates": [-3.7116622924804688, 54.76564156723822]}}, {"type": "Feature", "properties": {"point_type": "turbine", "turbinemod": "V90-3.0", "oem": "Vestas", "foundation": "Monopile", "water_dept": -3, "turbine_mw": 3, "distance_to_shore": 10033, "tippecanoe_feature_density": 0}, "geometry": {"type": "Point", "coordinates": [-3.7030792236328125, 54.76762222404821]}}, {"type": "Feature", "properties": {"point_type": "turbine", "turbinemod": "V90-3.0", "oem": "Vestas", "foundation": "Monopile", "water_dept": -3, "turbine_mw": 3, "distance_to_shore": 10170, "tippecanoe_feature_density": 0}, "geometry": {"type": "Point", "coordinates": [-3.7054824829101562, 54.7638588932233]}}, {"type": "Feature", "properties": {"point_type": "turbine", "turbinemod": "V90-3.0", "oem": "Vestas", "foundation": "Monopile", "water_dept": -4, "turbine_mw": 3, "distance_to_shore": 9898, "tippecanoe_feature_density": 0}, "geometry": {"type": "Point", "coordinates": [-3.7003326416015625, 54.7713852049186]}}, {"type": "Feature", "properties": {"point_type": "turbine", "turbinemod": "V90-3.0", "oem": "Vestas", "foundation": "Monopile", "water_dept": -2, "turbine_mw": 3, "distance_to_shore": 10369, "tippecanoe_feature_density": 0}, "geometry": {"type": "Point", "coordinates": [-3.6934661865234375, 54.76980083457323]}}, {"type": "Feature", "properties": {"point_type": "turbine", "turbinemod": "V90-3.0", "oem": "Vestas", "foundation": "Monopile", "water_dept": -2, "turbine_mw": 3, "distance_to_shore": 10495, "tippecanoe_feature_density": 0}, "geometry": {"type": "Point", "coordinates": [-3.6962127685546875, 54.7658396372816]}}, {"type": "Feature", "properties": {"point_type": "turbine", "turbinemod": "V90-3.0", "oem": "Vestas", "foundation": "Monopile", "water_dept": -3, "turbine_mw": 3, "distance_to_shore": 10341, "tippecanoe_feature_density": 0}, "geometry": {"type": "Point", "coordinates": [-3.7082290649414062, 54.76009521242753]}}, {"type": "Feature", "properties": {"point_type": "turbine", "turbinemod": "V90-3.0", "oem": "Vestas", "foundation": "Monopile", "water_dept": -3, "turbine_mw": 3, "distance_to_shore": 10524, "tippecanoe_feature_density": 0}, "geometry": {"type": "Point", "coordinates": [-3.7109756469726562, 54.75613306506614]}}, {"type": "Feature", "properties": {"point_type": "turbine", "turbinemod": "V90-3.0", "oem": "Vestas", "foundation": "Monopile", "water_dept": -3, "turbine_mw": 3, "distance_to_shore": 10953, "tippecanoe_feature_density": 0}, "geometry": {"type": "Point", "coordinates": [-3.7041091918945312, 54.75454809753404]}}, {"type": "Feature", "properties": {"point_type": "turbine", "turbinemod": "V90-3.0", "oem": "Vestas", "foundation": "Monopile", "water_dept": -2, "turbine_mw": 3, "distance_to_shore": 10633, "tippecanoe_feature_density": 0}, "geometry": {"type": "Point", "coordinates": [-3.6986160278320312, 54.762076140683064]}}, {"type": "Feature", "properties": {"point_type": "turbine", "turbinemod": "V90-3.0", "oem": "Vestas", "foundation": "Monopile", "water_dept": -3, "turbine_mw": 3, "distance_to_shore": 10781, "tippecanoe_feature_density": 0}, "geometry": {"type": "Point", "coordinates": [-3.7013626098632812, 54.75851040001973]}}, {"type": "Feature", "properties": {"point_type": "turbine", "turbinemod": "V90-3.0", "oem": "Vestas", "foundation": "Monopile", "water_dept": -1, "turbine_mw": 3, "distance_to_shore": 11044, "tippecanoe_feature_density": 0}, "geometry": {"type": "Point", "coordinates": [-3.6924362182617188, 54.76068950108376]}}, {"type": "Feature", "properties": {"point_type": "turbine", "turbinemod": "V90-3.0", "oem": "Vestas", "foundation": "Monopile", "water_dept": -1, "turbine_mw": 3, "distance_to_shore": 11191, "tippecanoe_feature_density": 0}, "geometry": {"type": "Point", "coordinates": [-3.6951828002929688, 54.756925525563105]}}, {"type": "Feature", "properties": {"point_type": "turbine", "turbinemod": "V90-3.0", "oem": "Vestas", "foundation": "Monopile", "water_dept": -2, "turbine_mw": 3, "distance_to_shore": 11389, "tippecanoe_feature_density": 0}, "geometry": {"type": "Point", "coordinates": [-3.6975860595703125, 54.75276493488906]}}, {"type": "Feature", "properties": {"point_type": "turbine", "turbinemod": "V90-3.0", "oem": "Vestas", "foundation": "Monopile", "water_dept": -4, "turbine_mw": 3, "distance_to_shore": 11568, "tippecanoe_feature_density": 0}, "geometry": {"type": "Point", "coordinates": [-3.7003326416015625, 54.74900022250549]}}, {"type": "Feature", "properties": {"point_type": "turbine", "turbinemod": "V90-3.0", "oem": "Vestas", "foundation": "Monopile", "water_dept": -2, "turbine_mw": 3, "distance_to_shore": 11989, "tippecanoe_feature_density": 0}, "geometry": {"type": "Point", "coordinates": [-3.6938095092773438, 54.74741497573058]}}, {"type": "Feature", "properties": {"point_type": "turbine", "turbinemod": "V90-3.0", "oem": "Vestas", "foundation": "Monopile", "water_dept": -1, "turbine_mw": 3, "distance_to_shore": 10918, "tippecanoe_feature_density": 0}, "geometry": {"type": "Point", "coordinates": [-3.6896896362304688, 54.764453126619856]}}, {"type": "Feature", "properties": {"point_type": "turbine", "turbinemod": "V90-3.0", "oem": "Vestas", "foundation": "Monopile", "water_dept": -1, "turbine_mw": 3, "distance_to_shore": 11488, "tippecanoe_feature_density": 0}, "geometry": {"type": "Point", "coordinates": [-3.6862564086914062, 54.75890660893873]}}, {"type": "Feature", "properties": {"point_type": "turbine", "turbinemod": "V90-3.0", "oem": "Vestas", "foundation": "Monopile", "water_dept": -1, "turbine_mw": 3, "distance_to_shore": 11366, "tippecanoe_feature_density": 0}, "geometry": {"type": "Point", "coordinates": [-3.6838531494140625, 54.762274228176494]}}, {"type": "Feature", "properties": {"point_type": "turbine", "turbinemod": "V90-3.0", "oem": "Vestas", "foundation": "Monopile", "water_dept": -1, "turbine_mw": 3, "distance_to_shore": 11638, "tippecanoe_feature_density": 0}, "geometry": {"type": "Point", "coordinates": [-3.68865966796875, 54.75514246763021]}}, {"type": "Feature", "properties": {"point_type": "turbine", "turbinemod": "V90-3.0", "oem": "Vestas", "foundation": "Monopile", "water_dept": -1, "turbine_mw": 3, "distance_to_shore": 11810, "tippecanoe_feature_density": 0}, "geometry": {"type": "Point", "coordinates": [-3.69140625, 54.75117983549535]}}]}