{"type": "FeatureCollection", "features": [{"type": "Feature", "properties": {"wf_develop": "E.ON Climate Renewables", "turbine_mo": "V90-3.0", "fou_type": "Monopile", "wtg_hubhei": 80, "wtg_oem": "Vestas", "cod": "2010-04-01T00:00:00", "wf_name": "Robin Rigg East", "status": "Fully Commissioned", "no_turbine": 28, "country": "United Kingdom", "capacity_m": 84, "wf_owners": "E.ON Climate Renewables", "tippecanoe_feature_density": 0}, "geometry": {"type": "Polygon", "coordinates": [[[-3.6690902709960938, 54.77277147807948], [-3.6773300170898438, 54.75217052988833], [-3.690032958984375, 54.74424429600754], [-3.70513916015625, 54.748009450543464], [-3.7017059326171875, 54.75217052988833], [-3.7398147583007812, 54.76286848484], [-3.684539794921875, 54.78267204796583], [-3.6690902709960938, 54.77277147807948]]]}}]}