{"type": "FeatureCollection", "features": [{"type": "Feature", "properties": {"point_type": "turbine", "turbinemod": "MHI V164-8.25", "oem": "MHI Vestas", "foundation": "Monopile", "water_dept": -24, "turbine_mw": 8.25, "distance_to_shore": 30815, "tippecanoe_feature_density": 0}, "geometry": {"type": "Point", "coordinates": [-3.9173126220703125, 54.13488618600758]}}, {"type": "Feature", "properties": {"point_type": "turbine", "turbinemod": "MHI V164-8.25", "oem": "MHI Vestas", "foundation": "Monopile", "water_dept": -24, "turbine_mw": 8.25, "distance_to_shore": 31447, "tippecanoe_feature_density": 0}, "geometry": {"type": "Point", "coordinates": [-3.9169692993164062, 54.1250288788448]}}, {"type": "Feature", "properties": {"point_type": "turbine", "turbinemod": "MHI V164-8.25", "oem": "MHI Vestas", "foundation": "Monopile", "water_dept": -26, "turbine_mw": 8.25, "distance_to_shore": 32211, "tippecanoe_feature_density": 0}, "geometry": {"type": "Point", "coordinates": [-3.9166259765625, 54.11376051292015]}}, {"type": "Feature", "properties": {"point_type": "turbine", "turbinemod": "MHI V164-8.25", "oem": "MHI Vestas", "foundation": "Monopile", "water_dept": -24, "turbine_mw": 8.25, "distance_to_shore": 34247, "tippecanoe_feature_density": 0}, "geometry": {"type": "Point", "coordinates": [-3.87542724609375, 54.1385066486163]}}, {"type": "Feature", "properties": {"point_type": "turbine", "turbinemod": "MHI V164-8.25", "oem": "MHI Vestas", "foundation": "Monopile", "water_dept": -24, "turbine_mw": 8.25, "distance_to_shore": 31753, "tippecanoe_feature_density": 0}, "geometry": {"type": "Point", "coordinates": [-3.9032363891601562, 54.132271210639914]}}, {"type": "Feature", "properties": {"point_type": "turbine", "turbinemod": "MHI V164-8.25", "oem": "MHI Vestas", "foundation": "Monopile", "water_dept": -24, "turbine_mw": 8.25, "distance_to_shore": 32946, "tippecanoe_feature_density": 0}, "geometry": {"type": "Point", "coordinates": [-3.8898468017578125, 54.12482768488994]}}, {"type": "Feature", "properties": {"point_type": "turbine", "turbinemod": "MHI V164-8.25", "oem": "MHI Vestas", "foundation": "Monopile", "water_dept": -24, "turbine_mw": 8.25, "distance_to_shore": 32472, "tippecanoe_feature_density": 0}, "geometry": {"type": "Point", "coordinates": [-3.9039230346679688, 54.11999873690496]}}, {"type": "Feature", "properties": {"point_type": "turbine", "turbinemod": "MHI V164-8.25", "oem": "MHI Vestas", "foundation": "Monopile", "water_dept": -24, "turbine_mw": 8.25, "distance_to_shore": 32516, "tippecanoe_feature_density": 0}, "geometry": {"type": "Point", "coordinates": [-3.887786865234375, 54.13367929481174]}}, {"type": "Feature", "properties": {"point_type": "turbine", "turbinemod": "MHI V164-8.25", "oem": "MHI Vestas", "foundation": "Monopile", "water_dept": -24, "turbine_mw": 8.25, "distance_to_shore": 34519, "tippecanoe_feature_density": 0}, "geometry": {"type": "Point", "coordinates": [-3.8716506958007812, 54.12925372624278]}}, {"type": "Feature", "properties": {"point_type": "turbine", "turbinemod": "MHI V164-8.25", "oem": "MHI Vestas", "foundation": "Monopile", "water_dept": -27, "turbine_mw": 8.25, "distance_to_shore": 33620, "tippecanoe_feature_density": 0}, "geometry": {"type": "Point", "coordinates": [-3.8888168334960938, 54.114565497803824]}}, {"type": "Feature", "properties": {"point_type": "turbine", "turbinemod": "MHI V164-8.25", "oem": "MHI Vestas", "foundation": "Monopile", "water_dept": -26, "turbine_mw": 8.25, "distance_to_shore": 35146, "tippecanoe_feature_density": 0}, "geometry": {"type": "Point", "coordinates": [-3.8737106323242188, 54.11979751852752]}}, {"type": "Feature", "properties": {"point_type": "turbine", "turbinemod": "MHI V164-8.25", "oem": "MHI Vestas", "foundation": "Monopile", "water_dept": -28, "turbine_mw": 8.25, "distance_to_shore": 33290, "tippecanoe_feature_density": 0}, "geometry": {"type": "Point", "coordinates": [-3.9022064208984375, 54.109131546475965]}}, {"type": "Feature", "properties": {"point_type": "turbine", "turbinemod": "MHI V164-8.25", "oem": "MHI Vestas", "foundation": "Monopile", "water_dept": -30, "turbine_mw": 8.25, "distance_to_shore": 34446, "tippecanoe_feature_density": 0}, "geometry": {"type": "Point", "coordinates": [-3.8860702514648438, 54.104099474978256]}}, {"type": "Feature", "properties": {"point_type": "turbine", "turbinemod": "MHI V164-8.25", "oem": "MHI Vestas", "foundation": "Monopile", "water_dept": -28, "turbine_mw": 8.25, "distance_to_shore": 35716, "tippecanoe_feature_density": 0}, "geometry": {"type": "Point", "coordinates": [-3.8737106323242188, 54.10993662124568]}}, {"type": "Feature", "properties": {"point_type": "turbine", "turbinemod": "MHI V164-8.25", "oem": "MHI Vestas", "foundation": "Monopile", "water_dept": -29, "turbine_mw": 8.25, "distance_to_shore": 36145, "tippecanoe_feature_density": 0}, "geometry": {"type": "Point", "coordinates": [-3.8695907592773438, 54.09906679278754]}}, {"type": "Feature", "properties": {"point_type": "turbine", "turbinemod": "MHI V164-8.25", "oem": "MHI Vestas", "foundation": "Monopile", "water_dept": -23, "turbine_mw": 8.25, "distance_to_shore": 33223, "tippecanoe_feature_density": 0}, "geometry": {"type": "Point", "coordinates": [-3.8620376586914062, 54.14353454392091]}}, {"type": "Feature", "properties": {"point_type": "turbine", "turbinemod": "MHI V164-8.25", "oem": "MHI Vestas", "foundation": "Monopile", "water_dept": -23, "turbine_mw": 8.25, "distance_to_shore": 32298, "tippecanoe_feature_density": 0}, "geometry": {"type": "Point", "coordinates": [-3.84796142578125, 54.145344436798894]}}, {"type": "Feature", "properties": {"point_type": "turbine", "turbinemod": "MHI V164-8.25", "oem": "MHI Vestas", "foundation": "Monopile", "water_dept": -22, "turbine_mw": 8.25, "distance_to_shore": 31400, "tippecanoe_feature_density": 0}, "geometry": {"type": "Point", "coordinates": [-3.8386917114257812, 54.15258321724485]}}, {"type": "Feature", "properties": {"point_type": "turbine", "turbinemod": "MHI V164-8.25", "oem": "MHI Vestas", "foundation": "Monopile", "water_dept": -21, "turbine_mw": 8.25, "distance_to_shore": 30427, "tippecanoe_feature_density": 0}, "geometry": {"type": "Point", "coordinates": [-3.8263320922851562, 54.15740836774327]}}, {"type": "Feature", "properties": {"point_type": "turbine", "turbinemod": "MHI V164-8.25", "oem": "MHI Vestas", "foundation": "Monopile", "water_dept": -21, "turbine_mw": 8.25, "distance_to_shore": 32214, "tippecanoe_feature_density": 0}, "geometry": {"type": "Point", "coordinates": [-3.8397216796875, 54.138104390620924]}}, {"type": "Feature", "properties": {"point_type": "turbine", "turbinemod": "MHI V164-8.25", "oem": "MHI Vestas", "foundation": "Monopile", "water_dept": -22, "turbine_mw": 8.25, "distance_to_shore": 31050, "tippecanoe_feature_density": 0}, "geometry": {"type": "Point", "coordinates": [-3.8270187377929688, 54.14614880824067]}}, {"type": "Feature", "properties": {"point_type": "turbine", "turbinemod": "MHI V164-8.25", "oem": "MHI Vestas", "foundation": "Monopile", "water_dept": -24, "turbine_mw": 8.25, "distance_to_shore": 33345, "tippecanoe_feature_density": 0}, "geometry": {"type": "Point", "coordinates": [-3.856201171875, 54.13468503991686]}}, {"type": "Feature", "properties": {"point_type": "turbine", "turbinemod": "MHI V164-8.25", "oem": "MHI Vestas", "foundation": "Monopile", "water_dept": -25, "turbine_mw": 8.25, "distance_to_shore": 33919, "tippecanoe_feature_density": 0}, "geometry": {"type": "Point", "coordinates": [-3.8565444946289062, 54.12442529404956]}}, {"type": "Feature", "properties": {"point_type": "turbine", "turbinemod": "MHI V164-8.25", "oem": "MHI Vestas", "foundation": "Monopile", "water_dept": -27, "turbine_mw": 8.25, "distance_to_shore": 34503, "tippecanoe_feature_density": 0}, "geometry": {"type": "Point", "coordinates": [-3.8572311401367188, 54.114967984383696]}}, {"type": "Feature", "properties": {"point_type": "turbine", "turbinemod": "MHI V164-8.25", "oem": "MHI Vestas", "foundation": "Monopile", "water_dept": -23, "turbine_mw": 8.25, "distance_to_shore": 32834, "tippecanoe_feature_density": 0}, "geometry": {"type": "Point", "coordinates": [-3.841094970703125, 54.12844902661783]}}, {"type": "Feature", "properties": {"point_type": "turbine", "turbinemod": "MHI V164-8.25", "oem": "MHI Vestas", "foundation": "Monopile", "water_dept": -22, "turbine_mw": 8.25, "distance_to_shore": 31456, "tippecanoe_feature_density": 0}, "geometry": {"type": "Point", "coordinates": [-3.8242721557617188, 54.13569076060287]}}, {"type": "Feature", "properties": {"point_type": "turbine", "turbinemod": "MHI V164-8.25", "oem": "MHI Vestas", "foundation": "Monopile", "water_dept": -25, "turbine_mw": 8.25, "distance_to_shore": 32075, "tippecanoe_feature_density": 0}, "geometry": {"type": "Point", "coordinates": [-3.8253021240234375, 54.12603483396609]}}, {"type": "Feature", "properties": {"point_type": "turbine", "turbinemod": "MHI V164-8.25", "oem": "MHI Vestas", "foundation": "Monopile", "water_dept": -25, "turbine_mw": 8.25, "distance_to_shore": 33376, "tippecanoe_feature_density": 0}, "geometry": {"type": "Point", "coordinates": [-3.8404083251953125, 54.118187736338115]}}, {"type": "Feature", "properties": {"point_type": "turbine", "turbinemod": "MHI V164-8.25", "oem": "MHI Vestas", "foundation": "Monopile", "water_dept": -26, "turbine_mw": 8.25, "distance_to_shore": 32616, "tippecanoe_feature_density": 0}, "geometry": {"type": "Point", "coordinates": [-3.8249588012695312, 54.11677912563255]}}, {"type": "Feature", "properties": {"point_type": "turbine", "turbinemod": "MHI V164-8.25", "oem": "MHI Vestas", "foundation": "Monopile", "water_dept": -22, "turbine_mw": 8.25, "distance_to_shore": 29827, "tippecanoe_feature_density": 0}, "geometry": {"type": "Point", "coordinates": [-3.8119125366210938, 54.1529853346037]}}, {"type": "Feature", "properties": {"point_type": "turbine", "turbinemod": "MHI V164-8.25", "oem": "MHI Vestas", "foundation": "Monopile", "water_dept": -22, "turbine_mw": 8.25, "distance_to_shore": 30363, "tippecanoe_feature_density": 0}, "geometry": {"type": "Point", "coordinates": [-3.8112258911132812, 54.14232790471905]}}, {"type": "Feature", "properties": {"point_type": "turbine", "turbinemod": "MHI V164-8.25", "oem": "MHI Vestas", "foundation": "Monopile", "water_dept": -22, "turbine_mw": 8.25, "distance_to_shore": 29251, "tippecanoe_feature_density": 0}, "geometry": {"type": "Point", "coordinates": [-3.7978363037109375, 54.14876290750897]}}, {"type": "Feature", "properties": {"point_type": "turbine", "turbinemod": "MHI V164-8.25", "oem": "MHI Vestas", "foundation": "Monopile", "water_dept": -26, "turbine_mw": 8.25, "distance_to_shore": 29730, "tippecanoe_feature_density": 0}, "geometry": {"type": "Point", "coordinates": [-3.7957763671875, 54.138104390620924]}}, {"type": "Feature", "properties": {"point_type": "turbine", "turbinemod": "MHI V164-8.25", "oem": "MHI Vestas", "foundation": "Monopile", "water_dept": -24, "turbine_mw": 8.25, "distance_to_shore": 28702, "tippecanoe_feature_density": 0}, "geometry": {"type": "Point", "coordinates": [-3.7837600708007812, 54.144338950522126]}}, {"type": "Feature", "properties": {"point_type": "turbine", "turbinemod": "MHI V164-8.25", "oem": "MHI Vestas", "foundation": "Monopile", "water_dept": -26, "turbine_mw": 8.25, "distance_to_shore": 30808, "tippecanoe_feature_density": 0}, "geometry": {"type": "Point", "coordinates": [-3.8084793090820312, 54.13186889208541]}}, {"type": "Feature", "properties": {"point_type": "turbine", "turbinemod": "MHI V164-8.25", "oem": "MHI Vestas", "foundation": "Monopile", "water_dept": -28, "turbine_mw": 8.25, "distance_to_shore": 35211, "tippecanoe_feature_density": 0}, "geometry": {"type": "Point", "coordinates": [-3.8596343994140625, 54.10530722783159]}}, {"type": "Feature", "properties": {"point_type": "turbine", "turbinemod": "MHI V164-8.25", "oem": "MHI Vestas", "foundation": "Monopile", "water_dept": -27, "turbine_mw": 8.25, "distance_to_shore": 34232, "tippecanoe_feature_density": 0}, "geometry": {"type": "Point", "coordinates": [-3.84521484375, 54.108527730139684]}}, {"type": "Feature", "properties": {"point_type": "turbine", "turbinemod": "MHI V164-8.25", "oem": "MHI Vestas", "foundation": "Monopile", "water_dept": -28, "turbine_mw": 8.25, "distance_to_shore": 35217, "tippecanoe_feature_density": 0}, "geometry": {"type": "Point", "coordinates": [-3.8503646850585938, 54.09725487769441]}}, {"type": "Feature", "properties": {"point_type": "turbine", "turbinemod": "MHI V164-8.25", "oem": "MHI Vestas", "foundation": "Monopile", "water_dept": -26, "turbine_mw": 8.25, "distance_to_shore": 33380, "tippecanoe_feature_density": 0}, "geometry": {"type": "Point", "coordinates": [-3.8304519653320312, 54.109131546475965]}}, {"type": "Feature", "properties": {"point_type": "turbine", "turbinemod": "SWT-7.0-154", "oem": "Siemens", "foundation": "Monopile", "water_dept": -33, "turbine_mw": 7, "distance_to_shore": 28511, "tippecanoe_feature_density": 0}, "geometry": {"type": "Point", "coordinates": [-3.76007080078125, 54.12643720917657]}}, {"type": "Feature", "properties": {"point_type": "turbine", "turbinemod": "SWT-7.0-154", "oem": "Siemens", "foundation": "Monopile", "water_dept": -35, "turbine_mw": 7, "distance_to_shore": 29254, "tippecanoe_feature_density": 0}, "geometry": {"type": "Point", "coordinates": [-3.7624740600585938, 54.11677912563255]}}, {"type": "Feature", "properties": {"point_type": "turbine", "turbinemod": "MHI V164-8.25", "oem": "MHI Vestas", "foundation": "Monopile", "water_dept": -31, "turbine_mw": 8.25, "distance_to_shore": 27688, "tippecanoe_feature_density": 0}, "geometry": {"type": "Point", "coordinates": [-3.7556076049804688, 54.13548961841917]}}, {"type": "Feature", "properties": {"point_type": "turbine", "turbinemod": "SWT-7.0-154", "oem": "Siemens", "foundation": "Monopile", "water_dept": -31, "turbine_mw": 7, "distance_to_shore": 27209, "tippecanoe_feature_density": 0}, "geometry": {"type": "Point", "coordinates": [-3.7415313720703125, 54.13106424325488]}}, {"type": "Feature", "properties": {"point_type": "turbine", "turbinemod": "SWT-7.0-154", "oem": "Siemens", "foundation": "Monopile", "water_dept": -39, "turbine_mw": 7, "distance_to_shore": 30787, "tippecanoe_feature_density": 0}, "geometry": {"type": "Point", "coordinates": [-3.7717437744140625, 54.10047600536083]}}, {"type": "Feature", "properties": {"point_type": "turbine", "turbinemod": "SWT-7.0-154", "oem": "Siemens", "foundation": "Monopile", "water_dept": -32, "turbine_mw": 7, "distance_to_shore": 29739, "tippecanoe_feature_density": 0}, "geometry": {"type": "Point", "coordinates": [-3.76007080078125, 54.1071187911578]}}, {"type": "Feature", "properties": {"point_type": "turbine", "turbinemod": "SWT-7.0-154", "oem": "Siemens", "foundation": "Monopile", "water_dept": -37, "turbine_mw": 7, "distance_to_shore": 31364, "tippecanoe_feature_density": 0}, "geometry": {"type": "Point", "coordinates": [-3.7693405151367188, 54.089402330957455]}}, {"type": "Feature", "properties": {"point_type": "turbine", "turbinemod": "SWT-7.0-154", "oem": "Siemens", "foundation": "Monopile", "water_dept": -32, "turbine_mw": 7, "distance_to_shore": 29150, "tippecanoe_feature_density": 0}, "geometry": {"type": "Point", "coordinates": [-3.74359130859375, 54.10228777974328]}}, {"type": "Feature", "properties": {"point_type": "turbine", "turbinemod": "SWT-7.0-154", "oem": "Siemens", "foundation": "Monopile", "water_dept": -31, "turbine_mw": 7, "distance_to_shore": 30254, "tippecanoe_feature_density": 0}, "geometry": {"type": "Point", "coordinates": [-3.7566375732421875, 54.09624822399687]}}, {"type": "Feature", "properties": {"point_type": "turbine", "turbinemod": "SWT-7.0-154", "oem": "Siemens", "foundation": "Monopile", "water_dept": -38, "turbine_mw": 7, "distance_to_shore": 32071, "tippecanoe_feature_density": 0}, "geometry": {"type": "Point", "coordinates": [-3.77105712890625, 54.07953420368011]}}, {"type": "Feature", "properties": {"point_type": "turbine", "turbinemod": "SWT-7.0-154", "oem": "Siemens", "foundation": "Monopile", "water_dept": -33, "turbine_mw": 7, "distance_to_shore": 31406, "tippecanoe_feature_density": 0}, "geometry": {"type": "Point", "coordinates": [-3.75457763671875, 54.07611001938696]}}, {"type": "Feature", "properties": {"point_type": "turbine", "turbinemod": "SWT-7.0-154", "oem": "Siemens", "foundation": "Monopile", "water_dept": -35, "turbine_mw": 7, "distance_to_shore": 30321, "tippecanoe_feature_density": 0}, "geometry": {"type": "Point", "coordinates": [-3.7377548217773438, 54.07913137313014]}}, {"type": "Feature", "properties": {"point_type": "turbine", "turbinemod": "SWT-7.0-154", "oem": "Siemens", "foundation": "Monopile", "water_dept": -36, "turbine_mw": 7, "distance_to_shore": 32082, "tippecanoe_feature_density": 0}, "geometry": {"type": "Point", "coordinates": [-3.7569808959960938, 54.067447586451266]}}, {"type": "Feature", "properties": {"point_type": "turbine", "turbinemod": "SWT-7.0-154", "oem": "Siemens", "foundation": "Monopile", "water_dept": -34, "turbine_mw": 7, "distance_to_shore": 31115, "tippecanoe_feature_density": 0}, "geometry": {"type": "Point", "coordinates": [-3.7408447265625, 54.06905933872849]}}, {"type": "Feature", "properties": {"point_type": "turbine", "turbinemod": "SWT-7.0-154", "oem": "Siemens", "foundation": "Monopile", "water_dept": -34, "turbine_mw": 7, "distance_to_shore": 28024, "tippecanoe_feature_density": 0}, "geometry": {"type": "Point", "coordinates": [-3.7288284301757812, 54.10772262801245]}}, {"type": "Feature", "properties": {"point_type": "turbine", "turbinemod": "SWT-7.0-154", "oem": "Siemens", "foundation": "Monopile", "water_dept": -35, "turbine_mw": 7, "distance_to_shore": 28604, "tippecanoe_feature_density": 0}, "geometry": {"type": "Point", "coordinates": [-3.7274551391601562, 54.09745620550237]}}, {"type": "Feature", "properties": {"point_type": "turbine", "turbinemod": "SWT-7.0-154", "oem": "Siemens", "foundation": "Monopile", "water_dept": -35, "turbine_mw": 7, "distance_to_shore": 29306, "tippecanoe_feature_density": 0}, "geometry": {"type": "Point", "coordinates": [-3.7277984619140625, 54.08658310546468]}}, {"type": "Feature", "properties": {"point_type": "turbine", "turbinemod": "SWT-7.0-154", "oem": "Siemens", "foundation": "Monopile", "water_dept": -34, "turbine_mw": 7, "distance_to_shore": 28077, "tippecanoe_feature_density": 0}, "geometry": {"type": "Point", "coordinates": [-3.7123489379882812, 54.09282541868765]}}, {"type": "Feature", "properties": {"point_type": "turbine", "turbinemod": "SWT-7.0-154", "oem": "Siemens", "foundation": "Monopile", "water_dept": -35, "turbine_mw": 7, "distance_to_shore": 28764, "tippecanoe_feature_density": 0}, "geometry": {"type": "Point", "coordinates": [-3.71337890625, 54.08295810550928]}}, {"type": "Feature", "properties": {"point_type": "turbine", "turbinemod": "SWT-7.0-154", "oem": "Siemens", "foundation": "Monopile", "water_dept": -34, "turbine_mw": 7, "distance_to_shore": 30251, "tippecanoe_feature_density": 0}, "geometry": {"type": "Point", "coordinates": [-3.7274551391601562, 54.07127539596104]}}, {"type": "Feature", "properties": {"point_type": "turbine", "turbinemod": "SWT-7.0-154", "oem": "Siemens", "foundation": "Monopile", "water_dept": -35, "turbine_mw": 7, "distance_to_shore": 29248, "tippecanoe_feature_density": 0}, "geometry": {"type": "Point", "coordinates": [-3.712005615234375, 54.07429710157993]}}, {"type": "Feature", "properties": {"point_type": "turbine", "turbinemod": "SWT-7.0-154", "oem": "Siemens", "foundation": "Monopile", "water_dept": -29, "turbine_mw": 7, "distance_to_shore": 27216, "tippecanoe_feature_density": 0}, "geometry": {"type": "Point", "coordinates": [-3.6532974243164062, 54.05636509593211]}}, {"type": "Feature", "properties": {"point_type": "turbine", "turbinemod": "SWT-7.0-154", "oem": "Siemens", "foundation": "Monopile", "water_dept": -29, "turbine_mw": 7, "distance_to_shore": 28261, "tippecanoe_feature_density": 0}, "geometry": {"type": "Point", "coordinates": [-3.6608505249023438, 54.04648911335576]}}, {"type": "Feature", "properties": {"point_type": "turbine", "turbinemod": "SWT-7.0-154", "oem": "Siemens", "foundation": "Monopile", "water_dept": -29, "turbine_mw": 7, "distance_to_shore": 29234, "tippecanoe_feature_density": 0}, "geometry": {"type": "Point", "coordinates": [-3.6684036254882812, 54.03640916017355]}}, {"type": "Feature", "properties": {"point_type": "turbine", "turbinemod": "SWT-7.0-154", "oem": "Siemens", "foundation": "Monopile", "water_dept": -28, "turbine_mw": 7, "distance_to_shore": 27857, "tippecanoe_feature_density": 0}, "geometry": {"type": "Point", "coordinates": [-3.6484909057617188, 54.04044143479035]}}, {"type": "Feature", "properties": {"point_type": "turbine", "turbinemod": "SWT-7.0-154", "oem": "Siemens", "foundation": "Monopile", "water_dept": -29, "turbine_mw": 7, "distance_to_shore": 28569, "tippecanoe_feature_density": 0}, "geometry": {"type": "Point", "coordinates": [-3.65570068359375, 54.0323764944105]}}, {"type": "Feature", "properties": {"point_type": "turbine", "turbinemod": "SWT-7.0-154", "oem": "Siemens", "foundation": "Monopile", "water_dept": -28, "turbine_mw": 7, "distance_to_shore": 27075, "tippecanoe_feature_density": 0}, "geometry": {"type": "Point", "coordinates": [-3.6429977416992188, 54.04991574059318]}}, {"type": "Feature", "properties": {"point_type": "turbine", "turbinemod": "SWT-7.0-154", "oem": "Siemens", "foundation": "Monopile", "water_dept": -27, "turbine_mw": 7, "distance_to_shore": 26217, "tippecanoe_feature_density": 0}, "geometry": {"type": "Point", "coordinates": [-3.626861572265625, 54.04910950078184]}}, {"type": "Feature", "properties": {"point_type": "turbine", "turbinemod": "SWT-7.0-154", "oem": "Siemens", "foundation": "Monopile", "water_dept": -28, "turbine_mw": 7, "distance_to_shore": 26984, "tippecanoe_feature_density": 0}, "geometry": {"type": "Point", "coordinates": [-3.63372802734375, 54.03882857188003]}}, {"type": "Feature", "properties": {"point_type": "turbine", "turbinemod": "SWT-7.0-154", "oem": "Siemens", "foundation": "Monopile", "water_dept": -27, "turbine_mw": 7, "distance_to_shore": 25368, "tippecanoe_feature_density": 0}, "geometry": {"type": "Point", "coordinates": [-3.61175537109375, 54.04628753824801]}}, {"type": "Feature", "properties": {"point_type": "turbine", "turbinemod": "SWT-7.0-154", "oem": "Siemens", "foundation": "Monopile", "water_dept": -27, "turbine_mw": 7, "distance_to_shore": 25571, "tippecanoe_feature_density": 0}, "geometry": {"type": "Point", "coordinates": [-3.610382080078125, 54.03741726549703]}}, {"type": "Feature", "properties": {"point_type": "turbine", "turbinemod": "SWT-7.0-154", "oem": "Siemens", "foundation": "Monopile", "water_dept": -28, "turbine_mw": 7, "distance_to_shore": 27910, "tippecanoe_feature_density": 0}, "geometry": {"type": "Point", "coordinates": [-3.6426544189453125, 54.0283434374833]}}, {"type": "Feature", "properties": {"point_type": "turbine", "turbinemod": "SWT-7.0-154", "oem": "Siemens", "foundation": "Monopile", "water_dept": -27, "turbine_mw": 7, "distance_to_shore": 27269, "tippecanoe_feature_density": 0}, "geometry": {"type": "Point", "coordinates": [-3.629608154296875, 54.02410830669962]}}, {"type": "Feature", "properties": {"point_type": "turbine", "turbinemod": "SWT-7.0-154", "oem": "Siemens", "foundation": "Monopile", "water_dept": -27, "turbine_mw": 7, "distance_to_shore": 26636, "tippecanoe_feature_density": 0}, "geometry": {"type": "Point", "coordinates": [-3.6244583129882812, 54.03257813698866]}}, {"type": "Feature", "properties": {"point_type": "turbine", "turbinemod": "SWT-7.0-154", "oem": "Siemens", "foundation": "Monopile", "water_dept": -26, "turbine_mw": 7, "distance_to_shore": 25809, "tippecanoe_feature_density": 0}, "geometry": {"type": "Point", "coordinates": [-3.607635498046875, 54.02713344412541]}}, {"type": "Feature", "properties": {"point_type": "turbine", "turbinemod": "SWT-7.0-154", "oem": "Siemens", "foundation": "Monopile", "water_dept": -26, "turbine_mw": 7, "distance_to_shore": 26647, "tippecanoe_feature_density": 0}, "geometry": {"type": "Point", "coordinates": [-3.6165618896484375, 54.0200744478297]}}, {"type": "Feature", "properties": {"point_type": "turbine", "turbinemod": "SWT-7.0-154", "oem": "Siemens", "foundation": "Monopile", "water_dept": -25, "turbine_mw": 7, "distance_to_shore": 26047, "tippecanoe_feature_density": 0}, "geometry": {"type": "Point", "coordinates": [-3.603515625, 54.016040197740836]}}, {"type": "Feature", "properties": {"point_type": "turbine", "turbinemod": "SWT-7.0-154", "oem": "Siemens", "foundation": "Monopile", "water_dept": -26, "turbine_mw": 7, "distance_to_shore": 24634, "tippecanoe_feature_density": 0}, "geometry": {"type": "Point", "coordinates": [-3.5976791381835938, 54.04185263850127]}}, {"type": "Feature", "properties": {"point_type": "turbine", "turbinemod": "SWT-7.0-154", "oem": "Siemens", "foundation": "Monopile", "water_dept": -25, "turbine_mw": 7, "distance_to_shore": 23832, "tippecanoe_feature_density": 0}, "geometry": {"type": "Point", "coordinates": [-3.5818862915039062, 54.03721564638806]}}, {"type": "Feature", "properties": {"point_type": "turbine", "turbinemod": "SWT-7.0-154", "oem": "Siemens", "foundation": "Monopile", "water_dept": -26, "turbine_mw": 7, "distance_to_shore": 24724, "tippecanoe_feature_density": 0}, "geometry": {"type": "Point", "coordinates": [-3.5932159423828125, 54.03197320632049]}}, {"type": "Feature", "properties": {"point_type": "turbine", "turbinemod": "SWT-7.0-154", "oem": "Siemens", "foundation": "Monopile", "water_dept": -25, "turbine_mw": 7, "distance_to_shore": 24939, "tippecanoe_feature_density": 0}, "geometry": {"type": "Point", "coordinates": [-3.58978271484375, 54.022293118620354]}}, {"type": "Feature", "properties": {"point_type": "turbine", "turbinemod": "SWT-7.0-154", "oem": "Siemens", "foundation": "Monopile", "water_dept": -25, "turbine_mw": 7, "distance_to_shore": 25468, "tippecanoe_feature_density": 0}, "geometry": {"type": "Point", "coordinates": [-3.5904693603515625, 54.01200555641509]}}, {"type": "Feature", "properties": {"point_type": "turbine", "turbinemod": "SWT-7.0-154", "oem": "Siemens", "foundation": "Monopile", "water_dept": -24, "turbine_mw": 7, "distance_to_shore": 23771, "tippecanoe_feature_density": 0}, "geometry": {"type": "Point", "coordinates": [-3.574676513671875, 54.027940110275836]}}, {"type": "Feature", "properties": {"point_type": "turbine", "turbinemod": "SWT-7.0-154", "oem": "Siemens", "foundation": "Monopile", "water_dept": -24, "turbine_mw": 7, "distance_to_shore": 24268, "tippecanoe_feature_density": 0}, "geometry": {"type": "Point", "coordinates": [-3.5753631591796875, 54.01785565869531]}}, {"type": "Feature", "properties": {"point_type": "turbine", "turbinemod": "SWT-7.0-154", "oem": "Siemens", "foundation": "Monopile", "water_dept": -24, "turbine_mw": 7, "distance_to_shore": 24914, "tippecanoe_feature_density": 0}, "geometry": {"type": "Point", "coordinates": [-3.5777664184570312, 54.007768761934784]}}, {"type": "Feature", "properties": {"point_type": "turbine", "turbinemod": "SWT-7.0-154", "oem": "Siemens", "foundation": "Monopile", "water_dept": -24, "turbine_mw": 7, "distance_to_shore": 23497, "tippecanoe_feature_density": 0}, "geometry": {"type": "Point", "coordinates": [-3.5602569580078125, 54.0156367512142]}}, {"type": "Feature", "properties": {"point_type": "turbine", "turbinemod": "SWT-7.0-154", "oem": "Siemens", "foundation": "Monopile", "water_dept": -23, "turbine_mw": 7, "distance_to_shore": 22853, "tippecanoe_feature_density": 0}, "geometry": {"type": "Point", "coordinates": [-3.5578536987304688, 54.02592341556067]}}, {"type": "Feature", "properties": {"point_type": "turbine", "turbinemod": "SWT-7.0-154", "oem": "Siemens", "foundation": "Monopile", "water_dept": -23, "turbine_mw": 7, "distance_to_shore": 22453, "tippecanoe_feature_density": 0}, "geometry": {"type": "Point", "coordinates": [-3.5451507568359375, 54.01906592198495]}}]}