{"type": "FeatureCollection", "features": [{"type": "Feature", "properties": {"point_type": "substation", "distance_to_shore": 31807, "foundation": "Jacket", "item": "Substation", "jacket_weight": 994, "seabed_soil": "Mud/Muddy Sand", "sub_name": "SUBSTATION 01", "topside_manufacture": "CS Wind/Semco Maritime", "topside_weight": 1030, "water_dept": -21, "wf_name": "Walney Phase 1", "tippecanoe_feature_density": 0}, "geometry": {"type": "Point", "coordinates": [-3.5025787353515625, 54.044674902186586]}}]}