{"type": "FeatureCollection", "features": [{"type": "Feature", "properties": {"wf_develop": "\u00d8rsted", "turbine_mo": "SWT-3.6-120", "fou_type": "Monopile", "wtg_hubhei": 90, "wtg_oem": "Siemens Gamesa", "cod": "2012-06-01T00:00:00", "wf_name": "Walney Phase 2", "status": "Fully Commissioned", "no_turbine": 51, "country": "United Kingdom", "capacity_m": 184, "wf_owners": "Orsted/Scottish & Southern/PGGM", "tippecanoe_feature_density": 0}, "geometry": {"type": "Polygon", "coordinates": [[[-3.5341644287109375, 54.076311449811726], [-3.5633468627929688, 54.03822373215439], [-3.5839462280273438, 54.04669068748575], [-3.6017990112304688, 54.05213281941329], [-3.6244583129882812, 54.05737271726997], [-3.6429977416992188, 54.05938788662357], [-3.65570068359375, 54.07389422020432], [-3.66943359375, 54.09322811632353], [-3.6313247680664062, 54.12663839531652], [-3.5341644287109375, 54.076311449811726]]]}}]}