{"type": "FeatureCollection", "features": [{"type": "Feature", "properties": {"point_type": "turbine", "turbinemod": "SWT-3.6-107", "oem": "Siemens", "foundation": "Monopile", "water_dept": -23, "turbine_mw": 3.6, "distance_to_shore": 20095, "tippecanoe_feature_density": 0}, "geometry": {"type": "Point", "coordinates": [-3.5382843017578125, 54.0672461130178]}}, {"type": "Feature", "properties": {"point_type": "turbine", "turbinemod": "SWT-3.6-107", "oem": "Siemens", "foundation": "Monopile", "water_dept": -23, "turbine_mw": 3.6, "distance_to_shore": 20643, "tippecanoe_feature_density": 0}, "geometry": {"type": "Point", "coordinates": [-3.5437774658203125, 54.05999241836619]}}, {"type": "Feature", "properties": {"point_type": "turbine", "turbinemod": "SWT-3.6-107", "oem": "Siemens", "foundation": "Monopile", "water_dept": -22, "turbine_mw": 3.6, "distance_to_shore": 19571, "tippecanoe_feature_density": 0}, "geometry": {"type": "Point", "coordinates": [-3.5331344604492188, 54.07449854080156]}}, {"type": "Feature", "properties": {"point_type": "turbine", "turbinemod": "SWT-3.6-107", "oem": "Siemens", "foundation": "Monopile", "water_dept": -22, "turbine_mw": 3.6, "distance_to_shore": 19685, "tippecanoe_feature_density": 0}, "geometry": {"type": "Point", "coordinates": [-3.5297012329101562, 54.06281345016458]}}, {"type": "Feature", "properties": {"point_type": "turbine", "turbinemod": "SWT-3.6-107", "oem": "Siemens", "foundation": "Monopile", "water_dept": -22, "turbine_mw": 3.6, "distance_to_shore": 19138, "tippecanoe_feature_density": 0}, "geometry": {"type": "Point", "coordinates": [-3.5245513916015625, 54.07006665213288]}}, {"type": "Feature", "properties": {"point_type": "turbine", "turbinemod": "SWT-3.6-107", "oem": "Siemens", "foundation": "Monopile", "water_dept": -21, "turbine_mw": 3.6, "distance_to_shore": 18726, "tippecanoe_feature_density": 0}, "geometry": {"type": "Point", "coordinates": [-3.5159683227539062, 54.0656342903591]}}, {"type": "Feature", "properties": {"point_type": "turbine", "turbinemod": "SWT-3.6-107", "oem": "Siemens", "foundation": "Monopile", "water_dept": -23, "turbine_mw": 3.6, "distance_to_shore": 21211, "tippecanoe_feature_density": 0}, "geometry": {"type": "Point", "coordinates": [-3.5489273071289062, 54.05273745674171]}}, {"type": "Feature", "properties": {"point_type": "turbine", "turbinemod": "SWT-3.6-107", "oem": "Siemens", "foundation": "Monopile", "water_dept": -23, "turbine_mw": 3.6, "distance_to_shore": 20842, "tippecanoe_feature_density": 0}, "geometry": {"type": "Point", "coordinates": [-3.54034423828125, 54.048303245326935]}}, {"type": "Feature", "properties": {"point_type": "turbine", "turbinemod": "SWT-3.6-107", "oem": "Siemens", "foundation": "Monopile", "water_dept": -23, "turbine_mw": 3.6, "distance_to_shore": 21801, "tippecanoe_feature_density": 0}, "geometry": {"type": "Point", "coordinates": [-3.5540771484375, 54.0456828070582]}}, {"type": "Feature", "properties": {"point_type": "turbine", "turbinemod": "SWT-3.6-107", "oem": "Siemens", "foundation": "Monopile", "water_dept": -24, "turbine_mw": 3.6, "distance_to_shore": 22409, "tippecanoe_feature_density": 0}, "geometry": {"type": "Point", "coordinates": [-3.5595703125, 54.03842534637411]}}, {"type": "Feature", "properties": {"point_type": "turbine", "turbinemod": "SWT-3.6-107", "oem": "Siemens", "foundation": "Monopile", "water_dept": -24, "turbine_mw": 3.6, "distance_to_shore": 22079, "tippecanoe_feature_density": 0}, "geometry": {"type": "Point", "coordinates": [-3.5509872436523438, 54.03398960765443]}}, {"type": "Feature", "properties": {"point_type": "turbine", "turbinemod": "SWT-3.6-107", "oem": "Siemens", "foundation": "Monopile", "water_dept": -23, "turbine_mw": 3.6, "distance_to_shore": 21452, "tippecanoe_feature_density": 0}, "geometry": {"type": "Point", "coordinates": [-3.5454940795898438, 54.04104624224763]}}, {"type": "Feature", "properties": {"point_type": "turbine", "turbinemod": "SWT-3.6-107", "oem": "Siemens", "foundation": "Monopile", "water_dept": -23, "turbine_mw": 3.6, "distance_to_shore": 20253, "tippecanoe_feature_density": 0}, "geometry": {"type": "Point", "coordinates": [-3.5351943969726562, 54.055558981264255]}}, {"type": "Feature", "properties": {"point_type": "turbine", "turbinemod": "SWT-3.6-107", "oem": "Siemens", "foundation": "Monopile", "water_dept": -22, "turbine_mw": 3.6, "distance_to_shore": 19294, "tippecanoe_feature_density": 0}, "geometry": {"type": "Point", "coordinates": [-3.5211181640625, 54.05838031416704]}}, {"type": "Feature", "properties": {"point_type": "turbine", "turbinemod": "SWT-3.6-107", "oem": "Siemens", "foundation": "Monopile", "water_dept": -22, "turbine_mw": 3.6, "distance_to_shore": 19884, "tippecanoe_feature_density": 0}, "geometry": {"type": "Point", "coordinates": [-3.526611328125, 54.05112507097877]}}, {"type": "Feature", "properties": {"point_type": "turbine", "turbinemod": "SWT-3.6-107", "oem": "Siemens", "foundation": "Monopile", "water_dept": -22, "turbine_mw": 3.6, "distance_to_shore": 19537, "tippecanoe_feature_density": 0}, "geometry": {"type": "Point", "coordinates": [-3.5180282592773438, 54.04669068748575]}}, {"type": "Feature", "properties": {"point_type": "turbine", "turbinemod": "SWT-3.6-107", "oem": "Siemens", "foundation": "Monopile", "water_dept": -22, "turbine_mw": 3.6, "distance_to_shore": 20494, "tippecanoe_feature_density": 0}, "geometry": {"type": "Point", "coordinates": [-3.5317611694335938, 54.04386856068936]}}, {"type": "Feature", "properties": {"point_type": "turbine", "turbinemod": "SWT-3.6-107", "oem": "Siemens", "foundation": "Monopile", "water_dept": -23, "turbine_mw": 3.6, "distance_to_shore": 21123, "tippecanoe_feature_density": 0}, "geometry": {"type": "Point", "coordinates": [-3.5369110107421875, 54.036610783193964]}}, {"type": "Feature", "properties": {"point_type": "turbine", "turbinemod": "SWT-3.6-107", "oem": "Siemens", "foundation": "Monopile", "water_dept": -22, "turbine_mw": 3.6, "distance_to_shore": 20168, "tippecanoe_feature_density": 0}, "geometry": {"type": "Point", "coordinates": [-3.5231781005859375, 54.039433402805145]}}, {"type": "Feature", "properties": {"point_type": "turbine", "turbinemod": "SWT-3.6-107", "oem": "Siemens", "foundation": "Monopile", "water_dept": -23, "turbine_mw": 3.6, "distance_to_shore": 21769, "tippecanoe_feature_density": 0}, "geometry": {"type": "Point", "coordinates": [-3.5424041748046875, 54.02935173838773]}}, {"type": "Feature", "properties": {"point_type": "turbine", "turbinemod": "SWT-3.6-107", "oem": "Siemens", "foundation": "Monopile", "water_dept": -22, "turbine_mw": 3.6, "distance_to_shore": 20817, "tippecanoe_feature_density": 0}, "geometry": {"type": "Point", "coordinates": [-3.5283279418945312, 54.03217485085446]}}, {"type": "Feature", "properties": {"point_type": "turbine", "turbinemod": "SWT-3.6-107", "oem": "Siemens", "foundation": "Monopile", "water_dept": -22, "turbine_mw": 3.6, "distance_to_shore": 21481, "tippecanoe_feature_density": 0}, "geometry": {"type": "Point", "coordinates": [-3.5338211059570312, 54.024915031528906]}}, {"type": "Feature", "properties": {"point_type": "turbine", "turbinemod": "SWT-3.6-107", "oem": "Siemens", "foundation": "Monopile", "water_dept": -22, "turbine_mw": 3.6, "distance_to_shore": 20532, "tippecanoe_feature_density": 0}, "geometry": {"type": "Point", "coordinates": [-3.519744873046875, 54.02773844520519]}}, {"type": "Feature", "properties": {"point_type": "turbine", "turbinemod": "SWT-3.6-107", "oem": "Siemens", "foundation": "Monopile", "water_dept": -22, "turbine_mw": 3.6, "distance_to_shore": 21217, "tippecanoe_feature_density": 0}, "geometry": {"type": "Point", "coordinates": [-3.525238037109375, 54.02047785132123]}}, {"type": "Feature", "properties": {"point_type": "turbine", "turbinemod": "SWT-3.6-107", "oem": "Siemens", "foundation": "Monopile", "water_dept": -22, "turbine_mw": 3.6, "distance_to_shore": 20973, "tippecanoe_feature_density": 0}, "geometry": {"type": "Point", "coordinates": [-3.5166549682617188, 54.016040197740836]}}, {"type": "Feature", "properties": {"point_type": "turbine", "turbinemod": "SWT-3.6-107", "oem": "Siemens", "foundation": "Monopile", "water_dept": -21, "turbine_mw": 3.6, "distance_to_shore": 18335, "tippecanoe_feature_density": 0}, "geometry": {"type": "Point", "coordinates": [-3.50738525390625, 54.06120145545617]}}, {"type": "Feature", "properties": {"point_type": "turbine", "turbinemod": "SWT-3.6-107", "oem": "Siemens", "foundation": "Monopile", "water_dept": -21, "turbine_mw": 3.6, "distance_to_shore": 18925, "tippecanoe_feature_density": 0}, "geometry": {"type": "Point", "coordinates": [-3.5125350952148438, 54.053946705001124]}}, {"type": "Feature", "properties": {"point_type": "turbine", "turbinemod": "SWT-3.6-107", "oem": "Siemens", "foundation": "Monopile", "water_dept": -21, "turbine_mw": 3.6, "distance_to_shore": 17966, "tippecanoe_feature_density": 0}, "geometry": {"type": "Point", "coordinates": [-3.4988021850585938, 54.056566622154975]}}, {"type": "Feature", "properties": {"point_type": "turbine", "turbinemod": "SWT-3.6-107", "oem": "Siemens", "foundation": "Monopile", "water_dept": -21, "turbine_mw": 3.6, "distance_to_shore": 18579, "tippecanoe_feature_density": 0}, "geometry": {"type": "Point", "coordinates": [-3.5039520263671875, 54.049512622642936]}}, {"type": "Feature", "properties": {"point_type": "turbine", "turbinemod": "SWT-3.6-107", "oem": "Siemens", "foundation": "Monopile", "water_dept": -21, "turbine_mw": 3.6, "distance_to_shore": 19213, "tippecanoe_feature_density": 0}, "geometry": {"type": "Point", "coordinates": [-3.5094451904296875, 54.04225583076126]}}, {"type": "Feature", "properties": {"point_type": "turbine", "turbinemod": "SWT-3.6-107", "oem": "Siemens", "foundation": "Monopile", "water_dept": -22, "turbine_mw": 3.6, "distance_to_shore": 19865, "tippecanoe_feature_density": 0}, "geometry": {"type": "Point", "coordinates": [-3.5145950317382812, 54.034997771650296]}}, {"type": "Feature", "properties": {"point_type": "turbine", "turbinemod": "SWT-3.6-107", "oem": "Siemens", "foundation": "Monopile", "water_dept": -21, "turbine_mw": 3.6, "distance_to_shore": 18258, "tippecanoe_feature_density": 0}, "geometry": {"type": "Point", "coordinates": [-3.4953689575195312, 54.045078067068545]}}, {"type": "Feature", "properties": {"point_type": "turbine", "turbinemod": "SWT-3.6-107", "oem": "Siemens", "foundation": "Monopile", "water_dept": -21, "turbine_mw": 3.6, "distance_to_shore": 18913, "tippecanoe_feature_density": 0}, "geometry": {"type": "Point", "coordinates": [-3.5008621215820312, 54.03782050078138]}}, {"type": "Feature", "properties": {"point_type": "turbine", "turbinemod": "SWT-3.6-107", "oem": "Siemens", "foundation": "Monopile", "water_dept": -20, "turbine_mw": 3.6, "distance_to_shore": 17622, "tippecanoe_feature_density": 0}, "geometry": {"type": "Point", "coordinates": [-3.4902191162109375, 54.05213281941329]}}, {"type": "Feature", "properties": {"point_type": "turbine", "turbinemod": "SWT-3.6-107", "oem": "Siemens", "foundation": "Monopile", "water_dept": -20, "turbine_mw": 3.6, "distance_to_shore": 17304, "tippecanoe_feature_density": 0}, "geometry": {"type": "Point", "coordinates": [-3.4816360473632812, 54.04769854346955]}}, {"type": "Feature", "properties": {"point_type": "turbine", "turbinemod": "SWT-3.6-107", "oem": "Siemens", "foundation": "Monopile", "water_dept": -21, "turbine_mw": 3.6, "distance_to_shore": 17962, "tippecanoe_feature_density": 0}, "geometry": {"type": "Point", "coordinates": [-3.486785888671875, 54.04044143479035]}}, {"type": "Feature", "properties": {"point_type": "turbine", "turbinemod": "SWT-3.6-107", "oem": "Siemens", "foundation": "Monopile", "water_dept": -20, "turbine_mw": 3.6, "distance_to_shore": 17013, "tippecanoe_feature_density": 0}, "geometry": {"type": "Point", "coordinates": [-3.473052978515625, 54.043263794299776]}}, {"type": "Feature", "properties": {"point_type": "turbine", "turbinemod": "SWT-3.6-107", "oem": "Siemens", "foundation": "Monopile", "water_dept": -20, "turbine_mw": 3.6, "distance_to_shore": 17693, "tippecanoe_feature_density": 0}, "geometry": {"type": "Point", "coordinates": [-3.4782028198242188, 54.03600591119911]}}, {"type": "Feature", "properties": {"point_type": "turbine", "turbinemod": "SWT-3.6-107", "oem": "Siemens", "foundation": "Monopile", "water_dept": -21, "turbine_mw": 3.6, "distance_to_shore": 19585, "tippecanoe_feature_density": 0}, "geometry": {"type": "Point", "coordinates": [-3.506011962890625, 54.030561667200914]}}, {"type": "Feature", "properties": {"point_type": "turbine", "turbinemod": "SWT-3.6-107", "oem": "Siemens", "foundation": "Monopile", "water_dept": -21, "turbine_mw": 3.6, "distance_to_shore": 20273, "tippecanoe_feature_density": 0}, "geometry": {"type": "Point", "coordinates": [-3.5111618041992188, 54.0233015662223]}}, {"type": "Feature", "properties": {"point_type": "turbine", "turbinemod": "SWT-3.6-107", "oem": "Siemens", "foundation": "Monopile", "water_dept": -21, "turbine_mw": 3.6, "distance_to_shore": 19330, "tippecanoe_feature_density": 0}, "geometry": {"type": "Point", "coordinates": [-3.4974288940429688, 54.026125089433094]}}, {"type": "Feature", "properties": {"point_type": "turbine", "turbinemod": "SWT-3.6-107", "oem": "Siemens", "foundation": "Monopile", "water_dept": -21, "turbine_mw": 3.6, "distance_to_shore": 20038, "tippecanoe_feature_density": 0}, "geometry": {"type": "Point", "coordinates": [-3.5025787353515625, 54.01886421388184]}}, {"type": "Feature", "properties": {"point_type": "turbine", "turbinemod": "SWT-3.6-107", "oem": "Siemens", "foundation": "Monopile", "water_dept": -21, "turbine_mw": 3.6, "distance_to_shore": 18639, "tippecanoe_feature_density": 0}, "geometry": {"type": "Point", "coordinates": [-3.492279052734375, 54.033183058855656]}}, {"type": "Feature", "properties": {"point_type": "turbine", "turbinemod": "SWT-3.6-107", "oem": "Siemens", "foundation": "Monopile", "water_dept": -20, "turbine_mw": 3.6, "distance_to_shore": 18391, "tippecanoe_feature_density": 0}, "geometry": {"type": "Point", "coordinates": [-3.4836959838867188, 54.028746760778915]}}, {"type": "Feature", "properties": {"point_type": "turbine", "turbinemod": "SWT-3.6-107", "oem": "Siemens", "foundation": "Monopile", "water_dept": -21, "turbine_mw": 3.6, "distance_to_shore": 19102, "tippecanoe_feature_density": 0}, "geometry": {"type": "Point", "coordinates": [-3.4888458251953125, 54.02168803832291]}}, {"type": "Feature", "properties": {"point_type": "turbine", "turbinemod": "SWT-3.6-107", "oem": "Siemens", "foundation": "Monopile", "water_dept": -20, "turbine_mw": 3.6, "distance_to_shore": 18170, "tippecanoe_feature_density": 0}, "geometry": {"type": "Point", "coordinates": [-3.4751129150390625, 54.02430998937393]}}, {"type": "Feature", "properties": {"point_type": "turbine", "turbinemod": "SWT-3.6-107", "oem": "Siemens", "foundation": "Monopile", "water_dept": -20, "turbine_mw": 3.6, "distance_to_shore": 16749, "tippecanoe_feature_density": 0}, "geometry": {"type": "Point", "coordinates": [-3.4644699096679688, 54.03882857188003]}}, {"type": "Feature", "properties": {"point_type": "turbine", "turbinemod": "SWT-3.6-107", "oem": "Siemens", "foundation": "Monopile", "water_dept": -20, "turbine_mw": 3.6, "distance_to_shore": 16516, "tippecanoe_feature_density": 0}, "geometry": {"type": "Point", "coordinates": [-3.4558868408203125, 54.034392876186416]}}, {"type": "Feature", "properties": {"point_type": "turbine", "turbinemod": "SWT-3.6-107", "oem": "Siemens", "foundation": "Monopile", "water_dept": -20, "turbine_mw": 3.6, "distance_to_shore": 17453, "tippecanoe_feature_density": 0}, "geometry": {"type": "Point", "coordinates": [-3.4696197509765625, 54.031569914318766]}}, {"type": "Feature", "properties": {"point_type": "turbine", "turbinemod": "SWT-3.6-107", "oem": "Siemens", "foundation": "Monopile", "water_dept": -20, "turbine_mw": 3.6, "distance_to_shore": 17241, "tippecanoe_feature_density": 0}, "geometry": {"type": "Point", "coordinates": [-3.4610366821289062, 54.02713344412541]}}, {"type": "Feature", "properties": {"point_type": "turbine", "turbinemod": "SWT-3.6-107", "oem": "Siemens", "foundation": "Monopile", "water_dept": -19, "turbine_mw": 3.6, "distance_to_shore": 16316, "tippecanoe_feature_density": 0}, "geometry": {"type": "Point", "coordinates": [-3.4473037719726562, 54.029956707195026]}}]}