{"type": "FeatureCollection", "features": [{"type": "Feature", "properties": {"point_type": "substation", "distance_to_shore": 60767, "foundation": "Jacket", "item": "Substation", "jacket_weight": 1294, "seabed_soil": "Sand", "sub_name": "WOW03-Z03 ", "topside_manufacture": "Smulders", "topside_weight": 1260, "water_dept": -26, "wf_name": "Walney Extension", "tippecanoe_feature_density": 0}, "geometry": {"type": "Point", "coordinates": [-3.854827880859375, 54.0946375272664]}}, {"type": "Feature", "properties": {"point_type": "substation", "distance_to_shore": 46936, "foundation": "Jacket", "item": "Substation", "jacket_weight": 1479, "seabed_soil": "Mud/Muddy Sand", "sub_name": "WOW04-Z04", "topside_manufacture": "Smulders", "topside_weight": 1260, "water_dept": -29, "wf_name": "Walney Extension", "tippecanoe_feature_density": 0}, "geometry": {"type": "Point", "coordinates": [-3.6550140380859375, 54.05253591194327]}}]}