{"type": "FeatureCollection", "features": [{"type": "Feature", "properties": {"wf_develop": "Walney (UK) Offshore Windfarms", "turbine_mo": "SWT-3.6-107", "fou_type": "Monopile", "wtg_hubhei": 90, "wtg_oem": "Siemens Gamesa", "cod": "2011-05-01T00:00:00", "wf_name": "Walney Phase 1", "status": "Fully Commissioned", "no_turbine": 51, "country": "United Kingdom", "capacity_m": 184, "wf_owners": "Orsted/Scottish & Southern/PGGM", "tippecanoe_feature_density": 0}, "geometry": {"type": "Polygon", "coordinates": [[[-3.4442138671875, 54.029553395634764], [-3.5259246826171875, 54.01220729777353], [-3.5327911376953125, 54.01886421388184], [-3.5475540161132812, 54.029553395634764], [-3.5633468627929688, 54.03822373215439], [-3.5341644287109375, 54.076311449811726], [-3.4442138671875, 54.029553395634764]]]}}]}