{"type": "FeatureCollection", "features": [{"type": "Feature", "properties": {"point_type": "substation", "distance_to_shore": 31583, "foundation": "Jacket", "item": "Substation", "jacket_weight": 1180, "seabed_soil": "Mud/Muddy Sand", "sub_name": "Sub-Station ", "topside_manufacture": "Smulders", "topside_weight": 1520, "water_dept": -19, "wf_name": "West of Duddon Sands", "tippecanoe_feature_density": 0}, "geometry": {"type": "Point", "coordinates": [-3.4325408935546875, 53.98920248219227]}}]}