{"type": "FeatureCollection", "features": [{"type": "Feature", "properties": {"wf_develop": "\u00d8rsted", "turbine_mo": "V164-8.0", "fou_type": "Monopile", "wtg_hubhei": 105, "wtg_oem": "Vestas", "cod": "2017-04-01T00:00:00", "wf_name": "Burbo Bank Extension", "status": "Fully Commissioned", "no_turbine": 32, "country": "United Kingdom", "capacity_m": 254, "wf_owners": "Orsted/PKA/Kirkbi", "tippecanoe_feature_density": 0}, "geometry": {"type": "Polygon", "coordinates": [[[-3.2238006591796875, 53.494581793167185], [-3.1788253784179688, 53.47026999422229], [-3.1963348388671875, 53.46393438083845], [-3.3058547973632812, 53.46352559911503], [-3.3765792846679688, 53.502342290137136], [-3.2200241088867188, 53.50275069799929], [-3.2238006591796875, 53.494581793167185]]]}}]}