{"type": "FeatureCollection", "features": [{"type": "Feature", "properties": {"wf_develop": "Cerulean Winds", "turbine_mo": "TBA", "fou_type": "Floating", "cod": "2031-12-31T00:00:00", "wf_name": "Cedar", "status": "Early Planning", "country": "United Kingdom", "capacity_m": 1008, "wf_owners": "Cerulean Winds, Frontier Power International Limited, Telis Energy/Carlyle Group, Worley, Siemens Gamesa, Siemens Energy, DEME, NOV, GoBe", "tippecanoe_feature_density": 0}, "geometry": {"type": "Polygon", "coordinates": [[[0.90087890625, 56.865489920056945], [0.863215798658394, 56.834282300648425], [0.806121826171875, 56.78583637507538], [0.8055230868452335, 56.786478167956204], [0.80474853515625, 56.78583637507538], [0.6261460183625122, 56.978753704926824], [0.53558349609375, 57.07582830730453], [0.5359726949661773, 57.07615432998936], [0.53558349609375, 57.076574722762075], [0.5837004406317774, 57.1161347330293], [0.6317138671875, 57.1563544441901], [0.90087890625, 56.866240562226096], [0.9004892416620179, 56.86590992028955], [0.90087890625, 56.865489920056945]]]}}]}