{"type": "FeatureCollection", "features": [{"type": "Feature", "properties": {"point_type": "substation", "distance_to_shore": 35127, "foundation": "Jacket", "item": "Substation", "jacket_weight": 928, "seabed_soil": "Sand", "sub_name": "BE-F8 (OTM 2)", "topside_manufacture": "Siemens", "topside_weight": 914, "water_dept": -46, "wf_name": "Beatrice", "tippecanoe_feature_density": 0}, "geometry": {"type": "Point", "coordinates": [-2.8948974609375, 58.2575075890816]}}, {"type": "Feature", "properties": {"point_type": "substation", "distance_to_shore": 37347, "foundation": "Jacket", "item": "Substation", "jacket_weight": 928, "seabed_soil": "Sand", "sub_name": "BE-G7 (OTM 1)", "topside_manufacture": "Siemens", "topside_weight": 914, "water_dept": -43, "wf_name": "Beatrice", "tippecanoe_feature_density": 0}, "geometry": {"type": "Point", "coordinates": [-2.88116455078125, 58.250281934407326]}}, {"type": "Feature", "properties": {"point_type": "substation", "distance_to_shore": 35127, "foundation": "Jacket", "item": "Substation", "jacket_weight": 928, "seabed_soil": "Sand", "sub_name": "BE-F8 (OTM 2)", "topside_manufacture": "Siemens", "topside_weight": 914, "water_dept": -46, "wf_name": "Beatrice", "tippecanoe_feature_density": 0}, "geometry": {"type": "Point", "coordinates": [-2.896270751953125, 58.256785089887615]}}]}