{"type": "FeatureCollection", "features": [{"type": "Feature", "properties": {"point_type": "turbine", "turbinemod": "SWT-7.0-154", "oem": "Siemens", "foundation": "Jacket", "water_dept": -56, "turbine_mw": 7, "distance_to_shore": 15791, "tippecanoe_feature_density": 0}, "geometry": {"type": "Point", "coordinates": [-2.900390625, 58.29505725804833]}}, {"type": "Feature", "properties": {"point_type": "turbine", "turbinemod": "SWT-7.0-154", "oem": "Siemens", "foundation": "Jacket", "water_dept": -56, "turbine_mw": 7, "distance_to_shore": 15618, "tippecanoe_feature_density": 0}, "geometry": {"type": "Point", "coordinates": [-2.92236328125, 58.28061978857582]}}, {"type": "Feature", "properties": {"point_type": "turbine", "turbinemod": "SWT-7.0-154", "oem": "Siemens", "foundation": "Jacket", "water_dept": -46, "turbine_mw": 7, "distance_to_shore": 16150, "tippecanoe_feature_density": 2}, "geometry": {"type": "Point", "coordinates": [-2.92510986328125, 58.270510056478514]}}, {"type": "Feature", "properties": {"point_type": "turbine", "turbinemod": "SWT-7.0-154", "oem": "Siemens", "foundation": "Jacket", "water_dept": -47, "turbine_mw": 7, "distance_to_shore": 16261, "tippecanoe_feature_density": 2}, "geometry": {"type": "Point", "coordinates": [-2.90313720703125, 58.28495164762444]}}, {"type": "Feature", "properties": {"point_type": "turbine", "turbinemod": "SWT-7.0-154", "oem": "Siemens", "foundation": "Jacket", "water_dept": -46, "turbine_mw": 7, "distance_to_shore": 16788, "tippecanoe_feature_density": 2}, "geometry": {"type": "Point", "coordinates": [-2.90863037109375, 58.27339884580951]}}, {"type": "Feature", "properties": {"point_type": "turbine", "turbinemod": "SWT-7.0-154", "oem": "Siemens", "foundation": "Jacket", "water_dept": -45, "turbine_mw": 7, "distance_to_shore": 17320, "tippecanoe_feature_density": 2}, "geometry": {"type": "Point", "coordinates": [-2.911376953125, 58.26328705248599]}}, {"type": "Feature", "properties": {"point_type": "turbine", "turbinemod": "SWT-7.0-154", "oem": "Siemens", "foundation": "Jacket", "water_dept": -53, "turbine_mw": 7, "distance_to_shore": 17057, "tippecanoe_feature_density": 0}, "geometry": {"type": "Point", "coordinates": [-2.85919189453125, 58.31237445091298]}}, {"type": "Feature", "properties": {"point_type": "turbine", "turbinemod": "SWT-7.0-154", "oem": "Siemens", "foundation": "Jacket", "water_dept": -56, "turbine_mw": 7, "distance_to_shore": 16801, "tippecanoe_feature_density": 0}, "geometry": {"type": "Point", "coordinates": [-2.8564453125, 58.322472233020534]}}, {"type": "Feature", "properties": {"point_type": "turbine", "turbinemod": "SWT-7.0-154", "oem": "Siemens", "foundation": "Jacket", "water_dept": -53, "turbine_mw": 7, "distance_to_shore": 17919, "tippecanoe_feature_density": 0}, "geometry": {"type": "Point", "coordinates": [-2.8399658203125, 58.3152598257459]}}, {"type": "Feature", "properties": {"point_type": "turbine", "turbinemod": "SWT-7.0-154", "oem": "Siemens", "foundation": "Jacket", "water_dept": -54, "turbine_mw": 7, "distance_to_shore": 18779, "tippecanoe_feature_density": 1}, "geometry": {"type": "Point", "coordinates": [-2.82073974609375, 58.31958744664172]}}, {"type": "Feature", "properties": {"point_type": "turbine", "turbinemod": "SWT-7.0-154", "oem": "Siemens", "foundation": "Jacket", "water_dept": -49, "turbine_mw": 7, "distance_to_shore": 16541, "tippecanoe_feature_density": 1}, "geometry": {"type": "Point", "coordinates": [-2.88116455078125, 58.29794404547414]}}, {"type": "Feature", "properties": {"point_type": "turbine", "turbinemod": "SWT-7.0-154", "oem": "Siemens", "foundation": "Jacket", "water_dept": -48, "turbine_mw": 7, "distance_to_shore": 16951, "tippecanoe_feature_density": 1}, "geometry": {"type": "Point", "coordinates": [-2.8839111328125, 58.28783925926027]}}, {"type": "Feature", "properties": {"point_type": "turbine", "turbinemod": "SWT-7.0-154", "oem": "Siemens", "foundation": "Jacket", "water_dept": -57, "turbine_mw": 7, "distance_to_shore": 16205, "tippecanoe_feature_density": 1}, "geometry": {"type": "Point", "coordinates": [-2.87841796875, 58.308045947280334]}}, {"type": "Feature", "properties": {"point_type": "turbine", "turbinemod": "SWT-7.0-154", "oem": "Siemens", "foundation": "Jacket", "water_dept": -50, "turbine_mw": 7, "distance_to_shore": 17338, "tippecanoe_feature_density": 4}, "geometry": {"type": "Point", "coordinates": [-2.8619384765625, 58.30227378512558]}}, {"type": "Feature", "properties": {"point_type": "turbine", "turbinemod": "SWT-7.0-154", "oem": "Siemens", "foundation": "Jacket", "water_dept": -50, "turbine_mw": 7, "distance_to_shore": 17691, "tippecanoe_feature_density": 4}, "geometry": {"type": "Point", "coordinates": [-2.867431640625, 58.29072663539267]}}, {"type": "Feature", "properties": {"point_type": "turbine", "turbinemod": "SWT-7.0-154", "oem": "Siemens", "foundation": "Jacket", "water_dept": -47, "turbine_mw": 7, "distance_to_shore": 17429, "tippecanoe_feature_density": 1}, "geometry": {"type": "Point", "coordinates": [-2.889404296875, 58.277731588129484]}}, {"type": "Feature", "properties": {"point_type": "turbine", "turbinemod": "SWT-7.0-154", "oem": "Siemens", "foundation": "Jacket", "water_dept": -47, "turbine_mw": 7, "distance_to_shore": 17958, "tippecanoe_feature_density": 1}, "geometry": {"type": "Point", "coordinates": [-2.89215087890625, 58.26762103157287]}}, {"type": "Feature", "properties": {"point_type": "turbine", "turbinemod": "SWT-7.0-154", "oem": "Siemens", "foundation": "Jacket", "water_dept": -50, "turbine_mw": 7, "distance_to_shore": 18112, "tippecanoe_feature_density": 2}, "geometry": {"type": "Point", "coordinates": [-2.87017822265625, 58.28061978857582]}}, {"type": "Feature", "properties": {"point_type": "turbine", "turbinemod": "SWT-7.0-154", "oem": "Siemens", "foundation": "Jacket", "water_dept": -50, "turbine_mw": 7, "distance_to_shore": 18596, "tippecanoe_feature_density": 2}, "geometry": {"type": "Point", "coordinates": [-2.8729248046875, 58.270510056478514]}}, {"type": "Feature", "properties": {"point_type": "turbine", "turbinemod": "SWT-7.0-154", "oem": "Siemens", "foundation": "Jacket", "water_dept": -45, "turbine_mw": 7, "distance_to_shore": 19766, "tippecanoe_feature_density": 2}, "geometry": {"type": "Point", "coordinates": [-2.85919189453125, 58.26328705248599]}}, {"type": "Feature", "properties": {"point_type": "turbine", "turbinemod": "SWT-7.0-154", "oem": "Siemens", "foundation": "Jacket", "water_dept": -52, "turbine_mw": 7, "distance_to_shore": 18175, "tippecanoe_feature_density": 2}, "geometry": {"type": "Point", "coordinates": [-2.845458984375, 58.305159983919054]}}, {"type": "Feature", "properties": {"point_type": "turbine", "turbinemod": "SWT-7.0-154", "oem": "Siemens", "foundation": "Jacket", "water_dept": -50, "turbine_mw": 7, "distance_to_shore": 18475, "tippecanoe_feature_density": 3}, "geometry": {"type": "Point", "coordinates": [-2.84820556640625, 58.29505725804833]}}, {"type": "Feature", "properties": {"point_type": "turbine", "turbinemod": "SWT-7.0-154", "oem": "Siemens", "foundation": "Jacket", "water_dept": -51, "turbine_mw": 7, "distance_to_shore": 19036, "tippecanoe_feature_density": 3}, "geometry": {"type": "Point", "coordinates": [-2.82623291015625, 58.30948884067766]}}, {"type": "Feature", "properties": {"point_type": "turbine", "turbinemod": "SWT-7.0-154", "oem": "Siemens", "foundation": "Jacket", "water_dept": -50, "turbine_mw": 7, "distance_to_shore": 19298, "tippecanoe_feature_density": 3}, "geometry": {"type": "Point", "coordinates": [-2.8289794921875, 58.29794404547414]}}, {"type": "Feature", "properties": {"point_type": "turbine", "turbinemod": "SWT-7.0-154", "oem": "Siemens", "foundation": "Jacket", "water_dept": -49, "turbine_mw": 7, "distance_to_shore": 19616, "tippecanoe_feature_density": 3}, "geometry": {"type": "Point", "coordinates": [-2.83172607421875, 58.28783925926027]}}, {"type": "Feature", "properties": {"point_type": "turbine", "turbinemod": "SWT-7.0-154", "oem": "Siemens", "foundation": "Jacket", "water_dept": -51, "turbine_mw": 7, "distance_to_shore": 20427, "tippecanoe_feature_density": 2}, "geometry": {"type": "Point", "coordinates": [-2.8125, 58.2921702351488]}}, {"type": "Feature", "properties": {"point_type": "turbine", "turbinemod": "SWT-7.0-154", "oem": "Siemens", "foundation": "Jacket", "water_dept": -50, "turbine_mw": 7, "distance_to_shore": 18841, "tippecanoe_feature_density": 2}, "geometry": {"type": "Point", "coordinates": [-2.8509521484375, 58.28495164762444]}}, {"type": "Feature", "properties": {"point_type": "turbine", "turbinemod": "SWT-7.0-154", "oem": "Siemens", "foundation": "Jacket", "water_dept": -47, "turbine_mw": 7, "distance_to_shore": 19996, "tippecanoe_feature_density": 3}, "geometry": {"type": "Point", "coordinates": [-2.83721923828125, 58.277731588129484]}}, {"type": "Feature", "properties": {"point_type": "turbine", "turbinemod": "SWT-7.0-154", "oem": "Siemens", "foundation": "Jacket", "water_dept": -48, "turbine_mw": 7, "distance_to_shore": 19274, "tippecanoe_feature_density": 3}, "geometry": {"type": "Point", "coordinates": [-2.85369873046875, 58.27484315213823]}}, {"type": "Feature", "properties": {"point_type": "turbine", "turbinemod": "SWT-7.0-154", "oem": "Siemens", "foundation": "Jacket", "water_dept": -45, "turbine_mw": 7, "distance_to_shore": 20437, "tippecanoe_feature_density": 4}, "geometry": {"type": "Point", "coordinates": [-2.8399658203125, 58.26762103157287]}}, {"type": "Feature", "properties": {"point_type": "turbine", "turbinemod": "SWT-7.0-154", "oem": "Siemens", "foundation": "Jacket", "water_dept": -49, "turbine_mw": 7, "distance_to_shore": 20760, "tippecanoe_feature_density": 4}, "geometry": {"type": "Point", "coordinates": [-2.8179931640625, 58.28206380047334]}}, {"type": "Feature", "properties": {"point_type": "turbine", "turbinemod": "SWT-7.0-154", "oem": "Siemens", "foundation": "Jacket", "water_dept": -48, "turbine_mw": 7, "distance_to_shore": 21152, "tippecanoe_feature_density": 2}, "geometry": {"type": "Point", "coordinates": [-2.82073974609375, 58.270510056478514]}}, {"type": "Feature", "properties": {"point_type": "turbine", "turbinemod": "SWT-7.0-154", "oem": "Siemens", "foundation": "Jacket", "water_dept": -49, "turbine_mw": 7, "distance_to_shore": 16917, "tippecanoe_feature_density": 0}, "geometry": {"type": "Point", "coordinates": [-2.999267578125, 58.20834408664771]}}, {"type": "Feature", "properties": {"point_type": "turbine", "turbinemod": "SWT-7.0-154", "oem": "Siemens", "foundation": "Jacket", "water_dept": -49, "turbine_mw": 7, "distance_to_shore": 16044, "tippecanoe_feature_density": 0}, "geometry": {"type": "Point", "coordinates": [-2.9498291015625, 58.256062575966666]}}, {"type": "Feature", "properties": {"point_type": "turbine", "turbinemod": "SWT-7.0-154", "oem": "Siemens", "foundation": "Jacket", "water_dept": -46, "turbine_mw": 7, "distance_to_shore": 16574, "tippecanoe_feature_density": 0}, "geometry": {"type": "Point", "coordinates": [-2.95257568359375, 58.24594583464162]}}, {"type": "Feature", "properties": {"point_type": "turbine", "turbinemod": "SWT-7.0-154", "oem": "Siemens", "foundation": "Jacket", "water_dept": -49, "turbine_mw": 7, "distance_to_shore": 16468, "tippecanoe_feature_density": 2}, "geometry": {"type": "Point", "coordinates": [-2.97454833984375, 58.23148833880538]}}, {"type": "Feature", "properties": {"point_type": "turbine", "turbinemod": "SWT-7.0-154", "oem": "Siemens", "foundation": "Jacket", "water_dept": -48, "turbine_mw": 7, "distance_to_shore": 16999, "tippecanoe_feature_density": 2}, "geometry": {"type": "Point", "coordinates": [-2.977294921875, 58.221364585254605]}}, {"type": "Feature", "properties": {"point_type": "turbine", "turbinemod": "SWT-7.0-154", "oem": "Siemens", "foundation": "Jacket", "water_dept": -42, "turbine_mw": 7, "distance_to_shore": 17107, "tippecanoe_feature_density": 2}, "geometry": {"type": "Point", "coordinates": [-2.955322265625, 58.235826206292444]}}, {"type": "Feature", "properties": {"point_type": "turbine", "turbinemod": "SWT-7.0-154", "oem": "Siemens", "foundation": "Jacket", "water_dept": -41, "turbine_mw": 7, "distance_to_shore": 17636, "tippecanoe_feature_density": 2}, "geometry": {"type": "Point", "coordinates": [-2.95806884765625, 58.22570369041097]}}, {"type": "Feature", "properties": {"point_type": "turbine", "turbinemod": "SWT-7.0-154", "oem": "Siemens", "foundation": "Jacket", "water_dept": -44, "turbine_mw": 7, "distance_to_shore": 16682, "tippecanoe_feature_density": 1}, "geometry": {"type": "Point", "coordinates": [-2.93060302734375, 58.260397438591895]}}, {"type": "Feature", "properties": {"point_type": "turbine", "turbinemod": "SWT-7.0-154", "oem": "Siemens", "foundation": "Jacket", "water_dept": -43, "turbine_mw": 7, "distance_to_shore": 17213, "tippecanoe_feature_density": 1}, "geometry": {"type": "Point", "coordinates": [-2.933349609375, 58.250281934407326]}}, {"type": "Feature", "properties": {"point_type": "turbine", "turbinemod": "SWT-7.0-154", "oem": "Siemens", "foundation": "Jacket", "water_dept": -45, "turbine_mw": 7, "distance_to_shore": 17850, "tippecanoe_feature_density": 2}, "geometry": {"type": "Point", "coordinates": [-2.91412353515625, 58.2531723730099]}}, {"type": "Feature", "properties": {"point_type": "turbine", "turbinemod": "SWT-7.0-154", "oem": "Siemens", "foundation": "Jacket", "water_dept": -44, "turbine_mw": 7, "distance_to_shore": 18382, "tippecanoe_feature_density": 2}, "geometry": {"type": "Point", "coordinates": [-2.9168701171875, 58.24305480687269]}}, {"type": "Feature", "properties": {"point_type": "turbine", "turbinemod": "SWT-7.0-154", "oem": "Siemens", "foundation": "Jacket", "water_dept": -43, "turbine_mw": 7, "distance_to_shore": 17744, "tippecanoe_feature_density": 2}, "geometry": {"type": "Point", "coordinates": [-2.93609619140625, 58.23871782330187]}}, {"type": "Feature", "properties": {"point_type": "turbine", "turbinemod": "SWT-7.0-154", "oem": "Siemens", "foundation": "Jacket", "water_dept": -41, "turbine_mw": 7, "distance_to_shore": 18275, "tippecanoe_feature_density": 2}, "geometry": {"type": "Point", "coordinates": [-2.9388427734375, 58.22859613248144]}}, {"type": "Feature", "properties": {"point_type": "turbine", "turbinemod": "SWT-7.0-154", "oem": "Siemens", "foundation": "Jacket", "water_dept": -41, "turbine_mw": 7, "distance_to_shore": 18806, "tippecanoe_feature_density": 3}, "geometry": {"type": "Point", "coordinates": [-2.9443359375, 58.218471553765966]}}, {"type": "Feature", "properties": {"point_type": "turbine", "turbinemod": "SWT-7.0-154", "oem": "Siemens", "foundation": "Jacket", "water_dept": -41, "turbine_mw": 7, "distance_to_shore": 19444, "tippecanoe_feature_density": 3}, "geometry": {"type": "Point", "coordinates": [-2.92510986328125, 58.2228110125821]}}, {"type": "Feature", "properties": {"point_type": "turbine", "turbinemod": "SWT-7.0-154", "oem": "Siemens", "foundation": "Jacket", "water_dept": -41, "turbine_mw": 7, "distance_to_shore": 18913, "tippecanoe_feature_density": 4}, "geometry": {"type": "Point", "coordinates": [-2.92236328125, 58.232934353566094]}}, {"type": "Feature", "properties": {"point_type": "turbine", "turbinemod": "SWT-7.0-154", "oem": "Siemens", "foundation": "Jacket", "water_dept": -41, "turbine_mw": 7, "distance_to_shore": 19552, "tippecanoe_feature_density": 4}, "geometry": {"type": "Point", "coordinates": [-2.90313720703125, 58.235826206292444]}}, {"type": "Feature", "properties": {"point_type": "turbine", "turbinemod": "SWT-7.0-154", "oem": "Siemens", "foundation": "Jacket", "water_dept": -39, "turbine_mw": 7, "distance_to_shore": 20082, "tippecanoe_feature_density": 3}, "geometry": {"type": "Point", "coordinates": [-2.9058837890625, 58.22570369041097]}}, {"type": "Feature", "properties": {"point_type": "turbine", "turbinemod": "SWT-7.0-154", "oem": "Siemens", "foundation": "Jacket", "water_dept": -40, "turbine_mw": 7, "distance_to_shore": 17529, "tippecanoe_feature_density": 3}, "geometry": {"type": "Point", "coordinates": [-2.98004150390625, 58.211237943446065]}}, {"type": "Feature", "properties": {"point_type": "turbine", "turbinemod": "SWT-7.0-154", "oem": "Siemens", "foundation": "Jacket", "water_dept": -40, "turbine_mw": 7, "distance_to_shore": 18168, "tippecanoe_feature_density": 1}, "geometry": {"type": "Point", "coordinates": [-2.96356201171875, 58.215578286489375]}}, {"type": "Feature", "properties": {"point_type": "turbine", "turbinemod": "SWT-7.0-154", "oem": "Siemens", "foundation": "Jacket", "water_dept": -38, "turbine_mw": 7, "distance_to_shore": 19337, "tippecanoe_feature_density": 1}, "geometry": {"type": "Point", "coordinates": [-2.94708251953125, 58.20834408664771]}}, {"type": "Feature", "properties": {"point_type": "turbine", "turbinemod": "SWT-7.0-154", "oem": "Siemens", "foundation": "Jacket", "water_dept": -37, "turbine_mw": 7, "distance_to_shore": 18678, "tippecanoe_feature_density": 4}, "geometry": {"type": "Point", "coordinates": [-2.96630859375, 58.205449994019915]}}, {"type": "Feature", "properties": {"point_type": "turbine", "turbinemod": "SWT-7.0-154", "oem": "Siemens", "foundation": "Jacket", "water_dept": -37, "turbine_mw": 7, "distance_to_shore": 19766, "tippecanoe_feature_density": 4}, "geometry": {"type": "Point", "coordinates": [-2.9498291015625, 58.19966110122877]}}, {"type": "Feature", "properties": {"point_type": "turbine", "turbinemod": "SWT-7.0-154", "oem": "Siemens", "foundation": "Jacket", "water_dept": -39, "turbine_mw": 7, "distance_to_shore": 19976, "tippecanoe_feature_density": 0}, "geometry": {"type": "Point", "coordinates": [-2.9278564453125, 58.211237943446065]}}, {"type": "Feature", "properties": {"point_type": "turbine", "turbinemod": "SWT-7.0-154", "oem": "Siemens", "foundation": "Jacket", "water_dept": -39, "turbine_mw": 7, "distance_to_shore": 20507, "tippecanoe_feature_density": 0}, "geometry": {"type": "Point", "coordinates": [-2.93060302734375, 58.2011084128722]}}, {"type": "Feature", "properties": {"point_type": "turbine", "turbinemod": "SWT-7.0-154", "oem": "Siemens", "foundation": "Jacket", "water_dept": -40, "turbine_mw": 7, "distance_to_shore": 20612, "tippecanoe_feature_density": 2}, "geometry": {"type": "Point", "coordinates": [-2.90863037109375, 58.215578286489375]}}, {"type": "Feature", "properties": {"point_type": "turbine", "turbinemod": "SWT-7.0-154", "oem": "Siemens", "foundation": "Jacket", "water_dept": -39, "turbine_mw": 7, "distance_to_shore": 21144, "tippecanoe_feature_density": 2}, "geometry": {"type": "Point", "coordinates": [-2.91412353515625, 58.205449994019915]}}, {"type": "Feature", "properties": {"point_type": "turbine", "turbinemod": "SWT-7.0-154", "oem": "Siemens", "foundation": "Jacket", "water_dept": -39, "turbine_mw": 7, "distance_to_shore": 21676, "tippecanoe_feature_density": 4}, "geometry": {"type": "Point", "coordinates": [-2.9168701171875, 58.1953188124952]}}, {"type": "Feature", "properties": {"point_type": "turbine", "turbinemod": "SWT-7.0-154", "oem": "Siemens", "foundation": "Jacket", "water_dept": -38, "turbine_mw": 7, "distance_to_shore": 21038, "tippecanoe_feature_density": 4}, "geometry": {"type": "Point", "coordinates": [-2.93609619140625, 58.19097599302563]}}, {"type": "Feature", "properties": {"point_type": "turbine", "turbinemod": "SWT-7.0-154", "oem": "Siemens", "foundation": "Jacket", "water_dept": -38, "turbine_mw": 7, "distance_to_shore": 21600, "tippecanoe_feature_density": 2}, "geometry": {"type": "Point", "coordinates": [-2.9388427734375, 58.18228876171895]}}, {"type": "Feature", "properties": {"point_type": "turbine", "turbinemod": "SWT-7.0-154", "oem": "Siemens", "foundation": "Jacket", "water_dept": -46, "turbine_mw": 7, "distance_to_shore": 19127, "tippecanoe_feature_density": 0}, "geometry": {"type": "Point", "coordinates": [-2.87567138671875, 58.260397438591895]}}, {"type": "Feature", "properties": {"point_type": "turbine", "turbinemod": "SWT-7.0-154", "oem": "Siemens", "foundation": "Jacket", "water_dept": -41, "turbine_mw": 7, "distance_to_shore": 20296, "tippecanoe_feature_density": 0}, "geometry": {"type": "Point", "coordinates": [-2.8619384765625, 58.2531723730099]}}, {"type": "Feature", "properties": {"point_type": "turbine", "turbinemod": "SWT-7.0-154", "oem": "Siemens", "foundation": "Jacket", "water_dept": -39, "turbine_mw": 7, "distance_to_shore": 20827, "tippecanoe_feature_density": 2}, "geometry": {"type": "Point", "coordinates": [-2.86468505859375, 58.24305480687269]}}, {"type": "Feature", "properties": {"point_type": "turbine", "turbinemod": "SWT-7.0-154", "oem": "Siemens", "foundation": "Jacket", "water_dept": -40, "turbine_mw": 7, "distance_to_shore": 20189, "tippecanoe_feature_density": 2}, "geometry": {"type": "Point", "coordinates": [-2.8839111328125, 58.24016354341643]}}, {"type": "Feature", "properties": {"point_type": "turbine", "turbinemod": "SWT-7.0-154", "oem": "Siemens", "foundation": "Jacket", "water_dept": -39, "turbine_mw": 7, "distance_to_shore": 20721, "tippecanoe_feature_density": 3}, "geometry": {"type": "Point", "coordinates": [-2.88665771484375, 58.230042265110995]}}, {"type": "Feature", "properties": {"point_type": "turbine", "turbinemod": "SWT-7.0-154", "oem": "Siemens", "foundation": "Jacket", "water_dept": -39, "turbine_mw": 7, "distance_to_shore": 21251, "tippecanoe_feature_density": 3}, "geometry": {"type": "Point", "coordinates": [-2.89215087890625, 58.218471553765966]}}, {"type": "Feature", "properties": {"point_type": "turbine", "turbinemod": "SWT-7.0-154", "oem": "Siemens", "foundation": "Jacket", "water_dept": -41, "turbine_mw": 7, "distance_to_shore": 21358, "tippecanoe_feature_density": 2}, "geometry": {"type": "Point", "coordinates": [-2.867431640625, 58.232934353566094]}}, {"type": "Feature", "properties": {"point_type": "turbine", "turbinemod": "SWT-7.0-154", "oem": "Siemens", "foundation": "Jacket", "water_dept": -39, "turbine_mw": 7, "distance_to_shore": 21890, "tippecanoe_feature_density": 2}, "geometry": {"type": "Point", "coordinates": [-2.8729248046875, 58.2228110125821]}}, {"type": "Feature", "properties": {"point_type": "turbine", "turbinemod": "SWT-7.0-154", "oem": "Siemens", "foundation": "Jacket", "water_dept": -42, "turbine_mw": 7, "distance_to_shore": 20934, "tippecanoe_feature_density": 1}, "geometry": {"type": "Point", "coordinates": [-2.84271240234375, 58.2575075890816]}}, {"type": "Feature", "properties": {"point_type": "turbine", "turbinemod": "SWT-7.0-154", "oem": "Siemens", "foundation": "Jacket", "water_dept": -40, "turbine_mw": 7, "distance_to_shore": 21466, "tippecanoe_feature_density": 1}, "geometry": {"type": "Point", "coordinates": [-2.845458984375, 58.24739126014708]}}, {"type": "Feature", "properties": {"point_type": "turbine", "turbinemod": "SWT-7.0-154", "oem": "Siemens", "foundation": "Jacket", "water_dept": -44, "turbine_mw": 7, "distance_to_shore": 21601, "tippecanoe_feature_density": 2}, "geometry": {"type": "Point", "coordinates": [-2.823486328125, 58.260397438591895]}}, {"type": "Feature", "properties": {"point_type": "turbine", "turbinemod": "SWT-7.0-154", "oem": "Siemens", "foundation": "Jacket", "water_dept": -43, "turbine_mw": 7, "distance_to_shore": 22104, "tippecanoe_feature_density": 2}, "geometry": {"type": "Point", "coordinates": [-2.8289794921875, 58.250281934407326]}}, {"type": "Feature", "properties": {"point_type": "turbine", "turbinemod": "SWT-7.0-154", "oem": "Siemens", "foundation": "Jacket", "water_dept": -41, "turbine_mw": 7, "distance_to_shore": 21996, "tippecanoe_feature_density": 1}, "geometry": {"type": "Point", "coordinates": [-2.8509521484375, 58.235826206292444]}}, {"type": "Feature", "properties": {"point_type": "turbine", "turbinemod": "SWT-7.0-154", "oem": "Siemens", "foundation": "Jacket", "water_dept": -39, "turbine_mw": 7, "distance_to_shore": 21715, "tippecanoe_feature_density": 1}, "geometry": {"type": "Point", "coordinates": [-2.8948974609375, 58.20834408664771]}}, {"type": "Feature", "properties": {"point_type": "turbine", "turbinemod": "SWT-7.0-154", "oem": "Siemens", "foundation": "Jacket", "water_dept": -53, "turbine_mw": 7, "distance_to_shore": 19897, "tippecanoe_feature_density": 0}, "geometry": {"type": "Point", "coordinates": [-2.8070068359375, 58.31237445091298]}}, {"type": "Feature", "properties": {"point_type": "turbine", "turbinemod": "SWT-7.0-154", "oem": "Siemens", "foundation": "Jacket", "water_dept": -52, "turbine_mw": 7, "distance_to_shore": 20154, "tippecanoe_feature_density": 0}, "geometry": {"type": "Point", "coordinates": [-2.80975341796875, 58.30227378512558]}}, {"type": "Feature", "properties": {"point_type": "turbine", "turbinemod": "SWT-7.0-154", "oem": "Siemens", "foundation": "Jacket", "water_dept": -50, "turbine_mw": 7, "distance_to_shore": 21272, "tippecanoe_feature_density": 0}, "geometry": {"type": "Point", "coordinates": [-2.7960205078125, 58.29505725804833]}}, {"type": "Feature", "properties": {"point_type": "turbine", "turbinemod": "SWT-7.0-154", "oem": "Siemens", "foundation": "Jacket", "water_dept": -50, "turbine_mw": 7, "distance_to_shore": 22133, "tippecanoe_feature_density": 1}, "geometry": {"type": "Point", "coordinates": [-2.77679443359375, 58.29938735088811]}}, {"type": "Feature", "properties": {"point_type": "turbine", "turbinemod": "SWT-7.0-154", "oem": "Siemens", "foundation": "Jacket", "water_dept": -49, "turbine_mw": 7, "distance_to_shore": 22392, "tippecanoe_feature_density": 1}, "geometry": {"type": "Point", "coordinates": [-2.779541015625, 58.289282976763644]}}, {"type": "Feature", "properties": {"point_type": "turbine", "turbinemod": "SWT-7.0-154", "oem": "Siemens", "foundation": "Jacket", "water_dept": -49, "turbine_mw": 7, "distance_to_shore": 21559, "tippecanoe_feature_density": 2}, "geometry": {"type": "Point", "coordinates": [-2.79876708984375, 58.28495164762444]}}, {"type": "Feature", "properties": {"point_type": "turbine", "turbinemod": "SWT-7.0-154", "oem": "Siemens", "foundation": "Jacket", "water_dept": -48, "turbine_mw": 7, "distance_to_shore": 21907, "tippecanoe_feature_density": 2}, "geometry": {"type": "Point", "coordinates": [-2.801513671875, 58.27484315213823]}}, {"type": "Feature", "properties": {"point_type": "turbine", "turbinemod": "SWT-7.0-154", "oem": "Siemens", "foundation": "Jacket", "water_dept": -45, "turbine_mw": 7, "distance_to_shore": 22310, "tippecanoe_feature_density": 4}, "geometry": {"type": "Point", "coordinates": [-2.80426025390625, 58.26473177108073]}}, {"type": "Feature", "properties": {"point_type": "turbine", "turbinemod": "SWT-7.0-154", "oem": "Siemens", "foundation": "Jacket", "water_dept": -56, "turbine_mw": 7, "distance_to_shore": 15791, "tippecanoe_feature_density": 0}, "geometry": {"type": "Point", "coordinates": [-2.900390625, 58.29433552439957]}}, {"type": "Feature", "properties": {"point_type": "turbine", "turbinemod": "SWT-7.0-154", "oem": "Siemens", "foundation": "Jacket", "water_dept": -46, "turbine_mw": 7, "distance_to_shore": 16150, "tippecanoe_feature_density": 0}, "geometry": {"type": "Point", "coordinates": [-2.926483154296875, 58.270510056478514]}}, {"type": "Feature", "properties": {"point_type": "turbine", "turbinemod": "SWT-7.0-154", "oem": "Siemens", "foundation": "Jacket", "water_dept": -47, "turbine_mw": 7, "distance_to_shore": 16261, "tippecanoe_feature_density": 0}, "geometry": {"type": "Point", "coordinates": [-2.904510498046875, 58.284229707916694]}}, {"type": "Feature", "properties": {"point_type": "turbine", "turbinemod": "SWT-7.0-154", "oem": "Siemens", "foundation": "Jacket", "water_dept": -46, "turbine_mw": 7, "distance_to_shore": 16788, "tippecanoe_feature_density": 0}, "geometry": {"type": "Point", "coordinates": [-2.907257080078125, 58.27412100633509]}}, {"type": "Feature", "properties": {"point_type": "turbine", "turbinemod": "SWT-7.0-154", "oem": "Siemens", "foundation": "Jacket", "water_dept": -53, "turbine_mw": 7, "distance_to_shore": 17919, "tippecanoe_feature_density": 0}, "geometry": {"type": "Point", "coordinates": [-2.841339111328125, 58.3159811326739]}}, {"type": "Feature", "properties": {"point_type": "turbine", "turbinemod": "SWT-7.0-154", "oem": "Siemens", "foundation": "Jacket", "water_dept": -54, "turbine_mw": 7, "distance_to_shore": 18779, "tippecanoe_feature_density": 0}, "geometry": {"type": "Point", "coordinates": [-2.822113037109375, 58.31958744664172]}}, {"type": "Feature", "properties": {"point_type": "turbine", "turbinemod": "SWT-7.0-154", "oem": "Siemens", "foundation": "Jacket", "water_dept": -48, "turbine_mw": 7, "distance_to_shore": 16951, "tippecanoe_feature_density": 0}, "geometry": {"type": "Point", "coordinates": [-2.885284423828125, 58.28783925926027]}}, {"type": "Feature", "properties": {"point_type": "turbine", "turbinemod": "SWT-7.0-154", "oem": "Siemens", "foundation": "Jacket", "water_dept": -57, "turbine_mw": 7, "distance_to_shore": 16205, "tippecanoe_feature_density": 0}, "geometry": {"type": "Point", "coordinates": [-2.87841796875, 58.308767401335786]}}, {"type": "Feature", "properties": {"point_type": "turbine", "turbinemod": "SWT-7.0-154", "oem": "Siemens", "foundation": "Jacket", "water_dept": -50, "turbine_mw": 7, "distance_to_shore": 17338, "tippecanoe_feature_density": 0}, "geometry": {"type": "Point", "coordinates": [-2.863311767578125, 58.30155219863954]}}, {"type": "Feature", "properties": {"point_type": "turbine", "turbinemod": "SWT-7.0-154", "oem": "Siemens", "foundation": "Jacket", "water_dept": -50, "turbine_mw": 7, "distance_to_shore": 17691, "tippecanoe_feature_density": 0}, "geometry": {"type": "Point", "coordinates": [-2.866058349609375, 58.29144844262973]}}, {"type": "Feature", "properties": {"point_type": "turbine", "turbinemod": "SWT-7.0-154", "oem": "Siemens", "foundation": "Jacket", "water_dept": -47, "turbine_mw": 7, "distance_to_shore": 17958, "tippecanoe_feature_density": 0}, "geometry": {"type": "Point", "coordinates": [-2.89215087890625, 58.266898738536526]}}, {"type": "Feature", "properties": {"point_type": "turbine", "turbinemod": "SWT-7.0-154", "oem": "Siemens", "foundation": "Jacket", "water_dept": -50, "turbine_mw": 7, "distance_to_shore": 18112, "tippecanoe_feature_density": 0}, "geometry": {"type": "Point", "coordinates": [-2.87017822265625, 58.28134180188488]}}, {"type": "Feature", "properties": {"point_type": "turbine", "turbinemod": "SWT-7.0-154", "oem": "Siemens", "foundation": "Jacket", "water_dept": -45, "turbine_mw": 7, "distance_to_shore": 19766, "tippecanoe_feature_density": 0}, "geometry": {"type": "Point", "coordinates": [-2.857818603515625, 58.264009419145935]}}, {"type": "Feature", "properties": {"point_type": "turbine", "turbinemod": "SWT-7.0-154", "oem": "Siemens", "foundation": "Jacket", "water_dept": -52, "turbine_mw": 7, "distance_to_shore": 18175, "tippecanoe_feature_density": 0}, "geometry": {"type": "Point", "coordinates": [-2.844085693359375, 58.305159983919054]}}, {"type": "Feature", "properties": {"point_type": "turbine", "turbinemod": "SWT-7.0-154", "oem": "Siemens", "foundation": "Jacket", "water_dept": -51, "turbine_mw": 7, "distance_to_shore": 19036, "tippecanoe_feature_density": 0}, "geometry": {"type": "Point", "coordinates": [-2.824859619140625, 58.308767401335786]}}, {"type": "Feature", "properties": {"point_type": "turbine", "turbinemod": "SWT-7.0-154", "oem": "Siemens", "foundation": "Jacket", "water_dept": -50, "turbine_mw": 7, "distance_to_shore": 19298, "tippecanoe_feature_density": 0}, "geometry": {"type": "Point", "coordinates": [-2.8289794921875, 58.29866570553921]}}, {"type": "Feature", "properties": {"point_type": "turbine", "turbinemod": "SWT-7.0-154", "oem": "Siemens", "foundation": "Jacket", "water_dept": -49, "turbine_mw": 7, "distance_to_shore": 19616, "tippecanoe_feature_density": 0}, "geometry": {"type": "Point", "coordinates": [-2.833099365234375, 58.28856112537133]}}, {"type": "Feature", "properties": {"point_type": "turbine", "turbinemod": "SWT-7.0-154", "oem": "Siemens", "foundation": "Jacket", "water_dept": -51, "turbine_mw": 7, "distance_to_shore": 20427, "tippecanoe_feature_density": 0}, "geometry": {"type": "Point", "coordinates": [-2.813873291015625, 58.29144844262973]}}, {"type": "Feature", "properties": {"point_type": "turbine", "turbinemod": "SWT-7.0-154", "oem": "Siemens", "foundation": "Jacket", "water_dept": -47, "turbine_mw": 7, "distance_to_shore": 19996, "tippecanoe_feature_density": 0}, "geometry": {"type": "Point", "coordinates": [-2.835845947265625, 58.277731588129484]}}, {"type": "Feature", "properties": {"point_type": "turbine", "turbinemod": "SWT-7.0-154", "oem": "Siemens", "foundation": "Jacket", "water_dept": -48, "turbine_mw": 7, "distance_to_shore": 19274, "tippecanoe_feature_density": 0}, "geometry": {"type": "Point", "coordinates": [-2.855072021484375, 58.27412100633509]}}, {"type": "Feature", "properties": {"point_type": "turbine", "turbinemod": "SWT-7.0-154", "oem": "Siemens", "foundation": "Jacket", "water_dept": -49, "turbine_mw": 7, "distance_to_shore": 20760, "tippecanoe_feature_density": 1}, "geometry": {"type": "Point", "coordinates": [-2.816619873046875, 58.28134180188488]}}, {"type": "Feature", "properties": {"point_type": "turbine", "turbinemod": "SWT-7.0-154", "oem": "Siemens", "foundation": "Jacket", "water_dept": -48, "turbine_mw": 7, "distance_to_shore": 21152, "tippecanoe_feature_density": 0}, "geometry": {"type": "Point", "coordinates": [-2.82073974609375, 58.271232275895926]}}, {"type": "Feature", "properties": {"point_type": "turbine", "turbinemod": "SWT-7.0-154", "oem": "Siemens", "foundation": "Jacket", "water_dept": -49, "turbine_mw": 7, "distance_to_shore": 16917, "tippecanoe_feature_density": 0}, "geometry": {"type": "Point", "coordinates": [-2.999267578125, 58.20762058560021]}}, {"type": "Feature", "properties": {"point_type": "turbine", "turbinemod": "SWT-7.0-154", "oem": "Siemens", "foundation": "Jacket", "water_dept": -49, "turbine_mw": 7, "distance_to_shore": 16044, "tippecanoe_feature_density": 0}, "geometry": {"type": "Point", "coordinates": [-2.948455810546875, 58.256062575966666]}}, {"type": "Feature", "properties": {"point_type": "turbine", "turbinemod": "SWT-7.0-154", "oem": "Siemens", "foundation": "Jacket", "water_dept": -49, "turbine_mw": 7, "distance_to_shore": 16468, "tippecanoe_feature_density": 0}, "geometry": {"type": "Point", "coordinates": [-2.97454833984375, 58.232211353552344]}}, {"type": "Feature", "properties": {"point_type": "turbine", "turbinemod": "SWT-7.0-154", "oem": "Siemens", "foundation": "Jacket", "water_dept": -48, "turbine_mw": 7, "distance_to_shore": 16999, "tippecanoe_feature_density": 0}, "geometry": {"type": "Point", "coordinates": [-2.977294921875, 58.222087806286254]}}, {"type": "Feature", "properties": {"point_type": "turbine", "turbinemod": "SWT-7.0-154", "oem": "Siemens", "foundation": "Jacket", "water_dept": -41, "turbine_mw": 7, "distance_to_shore": 17636, "tippecanoe_feature_density": 0}, "geometry": {"type": "Point", "coordinates": [-2.959442138671875, 58.22570369041097]}}, {"type": "Feature", "properties": {"point_type": "turbine", "turbinemod": "SWT-7.0-154", "oem": "Siemens", "foundation": "Jacket", "water_dept": -44, "turbine_mw": 7, "distance_to_shore": 16682, "tippecanoe_feature_density": 0}, "geometry": {"type": "Point", "coordinates": [-2.929229736328125, 58.25967499830378]}}, {"type": "Feature", "properties": {"point_type": "turbine", "turbinemod": "SWT-7.0-154", "oem": "Siemens", "foundation": "Jacket", "water_dept": -43, "turbine_mw": 7, "distance_to_shore": 17213, "tippecanoe_feature_density": 0}, "geometry": {"type": "Point", "coordinates": [-2.933349609375, 58.249559287935654]}}, {"type": "Feature", "properties": {"point_type": "turbine", "turbinemod": "SWT-7.0-154", "oem": "Siemens", "foundation": "Jacket", "water_dept": -44, "turbine_mw": 7, "distance_to_shore": 18382, "tippecanoe_feature_density": 0}, "geometry": {"type": "Point", "coordinates": [-2.918243408203125, 58.24305480687269]}}, {"type": "Feature", "properties": {"point_type": "turbine", "turbinemod": "SWT-7.0-154", "oem": "Siemens", "foundation": "Jacket", "water_dept": -43, "turbine_mw": 7, "distance_to_shore": 17744, "tippecanoe_feature_density": 0}, "geometry": {"type": "Point", "coordinates": [-2.93609619140625, 58.23944069072485]}}, {"type": "Feature", "properties": {"point_type": "turbine", "turbinemod": "SWT-7.0-154", "oem": "Siemens", "foundation": "Jacket", "water_dept": -41, "turbine_mw": 7, "distance_to_shore": 18275, "tippecanoe_feature_density": 0}, "geometry": {"type": "Point", "coordinates": [-2.940216064453125, 58.22859613248144]}}, {"type": "Feature", "properties": {"point_type": "turbine", "turbinemod": "SWT-7.0-154", "oem": "Siemens", "foundation": "Jacket", "water_dept": -41, "turbine_mw": 7, "distance_to_shore": 19444, "tippecanoe_feature_density": 0}, "geometry": {"type": "Point", "coordinates": [-2.92510986328125, 58.222087806286254]}}, {"type": "Feature", "properties": {"point_type": "turbine", "turbinemod": "SWT-7.0-154", "oem": "Siemens", "foundation": "Jacket", "water_dept": -41, "turbine_mw": 7, "distance_to_shore": 18913, "tippecanoe_feature_density": 1}, "geometry": {"type": "Point", "coordinates": [-2.920989990234375, 58.232211353552344]}}, {"type": "Feature", "properties": {"point_type": "turbine", "turbinemod": "SWT-7.0-154", "oem": "Siemens", "foundation": "Jacket", "water_dept": -40, "turbine_mw": 7, "distance_to_shore": 17529, "tippecanoe_feature_density": 0}, "geometry": {"type": "Point", "coordinates": [-2.981414794921875, 58.211237943446065]}}, {"type": "Feature", "properties": {"point_type": "turbine", "turbinemod": "SWT-7.0-154", "oem": "Siemens", "foundation": "Jacket", "water_dept": -40, "turbine_mw": 7, "distance_to_shore": 18168, "tippecanoe_feature_density": 0}, "geometry": {"type": "Point", "coordinates": [-2.962188720703125, 58.21485493282694]}}, {"type": "Feature", "properties": {"point_type": "turbine", "turbinemod": "SWT-7.0-154", "oem": "Siemens", "foundation": "Jacket", "water_dept": -37, "turbine_mw": 7, "distance_to_shore": 18678, "tippecanoe_feature_density": 1}, "geometry": {"type": "Point", "coordinates": [-2.96630859375, 58.20472643401325]}}, {"type": "Feature", "properties": {"point_type": "turbine", "turbinemod": "SWT-7.0-154", "oem": "Siemens", "foundation": "Jacket", "water_dept": -39, "turbine_mw": 7, "distance_to_shore": 19976, "tippecanoe_feature_density": 0}, "geometry": {"type": "Point", "coordinates": [-2.9278564453125, 58.21196137079869]}}, {"type": "Feature", "properties": {"point_type": "turbine", "turbinemod": "SWT-7.0-154", "oem": "Siemens", "foundation": "Jacket", "water_dept": -39, "turbine_mw": 7, "distance_to_shore": 20507, "tippecanoe_feature_density": 0}, "geometry": {"type": "Point", "coordinates": [-2.931976318359375, 58.2011084128722]}}, {"type": "Feature", "properties": {"point_type": "turbine", "turbinemod": "SWT-7.0-154", "oem": "Siemens", "foundation": "Jacket", "water_dept": -40, "turbine_mw": 7, "distance_to_shore": 20612, "tippecanoe_feature_density": 0}, "geometry": {"type": "Point", "coordinates": [-2.910003662109375, 58.215578286489375]}}, {"type": "Feature", "properties": {"point_type": "turbine", "turbinemod": "SWT-7.0-154", "oem": "Siemens", "foundation": "Jacket", "water_dept": -39, "turbine_mw": 7, "distance_to_shore": 21144, "tippecanoe_feature_density": 0}, "geometry": {"type": "Point", "coordinates": [-2.912750244140625, 58.20472643401325]}}, {"type": "Feature", "properties": {"point_type": "turbine", "turbinemod": "SWT-7.0-154", "oem": "Siemens", "foundation": "Jacket", "water_dept": -39, "turbine_mw": 7, "distance_to_shore": 21676, "tippecanoe_feature_density": 1}, "geometry": {"type": "Point", "coordinates": [-2.9168701171875, 58.19459504610802]}}, {"type": "Feature", "properties": {"point_type": "turbine", "turbinemod": "SWT-7.0-154", "oem": "Siemens", "foundation": "Jacket", "water_dept": -38, "turbine_mw": 7, "distance_to_shore": 21038, "tippecanoe_feature_density": 1}, "geometry": {"type": "Point", "coordinates": [-2.934722900390625, 58.19097599302563]}}, {"type": "Feature", "properties": {"point_type": "turbine", "turbinemod": "SWT-7.0-154", "oem": "Siemens", "foundation": "Jacket", "water_dept": -38, "turbine_mw": 7, "distance_to_shore": 21600, "tippecanoe_feature_density": 0}, "geometry": {"type": "Point", "coordinates": [-2.937469482421875, 58.18156472993218]}}, {"type": "Feature", "properties": {"point_type": "turbine", "turbinemod": "SWT-7.0-154", "oem": "Siemens", "foundation": "Jacket", "water_dept": -46, "turbine_mw": 7, "distance_to_shore": 19127, "tippecanoe_feature_density": 0}, "geometry": {"type": "Point", "coordinates": [-2.877044677734375, 58.260397438591895]}}, {"type": "Feature", "properties": {"point_type": "turbine", "turbinemod": "SWT-7.0-154", "oem": "Siemens", "foundation": "Jacket", "water_dept": -41, "turbine_mw": 7, "distance_to_shore": 20296, "tippecanoe_feature_density": 0}, "geometry": {"type": "Point", "coordinates": [-2.8619384765625, 58.25389494584044]}}, {"type": "Feature", "properties": {"point_type": "turbine", "turbinemod": "SWT-7.0-154", "oem": "Siemens", "foundation": "Jacket", "water_dept": -40, "turbine_mw": 7, "distance_to_shore": 20189, "tippecanoe_feature_density": 0}, "geometry": {"type": "Point", "coordinates": [-2.8839111328125, 58.23944069072485]}}, {"type": "Feature", "properties": {"point_type": "turbine", "turbinemod": "SWT-7.0-154", "oem": "Siemens", "foundation": "Jacket", "water_dept": -39, "turbine_mw": 7, "distance_to_shore": 20721, "tippecanoe_feature_density": 0}, "geometry": {"type": "Point", "coordinates": [-2.888031005859375, 58.22931920616321]}}, {"type": "Feature", "properties": {"point_type": "turbine", "turbinemod": "SWT-7.0-154", "oem": "Siemens", "foundation": "Jacket", "water_dept": -39, "turbine_mw": 7, "distance_to_shore": 21251, "tippecanoe_feature_density": 0}, "geometry": {"type": "Point", "coordinates": [-2.890777587890625, 58.21919483374279]}}, {"type": "Feature", "properties": {"point_type": "turbine", "turbinemod": "SWT-7.0-154", "oem": "Siemens", "foundation": "Jacket", "water_dept": -41, "turbine_mw": 7, "distance_to_shore": 21358, "tippecanoe_feature_density": 0}, "geometry": {"type": "Point", "coordinates": [-2.868804931640625, 58.232934353566094]}}, {"type": "Feature", "properties": {"point_type": "turbine", "turbinemod": "SWT-7.0-154", "oem": "Siemens", "foundation": "Jacket", "water_dept": -39, "turbine_mw": 7, "distance_to_shore": 21890, "tippecanoe_feature_density": 0}, "geometry": {"type": "Point", "coordinates": [-2.871551513671875, 58.2228110125821]}}, {"type": "Feature", "properties": {"point_type": "turbine", "turbinemod": "SWT-7.0-154", "oem": "Siemens", "foundation": "Jacket", "water_dept": -40, "turbine_mw": 7, "distance_to_shore": 21466, "tippecanoe_feature_density": 0}, "geometry": {"type": "Point", "coordinates": [-2.846832275390625, 58.24666855475914]}}, {"type": "Feature", "properties": {"point_type": "turbine", "turbinemod": "SWT-7.0-154", "oem": "Siemens", "foundation": "Jacket", "water_dept": -44, "turbine_mw": 7, "distance_to_shore": 21601, "tippecanoe_feature_density": 0}, "geometry": {"type": "Point", "coordinates": [-2.824859619140625, 58.260397438591895]}}, {"type": "Feature", "properties": {"point_type": "turbine", "turbinemod": "SWT-7.0-154", "oem": "Siemens", "foundation": "Jacket", "water_dept": -43, "turbine_mw": 7, "distance_to_shore": 22104, "tippecanoe_feature_density": 0}, "geometry": {"type": "Point", "coordinates": [-2.827606201171875, 58.250281934407326]}}, {"type": "Feature", "properties": {"point_type": "turbine", "turbinemod": "SWT-7.0-154", "oem": "Siemens", "foundation": "Jacket", "water_dept": -41, "turbine_mw": 7, "distance_to_shore": 21996, "tippecanoe_feature_density": 0}, "geometry": {"type": "Point", "coordinates": [-2.849578857421875, 58.23654913264278]}}, {"type": "Feature", "properties": {"point_type": "turbine", "turbinemod": "SWT-7.0-154", "oem": "Siemens", "foundation": "Jacket", "water_dept": -39, "turbine_mw": 7, "distance_to_shore": 21715, "tippecanoe_feature_density": 1}, "geometry": {"type": "Point", "coordinates": [-2.8948974609375, 58.20906757295586]}}, {"type": "Feature", "properties": {"point_type": "turbine", "turbinemod": "SWT-7.0-154", "oem": "Siemens", "foundation": "Jacket", "water_dept": -50, "turbine_mw": 7, "distance_to_shore": 21272, "tippecanoe_feature_density": 0}, "geometry": {"type": "Point", "coordinates": [-2.794647216796875, 58.29505725804833]}}, {"type": "Feature", "properties": {"point_type": "turbine", "turbinemod": "SWT-7.0-154", "oem": "Siemens", "foundation": "Jacket", "water_dept": -50, "turbine_mw": 7, "distance_to_shore": 22133, "tippecanoe_feature_density": 0}, "geometry": {"type": "Point", "coordinates": [-2.775421142578125, 58.29866570553921]}}, {"type": "Feature", "properties": {"point_type": "turbine", "turbinemod": "SWT-7.0-154", "oem": "Siemens", "foundation": "Jacket", "water_dept": -49, "turbine_mw": 7, "distance_to_shore": 22392, "tippecanoe_feature_density": 0}, "geometry": {"type": "Point", "coordinates": [-2.779541015625, 58.28856112537133]}}, {"type": "Feature", "properties": {"point_type": "turbine", "turbinemod": "SWT-7.0-154", "oem": "Siemens", "foundation": "Jacket", "water_dept": -45, "turbine_mw": 7, "distance_to_shore": 22310, "tippecanoe_feature_density": 1}, "geometry": {"type": "Point", "coordinates": [-2.805633544921875, 58.264009419145935]}}]}