{"type": "FeatureCollection", "features": [{"type": "Feature", "properties": {"wf_id": "SFW_USA", "lenght_m": 1766, "tippecanoe_feature_density": 0}, "geometry": {"type": "MultiLineString", "coordinates": [[[-71.19003295898438, 41.108847360577926], [-71.1800765991211, 41.108588679462684], [-71.1690902709961, 41.10910604067402]], [[-71.19037628173828, 41.09203096833332], [-71.1910629272461, 41.09668824649293], [-71.18865966796875, 41.10522573222343], [-71.19003295898438, 41.108847360577926]], [[-71.19003295898438, 41.075469083140405], [-71.19071960449219, 41.07909235218], [-71.18900299072266, 41.08323298652331], [-71.18865966796875, 41.08789088834058], [-71.19037628173828, 41.09203096833332]], [[-71.1690902709961, 41.10910604067402], [-71.16668701171875, 41.10393224511691], [-71.16565704345703, 41.09539459123508], [-71.16771697998047, 41.09203096833332]], [[-71.1471176147461, 41.109623397808775], [-71.1587905883789, 41.10807131417479], [-71.1690902709961, 41.10910604067402]], [[-71.16771697998047, 41.09203096833332], [-71.16634368896484, 41.08892593279589], [-71.16806030273438, 41.07598670523103]], [[-71.16806030273438, 41.07598670523103], [-71.15055084228516, 41.0767631307246], [-71.14574432373047, 41.07624551474785]], [[-71.12480163574219, 41.10936471975097], [-71.12308502197266, 41.10522573222343], [-71.12136840820312, 41.09668824649293], [-71.12342834472656, 41.093324689830695]], [[-71.12342834472656, 41.093324689830695], [-71.12274169921875, 41.08944344890929], [-71.12480163574219, 41.08530320586985], [-71.12480163574219, 41.08090391180386], [-71.12377166748047, 41.0767631307246]], [[-71.14574432373047, 41.07624551474785], [-71.12377166748047, 41.0767631307246]], [[-71.12377166748047, 41.0767631307246], [-71.1196517944336, 41.0783159541991], [-71.11896514892578, 41.08193906631371], [-71.11759185791016, 41.084009326420926], [-71.11553192138672, 41.08685582758068], [-71.10797882080078, 41.09358343107297], [-71.10248565673828, 41.09384217129622]], [[-71.10248565673828, 41.09384217129622], [-71.10523223876953, 41.09073722135943], [-71.10523223876953, 41.08944344890929], [-71.10420227050781, 41.082715421496545], [-71.10179901123047, 41.07753954704728]]]}}]}