{"type": "FeatureCollection", "features": [{"type": "Feature", "properties": {"wf_develop": "SSE Renewables", "turbine_mo": "SWT-7.0-154", "fou_type": "Jacket", "wtg_hubhei": 110, "wtg_oem": "Siemens Gamesa", "cod": "2019-06-01T00:00:00", "wf_name": "Beatrice", "status": "Fully Commissioned", "no_turbine": 84, "country": "United Kingdom", "capacity_m": 588, "wf_owners": "SSE Renewables/Copenhagen Infrastructure Partners/\nRed Rock Power Limited", "tippecanoe_feature_density": 0}, "geometry": {"type": "Polygon", "coordinates": [[[-2.83721923828125, 58.32752004285362], [-2.779541015625, 58.31237445091298], [-2.7520751953125, 58.30010898152102], [-2.7525241858594605, 58.29959965421921], [-2.7520751953125, 58.29938735088811], [-2.7607702813588597, 58.29024542259977], [-2.7607702813588633, 58.29024542259976], [-2.778167724609375, 58.270510056478514], [-2.80426025390625, 58.250281934407326], [-2.84820556640625, 58.2228110125821], [-2.88665771484375, 58.204002859266296], [-2.9168701171875, 58.18228876171895], [-2.948455810546875, 58.16418354277212], [-2.949680920643337, 58.16499963337169], [-2.9498291015625, 58.16490792851806], [-2.9549763512432734, 58.16852711318415], [-2.97454833984375, 58.18156472993218], [-2.9743315081402555, 58.18213630088548], [-2.97454833984375, 58.18228876171895], [-2.977294921875, 58.18663264278018], [-2.9831804684992504, 58.18766681832516], [-2.98553466796875, 58.187356571348914], [-2.9955715848617377, 58.19125456885334], [-2.9955715848617492, 58.191254568853346], [-3.01300048828125, 58.19676630104175], [-3.0018329979820653, 58.208821112576004], [-3.000640869140625, 58.21196137079869], [-2.98553466796875, 58.22859613248144], [-2.95806884765625, 58.256785089887615], [-2.9521740049578225, 58.260712711839744], [-2.9521740049578002, 58.26071271183976], [-2.924722440902861, 58.282367827898774], [-2.91961669921875, 58.287117378430224], [-2.919359136264936, 58.28829045869409], [-2.9168701171875, 58.30660299502796], [-2.88116455078125, 58.322472233020534], [-2.8770816789156153, 58.3232518315187], [-2.867431640625, 58.32679897129091], [-2.849578857421875, 58.32896214185294], [-2.83721923828125, 58.32752004285362]]]}}]}