{"type": "FeatureCollection", "features": [{"type": "Feature", "properties": {"wf_develop": "Thistle Wind Partners", "turbine_mo": "TBA", "fou_type": "Jacket", "cod": "2033-12-31T00:00:00", "wf_name": "Bowdun", "status": "Early Planning", "no_turbine": 60, "country": "United Kingdom", "capacity_m": 1000, "wf_owners": "DEME Concessions, Qair Marine, Aspiravi International", "tippecanoe_feature_density": 0}, "geometry": {"type": "Polygon", "coordinates": [[[-1.325225830078125, 56.900753818406315], [-1.462554931640625, 56.91499999445841], [-1.443328857421875, 56.94871926104412], [-1.49139404296875, 56.95995224466898], [-1.4556884765625, 57.00185881350677], [-1.369479510334684, 57.00835905320281], [-1.43096923828125, 57.027279082638756], [-1.39801025390625, 57.06164356014236], [-1.3006222692846665, 57.03154342642002], [-1.3006222692845208, 57.03154342641998], [-1.174163818359375, 56.99288280463398], [-1.3098084471257305, 56.91015649910364], [-1.3238525390625, 56.90150375265813], [-1.3239762441394975, 56.90151590997666], [-1.325225830078125, 56.900753818406315]]]}}]}