{"type": "FeatureCollection", "features": [{"type": "Feature", "properties": {"wf_develop": "Bluefloat Energy", "turbine_mo": "TBA", "fou_type": "Floating", "cod": "2032-12-31T00:00:00", "wf_name": "Broadshore", "status": "Early Planning", "country": "United Kingdom", "capacity_m": 1200, "wf_owners": "Bluefloat Energy, Renantis", "tippecanoe_feature_density": 0}, "geometry": {"type": "Polygon", "coordinates": [[[-1.6541529303261397, 58.168120608404045], [-1.6534423828125, 58.16780532399957], [-1.7138671875, 58.13302099917689], [-1.834716796875, 58.11416529348452], [-1.89788818359375, 58.12286916680466], [-1.8978358511130442, 58.12358658236848], [-1.89788818359375, 58.12359439362967], [-1.891021728515625, 58.235826206292444], [-1.8883208962492855, 58.23585030407481], [-1.888320896249179, 58.23585030407481], [-1.80999755859375, 58.23727204426103], [-1.7317957144702076, 58.202572293182534], [-1.6534423828125, 58.16852963599527], [-1.6541529303261397, 58.168120608404045]]]}}]}