{"type": "FeatureCollection", "features": [{"type": "Feature", "properties": {"wf_develop": "BayWa r.e., Elicio, BW Ideol", "turbine_mo": "TBA", "fou_type": "Floating", "cod": "2033-12-31T00:00:00", "wf_name": "Buchan Offshore Wind", "status": "Early Planning", "country": "United Kingdom", "capacity_m": 960, "wf_owners": "Shell/ScottishPower", "tippecanoe_feature_density": 0}, "geometry": {"type": "Polygon", "coordinates": [[[-1.06292724609375, 58.54389490229886], [-1.0633849957265755, 58.54365602296847], [-1.064300537109375, 58.54174490040876], [-1.2469482421875, 58.24160920460622], [-1.3677978515625, 58.285673572612495], [-1.367703310637017, 58.28636044647323], [-1.3677978515625, 58.286395482881034], [-1.3664071340129755, 58.295777636302915], [-1.349945068359375, 58.415380470032005], [-1.22222900390625, 58.549627595973305], [-1.06292724609375, 58.54461154029016], [-1.0632647400518749, 58.54390704748486], [-1.06292724609375, 58.54389490229886]]]}}]}