{"type": "FeatureCollection", "features": [{"type": "Feature", "properties": {"wf_develop": "Flotation Energy", "turbine_mo": "TBA", "fou_type": "Floating", "cod": "2029-12-31T00:00:00", "wf_name": "Green Volt", "status": "Consent Authorised", "no_turbine": 35, "country": "United Kingdom", "capacity_m": 560, "wf_owners": "Flotation Energy, TEPCO Renewable Power Inc, Eni SpA, HV Storm Holding, Vargronn", "tippecanoe_feature_density": 0}, "geometry": {"type": "Polygon", "coordinates": [[[-0.7676958748718374, 57.940998358817794], [-0.767669677734375, 57.94109885157536], [-0.7269115599782878, 57.937955862421894], [-0.43670654296875, 57.91630666417919], [-0.4376561321975256, 57.91565044887121], [-0.43670654296875, 57.91557722300087], [-0.51910400390625, 57.85936575376533], [-0.59600830078125, 57.83305491291088], [-0.7415771484375, 57.80965135970152], [-0.7416500889585737, 57.80985846722197], [-0.742950439453125, 57.80965135970152], [-0.758056640625, 57.85571261963253], [-0.7690486554228102, 57.87470968717103], [-0.780029296875, 57.89295719812449], [-0.7799098412158402, 57.893480648077976], [-0.780029296875, 57.893687098602896], [-0.7786923352365936, 57.89881571091794], [-0.76904296875, 57.94109885157536], [-0.7676958748718374, 57.940998358817794]]]}}]}