{"type": "FeatureCollection", "features": [{"type": "Feature", "properties": {"wf_develop": "Harbour Energy", "turbine_mo": "TBA", "fou_type": "Floating", "wf_name": "Harbour Energy 1", "status": "Early Planning", "country": "United Kingdom", "capacity_m": 15, "wf_owners": "Harbour Energy, Chrysaor (U.K.) Britannia Limited", "tippecanoe_feature_density": 0}, "geometry": {"type": "Polygon", "coordinates": [[[1.26068115234375, 57.89003744801852], [1.270294189453125, 57.88565737826238], [1.2744140625, 57.881276774954756], [1.27716064453125, 57.87543514050745], [1.2744140625, 57.87032293213923], [1.267547607421875, 57.86594046109113], [1.26068115234375, 57.8630185172122], [1.248321533203125, 57.8622879941766], [1.23870849609375, 57.8630185172122], [1.229095458984375, 57.86667090999592], [1.223602294921875, 57.87178363722239], [1.22222900390625, 57.8776258645959], [1.2249755859375, 57.88200691255989], [1.2249755859375, 57.88273703534324], [1.2284085870029746, 57.884562018118736], [1.231842041015625, 57.88711746079599], [1.2359624158288152, 57.88857763222235], [1.23870849609375, 57.89003744801852], [1.240081787109375, 57.89003744801852], [1.251068115234375, 57.890767407774206], [1.26068115234375, 57.89003744801852]]]}}]}