{"type": "FeatureCollection", "features": [{"type": "Feature", "properties": {"wf_develop": "Equinor", "turbine_mo": "SWT-6.0-154", "fou_type": "Floating: Spar Floater", "wtg_oem": "Siemens Gamesa", "cod": "2017-10-01T00:00:00", "wf_name": "Hywind Scotland", "status": "Fully Commissioned", "no_turbine": 5, "country": "United Kingdom", "capacity_m": 30, "wf_owners": "Equinor ASA/Masdar", "tippecanoe_feature_density": 0}, "geometry": {"type": "Polygon", "coordinates": [[[-1.318359375, 57.48926096549765], [-1.31011962890625, 57.48335627916629], [-1.3787841796875, 57.459726074627554], [-1.3791651750306586, 57.46006756305843], [-1.380157470703125, 57.459726074627554], [-1.396636962890625, 57.47449674316678], [-1.393890380859375, 57.49959318201405], [-1.3883970502243963, 57.50254457048475], [-1.38427734375, 57.50549572030721], [-1.3399901634485074, 57.49756396401945], [-1.325225830078125, 57.49516565182901], [-1.318359375, 57.48926096549765]]]}}]}