{"type": "FeatureCollection", "features": [{"type": "Feature", "properties": {"point_type": "substation", "distance_to_shore": 38043, "foundation": "Jacket", "item": "Substation", "seabed_soil": "Coarse-grained sediment", "sub_name": "IC-OSP", "water_dept": -48, "wf_name": "Inch Cape", "tippecanoe_feature_density": 0}, "geometry": {"type": "Point", "coordinates": [-2.2412109375, 56.47766184536229]}}, {"type": "Feature", "properties": {"point_type": "substation", "distance_to_shore": 38043, "foundation": "Jacket", "item": "Substation", "seabed_soil": "Coarse-grained sediment", "sub_name": "IC-OSP", "water_dept": -48, "wf_name": "Inch Cape", "tippecanoe_feature_density": 0}, "geometry": {"type": "Point", "coordinates": [-2.242584228515625, 56.47766184536229]}}]}