{"type": "FeatureCollection", "features": [{"type": "Feature", "properties": {"wf_develop": "Inch Cape Offshore Wind Farm", "turbine_mo": "V236-15.0", "fou_type": "Monopile", "wtg_oem": "Vestas", "cod": "2027-12-31T00:00:00", "wf_name": "Inch Cape", "status": "Under Construction", "no_turbine": 72, "country": "United Kingdom", "capacity_m": 1080, "wf_owners": "Red Rock Power", "tippecanoe_feature_density": 0}, "geometry": {"type": "Polygon", "coordinates": [[[-2.15606689453125, 56.58369172128337], [-2.164306640625, 56.47766184536229], [-2.04620361328125, 56.464007892857154], [-2.04620361328125, 56.46324919595233], [-2.044830322265625, 56.44807207450347], [-2.124481201171875, 56.422257049385536], [-2.228851318359375, 56.42301656505151], [-2.236457734424449, 56.430961358166996], [-2.2412109375, 56.43516675314612], [-2.240593039539294, 56.43528062539164], [-2.2412109375, 56.43592601100062], [-2.234344482421875, 56.43744448121822], [-2.23297119140625, 56.43858327701844], [-2.23297119140625, 56.44199952795202], [-2.2341483181436375, 56.44297553837754], [-2.2412109375, 56.4442768466229], [-2.2467041015625, 56.441240391403625], [-2.247141188726149, 56.441654395579036], [-2.248077392578125, 56.441240391403625], [-2.2714998415533048, 56.46472664481581], [-2.28515625, 56.47766184536229], [-2.28515625, 56.47842025430214], [-2.28515625, 56.5231395643722], [-2.2467041015625, 56.57764086466517], [-2.16705322265625, 56.59503446747246], [-2.15606689453125, 56.58369172128337]]]}}]}