{"type": "FeatureCollection", "features": [{"type": "Feature", "properties": {"point_type": "turbine", "turbinemod": "V164-9.5", "foundation": "Floating: Semi-Submersible Platform", "oem": "Vestas", "water_dept": -62, "item": "Anchor", "distance_to_shore": 26637}, "geometry": {"type": "Point", "coordinates": [-1.8896484375, 57.004850335344145]}}, {"type": "Feature", "properties": {"point_type": "turbine", "turbinemod": "V164-9.5", "foundation": "Floating: Semi-Submersible Platform", "oem": "Vestas", "water_dept": -66, "item": "Anchor", "distance_to_shore": 27816}, "geometry": {"type": "Point", "coordinates": [-1.86492919921875, 57.018309207073514]}}, {"type": "Feature", "properties": {"point_type": "turbine", "turbinemod": "V164-9.5", "foundation": "Floating: Semi-Submersible Platform", "oem": "Vestas", "water_dept": -65, "item": "WTG", "turbine_mw": 9.5, "distance_to_shore": 28640}, "geometry": {"type": "Point", "coordinates": [-1.85394287109375, 57.018309207073514]}}, {"type": "Feature", "properties": {"point_type": "turbine", "turbinemod": "V164-9.5", "foundation": "Floating: Semi-Submersible Platform", "oem": "Vestas", "water_dept": -68, "item": "Anchor", "distance_to_shore": 28636}, "geometry": {"type": "Point", "coordinates": [-1.8511962890625, 57.02279441538971]}}, {"type": "Feature", "properties": {"point_type": "turbine", "turbinemod": "V164-9.5", "foundation": "Floating: Semi-Submersible Platform", "oem": "Vestas", "water_dept": -62, "item": "WTG", "turbine_mw": 9.5, "distance_to_shore": 27463}, "geometry": {"type": "Point", "coordinates": [-1.88140869140625, 57.004850335344145]}}, {"type": "Feature", "properties": {"point_type": "turbine", "turbinemod": "V164-9.5", "foundation": "Floating: Semi-Submersible Platform", "oem": "Vestas", "water_dept": -62, "item": "Anchor", "distance_to_shore": 27481}, "geometry": {"type": "Point", "coordinates": [-1.87591552734375, 57.009337167088546]}}, {"type": "Feature", "properties": {"point_type": "turbine", "turbinemod": "V164-9.5", "foundation": "Floating: Semi-Submersible Platform", "oem": "Vestas", "water_dept": -63, "item": "Anchor", "distance_to_shore": 28166}, "geometry": {"type": "Point", "coordinates": [-1.88140869140625, 56.99737107971097]}}, {"type": "Feature", "properties": {"point_type": "turbine", "turbinemod": "V164-9.5", "foundation": "Floating: Semi-Submersible Platform", "oem": "Vestas", "water_dept": -65, "item": "Anchor", "distance_to_shore": 28414}, "geometry": {"type": "Point", "coordinates": [-1.87591552734375, 57.00036296238153]}}, {"type": "Feature", "properties": {"point_type": "turbine", "turbinemod": "V164-9.5", "foundation": "Floating: Semi-Submersible Platform", "oem": "Vestas", "water_dept": -69, "item": "Anchor", "distance_to_shore": 29008}, "geometry": {"type": "Point", "coordinates": [-1.87042236328125, 57.00036296238153]}}, {"type": "Feature", "properties": {"point_type": "turbine", "turbinemod": "V164-9.5", "foundation": "Floating: Semi-Submersible Platform", "oem": "Vestas", "water_dept": -65, "item": "WTG", "turbine_mw": 9.5, "distance_to_shore": 28990}, "geometry": {"type": "Point", "coordinates": [-1.8731689453125, 56.99737107971097]}}, {"type": "Feature", "properties": {"point_type": "turbine", "turbinemod": "V164-9.5", "foundation": "Floating: Semi-Submersible Platform", "oem": "Vestas", "water_dept": -66, "item": "Anchor", "distance_to_shore": 29600}, "geometry": {"type": "Point", "coordinates": [-1.8511962890625, 57.01382345765239]}}, {"type": "Feature", "properties": {"point_type": "turbine", "turbinemod": "V164-9.5", "foundation": "Floating: Semi-Submersible Platform", "oem": "Vestas", "water_dept": -67, "item": "Anchor", "distance_to_shore": 29314}, "geometry": {"type": "Point", "coordinates": [-1.856689453125, 57.010832657405786]}}, {"type": "Feature", "properties": {"point_type": "turbine", "turbinemod": "V164-9.5", "foundation": "Floating: Semi-Submersible Platform", "oem": "Vestas", "water_dept": -72, "item": "WTG", "turbine_mw": 9.5, "distance_to_shore": 30168}, "geometry": {"type": "Point", "coordinates": [-1.84844970703125, 57.010832657405786]}}, {"type": "Feature", "properties": {"point_type": "turbine", "turbinemod": "V164-9.5", "foundation": "Floating: Semi-Submersible Platform", "oem": "Vestas", "water_dept": -70, "item": "Anchor", "distance_to_shore": 30505}, "geometry": {"type": "Point", "coordinates": [-1.8621826171875, 56.99288280463398]}}, {"type": "Feature", "properties": {"point_type": "turbine", "turbinemod": "V164-9.5", "foundation": "Floating: Semi-Submersible Platform", "oem": "Vestas", "water_dept": -65, "item": "Anchor", "distance_to_shore": 29686}, "geometry": {"type": "Point", "coordinates": [-1.87591552734375, 56.98839398823807]}}, {"type": "Feature", "properties": {"point_type": "turbine", "turbinemod": "V164-9.5", "foundation": "Floating: Semi-Submersible Platform", "oem": "Vestas", "water_dept": -66, "item": "Anchor", "distance_to_shore": 29941}, "geometry": {"type": "Point", "coordinates": [-1.87042236328125, 56.99288280463398]}}, {"type": "Feature", "properties": {"point_type": "turbine", "turbinemod": "V164-9.5", "foundation": "Floating: Semi-Submersible Platform", "oem": "Vestas", "water_dept": -71, "item": "WTG", "turbine_mw": 9.5, "distance_to_shore": 30517}, "geometry": {"type": "Point", "coordinates": [-1.86492919921875, 56.989890320518924]}}, {"type": "Feature", "properties": {"point_type": "turbine", "turbinemod": "V164-9.5", "foundation": "Floating: Semi-Submersible Platform", "oem": "Vestas", "water_dept": -75, "item": "Anchor", "distance_to_shore": 31480}, "geometry": {"type": "Point", "coordinates": [-1.8621826171875, 56.98390463048551]}}, {"type": "Feature", "properties": {"point_type": "turbine", "turbinemod": "V164-9.5", "foundation": "Floating: Semi-Submersible Platform", "oem": "Vestas", "water_dept": -76, "item": "Anchor", "distance_to_shore": 30191}, "geometry": {"type": "Point", "coordinates": [-1.84295654296875, 57.01382345765239]}}, {"type": "Feature", "properties": {"point_type": "turbine", "turbinemod": "V164-9.5", "foundation": "Floating: Semi-Submersible Platform", "oem": "Vestas", "water_dept": -73, "item": "Anchor", "distance_to_shore": 31134}, "geometry": {"type": "Point", "coordinates": [-1.84295654296875, 57.004850335344145]}}, {"type": "Feature", "properties": {"point_type": "turbine", "turbinemod": "V164-9.5", "foundation": "Floating: Semi-Submersible Platform", "oem": "Vestas", "water_dept": -66, "item": "Anchor", "distance_to_shore": 27816}, "geometry": {"type": "Point", "coordinates": [-1.863555908203125, 57.018309207073514]}}, {"type": "Feature", "properties": {"point_type": "turbine", "turbinemod": "V164-9.5", "foundation": "Floating: Semi-Submersible Platform", "oem": "Vestas", "water_dept": -65, "item": "WTG", "turbine_mw": 9.5, "distance_to_shore": 28640}, "geometry": {"type": "Point", "coordinates": [-1.855316162109375, 57.018309207073514]}}, {"type": "Feature", "properties": {"point_type": "turbine", "turbinemod": "V164-9.5", "foundation": "Floating: Semi-Submersible Platform", "oem": "Vestas", "water_dept": -68, "item": "Anchor", "distance_to_shore": 28636}, "geometry": {"type": "Point", "coordinates": [-1.8511962890625, 57.02204691824548]}}, {"type": "Feature", "properties": {"point_type": "turbine", "turbinemod": "V164-9.5", "foundation": "Floating: Semi-Submersible Platform", "oem": "Vestas", "water_dept": -62, "item": "WTG", "turbine_mw": 9.5, "distance_to_shore": 27463}, "geometry": {"type": "Point", "coordinates": [-1.88140869140625, 57.00559817821846]}}, {"type": "Feature", "properties": {"point_type": "turbine", "turbinemod": "V164-9.5", "foundation": "Floating: Semi-Submersible Platform", "oem": "Vestas", "water_dept": -62, "item": "Anchor", "distance_to_shore": 27481}, "geometry": {"type": "Point", "coordinates": [-1.877288818359375, 57.009337167088546]}}, {"type": "Feature", "properties": {"point_type": "turbine", "turbinemod": "V164-9.5", "foundation": "Floating: Semi-Submersible Platform", "oem": "Vestas", "water_dept": -63, "item": "Anchor", "distance_to_shore": 28166}, "geometry": {"type": "Point", "coordinates": [-1.882781982421875, 56.99737107971097]}}, {"type": "Feature", "properties": {"point_type": "turbine", "turbinemod": "V164-9.5", "foundation": "Floating: Semi-Submersible Platform", "oem": "Vestas", "water_dept": -69, "item": "Anchor", "distance_to_shore": 29008}, "geometry": {"type": "Point", "coordinates": [-1.869049072265625, 57.001110895461494]}}, {"type": "Feature", "properties": {"point_type": "turbine", "turbinemod": "V164-9.5", "foundation": "Floating: Semi-Submersible Platform", "oem": "Vestas", "water_dept": -66, "item": "Anchor", "distance_to_shore": 29600}, "geometry": {"type": "Point", "coordinates": [-1.849822998046875, 57.01382345765239]}}, {"type": "Feature", "properties": {"point_type": "turbine", "turbinemod": "V164-9.5", "foundation": "Floating: Semi-Submersible Platform", "oem": "Vestas", "water_dept": -72, "item": "WTG", "turbine_mw": 9.5, "distance_to_shore": 30168}, "geometry": {"type": "Point", "coordinates": [-1.847076416015625, 57.010832657405786]}}, {"type": "Feature", "properties": {"point_type": "turbine", "turbinemod": "V164-9.5", "foundation": "Floating: Semi-Submersible Platform", "oem": "Vestas", "water_dept": -65, "item": "Anchor", "distance_to_shore": 29686}, "geometry": {"type": "Point", "coordinates": [-1.874542236328125, 56.98914216189726]}}, {"type": "Feature", "properties": {"point_type": "turbine", "turbinemod": "V164-9.5", "foundation": "Floating: Semi-Submersible Platform", "oem": "Vestas", "water_dept": -66, "item": "Anchor", "distance_to_shore": 29941}, "geometry": {"type": "Point", "coordinates": [-1.869049072265625, 56.99213470616061]}}, {"type": "Feature", "properties": {"point_type": "turbine", "turbinemod": "V164-9.5", "foundation": "Floating: Semi-Submersible Platform", "oem": "Vestas", "water_dept": -71, "item": "WTG", "turbine_mw": 9.5, "distance_to_shore": 30517}, "geometry": {"type": "Point", "coordinates": [-1.866302490234375, 56.98914216189726]}}, {"type": "Feature", "properties": {"point_type": "turbine", "turbinemod": "V164-9.5", "foundation": "Floating: Semi-Submersible Platform", "oem": "Vestas", "water_dept": -76, "item": "Anchor", "distance_to_shore": 30191}, "geometry": {"type": "Point", "coordinates": [-1.84295654296875, 57.01457112013426]}}, {"type": "Feature", "properties": {"point_type": "turbine", "turbinemod": "V164-9.5", "foundation": "Floating: Semi-Submersible Platform", "oem": "Vestas", "water_dept": -73, "item": "Anchor", "distance_to_shore": 31134}, "geometry": {"type": "Point", "coordinates": [-1.84295654296875, 57.00559817821846]}}]}