{"type": "FeatureCollection", "features": [{"type": "Feature", "properties": {"point_type": "turbine", "turbinemod": "MHI V164-9.5", "oem": "MHI Vestas", "foundation": "Jacket", "water_dept": -42, "turbine_mw": 9.5, "distance_to_shore": 24206, "tippecanoe_feature_density": 1}, "geometry": {"type": "Point", "coordinates": [-2.81524658203125, 58.22714994091527]}}, {"type": "Feature", "properties": {"point_type": "turbine", "turbinemod": "MHI V164-9.5", "oem": "MHI Vestas", "foundation": "Jacket", "water_dept": -42, "turbine_mw": 9.5, "distance_to_shore": 24884, "tippecanoe_feature_density": 1}, "geometry": {"type": "Point", "coordinates": [-2.81524658203125, 58.21702494960189]}}, {"type": "Feature", "properties": {"point_type": "turbine", "turbinemod": "MHI V164-9.5", "oem": "MHI Vestas", "foundation": "Jacket", "water_dept": -40, "turbine_mw": 9.5, "distance_to_shore": 24316, "tippecanoe_feature_density": 0}, "geometry": {"type": "Point", "coordinates": [-2.84271240234375, 58.20689706981324]}}, {"type": "Feature", "properties": {"point_type": "turbine", "turbinemod": "MHI V164-9.5", "oem": "MHI Vestas", "foundation": "Jacket", "water_dept": -40, "turbine_mw": 9.5, "distance_to_shore": 24996, "tippecanoe_feature_density": 0}, "geometry": {"type": "Point", "coordinates": [-2.84271240234375, 58.19676630104175]}}, {"type": "Feature", "properties": {"point_type": "turbine", "turbinemod": "MHI V164-9.5", "oem": "MHI Vestas", "foundation": "Jacket", "water_dept": -42, "turbine_mw": 9.5, "distance_to_shore": 25563, "tippecanoe_feature_density": 0}, "geometry": {"type": "Point", "coordinates": [-2.81524658203125, 58.20689706981324]}}, {"type": "Feature", "properties": {"point_type": "turbine", "turbinemod": "MHI V164-9.5", "oem": "MHI Vestas", "foundation": "Jacket", "water_dept": -42, "turbine_mw": 9.5, "distance_to_shore": 26243, "tippecanoe_feature_density": 1}, "geometry": {"type": "Point", "coordinates": [-2.81524658203125, 58.19676630104175]}}, {"type": "Feature", "properties": {"point_type": "turbine", "turbinemod": "MHI V164-9.5", "oem": "MHI Vestas", "foundation": "Jacket", "water_dept": -40, "turbine_mw": 9.5, "distance_to_shore": 26922, "tippecanoe_feature_density": 1}, "geometry": {"type": "Point", "coordinates": [-2.81524658203125, 58.18663264278018]}}, {"type": "Feature", "properties": {"point_type": "turbine", "turbinemod": "MHI V164-9.5", "oem": "MHI Vestas", "foundation": "Jacket", "water_dept": -40, "turbine_mw": 9.5, "distance_to_shore": 27601, "tippecanoe_feature_density": 1}, "geometry": {"type": "Point", "coordinates": [-2.81524658203125, 58.176496094521525]}}, {"type": "Feature", "properties": {"point_type": "turbine", "turbinemod": "MHI V164-9.5", "oem": "MHI Vestas", "foundation": "Jacket", "water_dept": -40, "turbine_mw": 9.5, "distance_to_shore": 28280, "tippecanoe_feature_density": 0}, "geometry": {"type": "Point", "coordinates": [-2.81524658203125, 58.166356655758904]}}, {"type": "Feature", "properties": {"point_type": "turbine", "turbinemod": "MHI V164-9.5", "oem": "MHI Vestas", "foundation": "Jacket", "water_dept": -40, "turbine_mw": 9.5, "distance_to_shore": 28959, "tippecanoe_feature_density": 0}, "geometry": {"type": "Point", "coordinates": [-2.81524658203125, 58.15621432598573]}}, {"type": "Feature", "properties": {"point_type": "turbine", "turbinemod": "MHI V164-9.5", "oem": "MHI Vestas", "foundation": "Jacket", "water_dept": -41, "turbine_mw": 9.5, "distance_to_shore": 29639, "tippecanoe_feature_density": 1}, "geometry": {"type": "Point", "coordinates": [-2.81524658203125, 58.146069104695556]}}, {"type": "Feature", "properties": {"point_type": "turbine", "turbinemod": "MHI V164-9.5", "oem": "MHI Vestas", "foundation": "Jacket", "water_dept": -40, "turbine_mw": 9.5, "distance_to_shore": 30328, "tippecanoe_feature_density": 1}, "geometry": {"type": "Point", "coordinates": [-2.81524658203125, 58.13592099138228]}}, {"type": "Feature", "properties": {"point_type": "turbine", "turbinemod": "MHI V164-9.5", "oem": "MHI Vestas", "foundation": "Jacket", "water_dept": -41, "turbine_mw": 9.5, "distance_to_shore": 32023, "tippecanoe_feature_density": 0}, "geometry": {"type": "Point", "coordinates": [-2.87017822265625, 58.08658900129171]}}, {"type": "Feature", "properties": {"point_type": "turbine", "turbinemod": "MHI V164-9.5", "oem": "MHI Vestas", "foundation": "Jacket", "water_dept": -42, "turbine_mw": 9.5, "distance_to_shore": 31419, "tippecanoe_feature_density": 1}, "geometry": {"type": "Point", "coordinates": [-2.84271240234375, 58.105459294244895]}}, {"type": "Feature", "properties": {"point_type": "turbine", "turbinemod": "MHI V164-9.5", "oem": "MHI Vestas", "foundation": "Jacket", "water_dept": -42, "turbine_mw": 9.5, "distance_to_shore": 31781, "tippecanoe_feature_density": 1}, "geometry": {"type": "Point", "coordinates": [-2.81524658203125, 58.115616086662584]}}, {"type": "Feature", "properties": {"point_type": "turbine", "turbinemod": "MHI V164-9.5", "oem": "MHI Vestas", "foundation": "Jacket", "water_dept": -44, "turbine_mw": 9.5, "distance_to_shore": 32542, "tippecanoe_feature_density": 1}, "geometry": {"type": "Point", "coordinates": [-2.81524658203125, 58.105459294244895]}}, {"type": "Feature", "properties": {"point_type": "turbine", "turbinemod": "MHI V164-9.5", "oem": "MHI Vestas", "foundation": "Jacket", "water_dept": -44, "turbine_mw": 9.5, "distance_to_shore": 32228, "tippecanoe_feature_density": 1}, "geometry": {"type": "Point", "coordinates": [-2.84271240234375, 58.095299607781556]}}, {"type": "Feature", "properties": {"point_type": "turbine", "turbinemod": "MHI V164-9.5", "oem": "MHI Vestas", "foundation": "Jacket", "water_dept": -43, "turbine_mw": 9.5, "distance_to_shore": 33055, "tippecanoe_feature_density": 2}, "geometry": {"type": "Point", "coordinates": [-2.84271240234375, 58.085137026767455]}}, {"type": "Feature", "properties": {"point_type": "turbine", "turbinemod": "MHI V164-9.5", "oem": "MHI Vestas", "foundation": "Jacket", "water_dept": -49, "turbine_mw": 9.5, "distance_to_shore": 34126, "tippecanoe_feature_density": 2}, "geometry": {"type": "Point", "coordinates": [-2.81524658203125, 58.085137026767455]}}, {"type": "Feature", "properties": {"point_type": "turbine", "turbinemod": "MHI V164-9.5", "oem": "MHI Vestas", "foundation": "Jacket", "water_dept": -45, "turbine_mw": 9.5, "distance_to_shore": 32893, "tippecanoe_feature_density": 0}, "geometry": {"type": "Point", "coordinates": [-2.87017822265625, 58.07642393883225]}}, {"type": "Feature", "properties": {"point_type": "turbine", "turbinemod": "MHI V164-9.5", "oem": "MHI Vestas", "foundation": "Jacket", "water_dept": -47, "turbine_mw": 9.5, "distance_to_shore": 25210, "tippecanoe_feature_density": 0}, "geometry": {"type": "Point", "coordinates": [-2.735595703125, 58.277731588129484]}}, {"type": "Feature", "properties": {"point_type": "turbine", "turbinemod": "MHI V164-9.5", "oem": "MHI Vestas", "foundation": "Jacket", "water_dept": -50, "turbine_mw": 9.5, "distance_to_shore": 26205, "tippecanoe_feature_density": 0}, "geometry": {"type": "Point", "coordinates": [-2.71087646484375, 58.28783925926027]}}, {"type": "Feature", "properties": {"point_type": "turbine", "turbinemod": "MHI V164-9.5", "oem": "MHI Vestas", "foundation": "Jacket", "water_dept": -49, "turbine_mw": 9.5, "distance_to_shore": 27641, "tippecanoe_feature_density": 0}, "geometry": {"type": "Point", "coordinates": [-2.68341064453125, 58.28783925926027]}}, {"type": "Feature", "properties": {"point_type": "turbine", "turbinemod": "MHI V164-9.5", "oem": "MHI Vestas", "foundation": "Jacket", "water_dept": -47, "turbine_mw": 9.5, "distance_to_shore": 26640, "tippecanoe_feature_density": 1}, "geometry": {"type": "Point", "coordinates": [-2.71087646484375, 58.277731588129484]}}, {"type": "Feature", "properties": {"point_type": "turbine", "turbinemod": "MHI V164-9.5", "oem": "MHI Vestas", "foundation": "Jacket", "water_dept": -45, "turbine_mw": 9.5, "distance_to_shore": 27092, "tippecanoe_feature_density": 1}, "geometry": {"type": "Point", "coordinates": [-2.71087646484375, 58.26762103157287]}}, {"type": "Feature", "properties": {"point_type": "turbine", "turbinemod": "MHI V164-9.5", "oem": "MHI Vestas", "foundation": "Jacket", "water_dept": -48, "turbine_mw": 9.5, "distance_to_shore": 28075, "tippecanoe_feature_density": 1}, "geometry": {"type": "Point", "coordinates": [-2.68341064453125, 58.277731588129484]}}, {"type": "Feature", "properties": {"point_type": "turbine", "turbinemod": "MHI V164-9.5", "oem": "MHI Vestas", "foundation": "Jacket", "water_dept": -46, "turbine_mw": 9.5, "distance_to_shore": 28513, "tippecanoe_feature_density": 1}, "geometry": {"type": "Point", "coordinates": [-2.68341064453125, 58.26762103157287]}}, {"type": "Feature", "properties": {"point_type": "turbine", "turbinemod": "MHI V164-9.5", "oem": "MHI Vestas", "foundation": "Jacket", "water_dept": -50, "turbine_mw": 9.5, "distance_to_shore": 29945, "tippecanoe_feature_density": 0}, "geometry": {"type": "Point", "coordinates": [-2.65594482421875, 58.26617643077586]}}, {"type": "Feature", "properties": {"point_type": "turbine", "turbinemod": "MHI V164-9.5", "oem": "MHI Vestas", "foundation": "Jacket", "water_dept": -45, "turbine_mw": 9.5, "distance_to_shore": 24775, "tippecanoe_feature_density": 0}, "geometry": {"type": "Point", "coordinates": [-2.79052734375, 58.23727204426103]}}, {"type": "Feature", "properties": {"point_type": "turbine", "turbinemod": "MHI V164-9.5", "oem": "MHI Vestas", "foundation": "Jacket", "water_dept": -44, "turbine_mw": 9.5, "distance_to_shore": 25453, "tippecanoe_feature_density": 0}, "geometry": {"type": "Point", "coordinates": [-2.79052734375, 58.22714994091527]}}, {"type": "Feature", "properties": {"point_type": "turbine", "turbinemod": "MHI V164-9.5", "oem": "MHI Vestas", "foundation": "Jacket", "water_dept": -46, "turbine_mw": 9.5, "distance_to_shore": 26132, "tippecanoe_feature_density": 3}, "geometry": {"type": "Point", "coordinates": [-2.79052734375, 58.21702494960189]}}, {"type": "Feature", "properties": {"point_type": "turbine", "turbinemod": "MHI V164-9.5", "oem": "MHI Vestas", "foundation": "Jacket", "water_dept": -41, "turbine_mw": 9.5, "distance_to_shore": 24845, "tippecanoe_feature_density": 3}, "geometry": {"type": "Point", "coordinates": [-2.7630615234375, 58.2575075890816]}}, {"type": "Feature", "properties": {"point_type": "turbine", "turbinemod": "MHI V164-9.5", "oem": "MHI Vestas", "foundation": "Jacket", "water_dept": -43, "turbine_mw": 9.5, "distance_to_shore": 25428, "tippecanoe_feature_density": 2}, "geometry": {"type": "Point", "coordinates": [-2.7630615234375, 58.24739126014708]}}, {"type": "Feature", "properties": {"point_type": "turbine", "turbinemod": "MHI V164-9.5", "oem": "MHI Vestas", "foundation": "Jacket", "water_dept": -43, "turbine_mw": 9.5, "distance_to_shore": 26811, "tippecanoe_feature_density": 0}, "geometry": {"type": "Point", "coordinates": [-2.79052734375, 58.20689706981324]}}, {"type": "Feature", "properties": {"point_type": "turbine", "turbinemod": "MHI V164-9.5", "oem": "MHI Vestas", "foundation": "Jacket", "water_dept": -45, "turbine_mw": 9.5, "distance_to_shore": 27490, "tippecanoe_feature_density": 0}, "geometry": {"type": "Point", "coordinates": [-2.79052734375, 58.19676630104175]}}, {"type": "Feature", "properties": {"point_type": "turbine", "turbinemod": "MHI V164-9.5", "oem": "MHI Vestas", "foundation": "Jacket", "water_dept": -42, "turbine_mw": 9.5, "distance_to_shore": 28169, "tippecanoe_feature_density": 1}, "geometry": {"type": "Point", "coordinates": [-2.79052734375, 58.18663264278018]}}, {"type": "Feature", "properties": {"point_type": "turbine", "turbinemod": "MHI V164-9.5", "oem": "MHI Vestas", "foundation": "Jacket", "water_dept": -40, "turbine_mw": 9.5, "distance_to_shore": 28848, "tippecanoe_feature_density": 1}, "geometry": {"type": "Point", "coordinates": [-2.79052734375, 58.176496094521525]}}, {"type": "Feature", "properties": {"point_type": "turbine", "turbinemod": "MHI V164-9.5", "oem": "MHI Vestas", "foundation": "Jacket", "water_dept": -45, "turbine_mw": 9.5, "distance_to_shore": 28058, "tippecanoe_feature_density": 1}, "geometry": {"type": "Point", "coordinates": [-2.7630615234375, 58.20689706981324]}}, {"type": "Feature", "properties": {"point_type": "turbine", "turbinemod": "MHI V164-9.5", "oem": "MHI Vestas", "foundation": "Jacket", "water_dept": -45, "turbine_mw": 9.5, "distance_to_shore": 27584, "tippecanoe_feature_density": 0}, "geometry": {"type": "Point", "coordinates": [-2.71087646484375, 58.2575075890816]}}, {"type": "Feature", "properties": {"point_type": "turbine", "turbinemod": "MHI V164-9.5", "oem": "MHI Vestas", "foundation": "Jacket", "water_dept": -45, "turbine_mw": 9.5, "distance_to_shore": 28112, "tippecanoe_feature_density": 0}, "geometry": {"type": "Point", "coordinates": [-2.71087646484375, 58.24739126014708]}}, {"type": "Feature", "properties": {"point_type": "turbine", "turbinemod": "MHI V164-9.5", "oem": "MHI Vestas", "foundation": "Jacket", "water_dept": -46, "turbine_mw": 9.5, "distance_to_shore": 28980, "tippecanoe_feature_density": 1}, "geometry": {"type": "Point", "coordinates": [-2.68341064453125, 58.2575075890816]}}, {"type": "Feature", "properties": {"point_type": "turbine", "turbinemod": "MHI V164-9.5", "oem": "MHI Vestas", "foundation": "Jacket", "water_dept": -48, "turbine_mw": 9.5, "distance_to_shore": 29485, "tippecanoe_feature_density": 1}, "geometry": {"type": "Point", "coordinates": [-2.68341064453125, 58.24739126014708]}}, {"type": "Feature", "properties": {"point_type": "turbine", "turbinemod": "MHI V164-9.5", "oem": "MHI Vestas", "foundation": "Jacket", "water_dept": -47, "turbine_mw": 9.5, "distance_to_shore": 28675, "tippecanoe_feature_density": 2}, "geometry": {"type": "Point", "coordinates": [-2.71087646484375, 58.23727204426103]}}, {"type": "Feature", "properties": {"point_type": "turbine", "turbinemod": "MHI V164-9.5", "oem": "MHI Vestas", "foundation": "Jacket", "water_dept": -48, "turbine_mw": 9.5, "distance_to_shore": 29271, "tippecanoe_feature_density": 2}, "geometry": {"type": "Point", "coordinates": [-2.71087646484375, 58.22714994091527]}}, {"type": "Feature", "properties": {"point_type": "turbine", "turbinemod": "MHI V164-9.5", "oem": "MHI Vestas", "foundation": "Jacket", "water_dept": -48, "turbine_mw": 9.5, "distance_to_shore": 30023, "tippecanoe_feature_density": 1}, "geometry": {"type": "Point", "coordinates": [-2.68341064453125, 58.23727204426103]}}, {"type": "Feature", "properties": {"point_type": "turbine", "turbinemod": "MHI V164-9.5", "oem": "MHI Vestas", "foundation": "Jacket", "water_dept": -50, "turbine_mw": 9.5, "distance_to_shore": 30593, "tippecanoe_feature_density": 1}, "geometry": {"type": "Point", "coordinates": [-2.68341064453125, 58.22714994091527]}}, {"type": "Feature", "properties": {"point_type": "turbine", "turbinemod": "MHI V164-9.5", "oem": "MHI Vestas", "foundation": "Jacket", "water_dept": -48, "turbine_mw": 9.5, "distance_to_shore": 30392, "tippecanoe_feature_density": 1}, "geometry": {"type": "Point", "coordinates": [-2.65869140625, 58.256062575966666]}}, {"type": "Feature", "properties": {"point_type": "turbine", "turbinemod": "MHI V164-9.5", "oem": "MHI Vestas", "foundation": "Jacket", "water_dept": -48, "turbine_mw": 9.5, "distance_to_shore": 30875, "tippecanoe_feature_density": 1}, "geometry": {"type": "Point", "coordinates": [-2.65869140625, 58.24594583464162]}}, {"type": "Feature", "properties": {"point_type": "turbine", "turbinemod": "MHI V164-9.5", "oem": "MHI Vestas", "foundation": "Jacket", "water_dept": -48, "turbine_mw": 9.5, "distance_to_shore": 29898, "tippecanoe_feature_density": 0}, "geometry": {"type": "Point", "coordinates": [-2.71087646484375, 58.21702494960189]}}, {"type": "Feature", "properties": {"point_type": "turbine", "turbinemod": "MHI V164-9.5", "oem": "MHI Vestas", "foundation": "Jacket", "water_dept": -48, "turbine_mw": 9.5, "distance_to_shore": 31231, "tippecanoe_feature_density": 0}, "geometry": {"type": "Point", "coordinates": [-2.71087646484375, 58.19676630104175]}}, {"type": "Feature", "properties": {"point_type": "turbine", "turbinemod": "MHI V164-9.5", "oem": "MHI Vestas", "foundation": "Jacket", "water_dept": -50, "turbine_mw": 9.5, "distance_to_shore": 31822, "tippecanoe_feature_density": 1}, "geometry": {"type": "Point", "coordinates": [-2.68341064453125, 58.20689706981324]}}, {"type": "Feature", "properties": {"point_type": "turbine", "turbinemod": "MHI V164-9.5", "oem": "MHI Vestas", "foundation": "Jacket", "water_dept": -51, "turbine_mw": 9.5, "distance_to_shore": 32480, "tippecanoe_feature_density": 1}, "geometry": {"type": "Point", "coordinates": [-2.68341064453125, 58.1953188124952]}}, {"type": "Feature", "properties": {"point_type": "turbine", "turbinemod": "MHI V164-9.5", "oem": "MHI Vestas", "foundation": "Jacket", "water_dept": -50, "turbine_mw": 9.5, "distance_to_shore": 32589, "tippecanoe_feature_density": 1}, "geometry": {"type": "Point", "coordinates": [-2.71087646484375, 58.176496094521525]}}, {"type": "Feature", "properties": {"point_type": "turbine", "turbinemod": "MHI V164-9.5", "oem": "MHI Vestas", "foundation": "Jacket", "water_dept": -49, "turbine_mw": 9.5, "distance_to_shore": 33835, "tippecanoe_feature_density": 1}, "geometry": {"type": "Point", "coordinates": [-2.68341064453125, 58.17504778025119]}}, {"type": "Feature", "properties": {"point_type": "turbine", "turbinemod": "MHI V164-9.5", "oem": "MHI Vestas", "foundation": "Jacket", "water_dept": -41, "turbine_mw": 9.5, "distance_to_shore": 29528, "tippecanoe_feature_density": 0}, "geometry": {"type": "Point", "coordinates": [-2.79052734375, 58.166356655758904]}}, {"type": "Feature", "properties": {"point_type": "turbine", "turbinemod": "MHI V164-9.5", "oem": "MHI Vestas", "foundation": "Jacket", "water_dept": -40, "turbine_mw": 9.5, "distance_to_shore": 30206, "tippecanoe_feature_density": 0}, "geometry": {"type": "Point", "coordinates": [-2.79052734375, 58.15621432598573]}}, {"type": "Feature", "properties": {"point_type": "turbine", "turbinemod": "MHI V164-9.5", "oem": "MHI Vestas", "foundation": "Jacket", "water_dept": -40, "turbine_mw": 9.5, "distance_to_shore": 30885, "tippecanoe_feature_density": 1}, "geometry": {"type": "Point", "coordinates": [-2.79052734375, 58.146069104695556]}}, {"type": "Feature", "properties": {"point_type": "turbine", "turbinemod": "MHI V164-9.5", "oem": "MHI Vestas", "foundation": "Jacket", "water_dept": -43, "turbine_mw": 9.5, "distance_to_shore": 31564, "tippecanoe_feature_density": 1}, "geometry": {"type": "Point", "coordinates": [-2.79052734375, 58.13592099138228]}}, {"type": "Feature", "properties": {"point_type": "turbine", "turbinemod": "MHI V164-9.5", "oem": "MHI Vestas", "foundation": "Jacket", "water_dept": -45, "turbine_mw": 9.5, "distance_to_shore": 32253, "tippecanoe_feature_density": 3}, "geometry": {"type": "Point", "coordinates": [-2.79052734375, 58.12576998553985]}}, {"type": "Feature", "properties": {"point_type": "turbine", "turbinemod": "MHI V164-9.5", "oem": "MHI Vestas", "foundation": "Jacket", "water_dept": -46, "turbine_mw": 9.5, "distance_to_shore": 33379, "tippecanoe_feature_density": 0}, "geometry": {"type": "Point", "coordinates": [-2.73834228515625, 58.146069104695556]}}, {"type": "Feature", "properties": {"point_type": "turbine", "turbinemod": "MHI V164-9.5", "oem": "MHI Vestas", "foundation": "Jacket", "water_dept": -46, "turbine_mw": 9.5, "distance_to_shore": 32965, "tippecanoe_feature_density": 0}, "geometry": {"type": "Point", "coordinates": [-2.79052734375, 58.115616086662584]}}, {"type": "Feature", "properties": {"point_type": "turbine", "turbinemod": "MHI V164-9.5", "oem": "MHI Vestas", "foundation": "Jacket", "water_dept": -48, "turbine_mw": 9.5, "distance_to_shore": 33700, "tippecanoe_feature_density": 0}, "geometry": {"type": "Point", "coordinates": [-2.79052734375, 58.105459294244895]}}, {"type": "Feature", "properties": {"point_type": "turbine", "turbinemod": "MHI V164-9.5", "oem": "MHI Vestas", "foundation": "Jacket", "water_dept": -48, "turbine_mw": 9.5, "distance_to_shore": 34178, "tippecanoe_feature_density": 0}, "geometry": {"type": "Point", "coordinates": [-2.7630615234375, 58.115616086662584]}}, {"type": "Feature", "properties": {"point_type": "turbine", "turbinemod": "MHI V164-9.5", "oem": "MHI Vestas", "foundation": "Jacket", "water_dept": -50, "turbine_mw": 9.5, "distance_to_shore": 34888, "tippecanoe_feature_density": 0}, "geometry": {"type": "Point", "coordinates": [-2.7630615234375, 58.105459294244895]}}, {"type": "Feature", "properties": {"point_type": "turbine", "turbinemod": "MHI V164-9.5", "oem": "MHI Vestas", "foundation": "Jacket", "water_dept": -51, "turbine_mw": 9.5, "distance_to_shore": 36103, "tippecanoe_feature_density": 1}, "geometry": {"type": "Point", "coordinates": [-2.73834228515625, 58.105459294244895]}}, {"type": "Feature", "properties": {"point_type": "turbine", "turbinemod": "MHI V164-9.5", "oem": "MHI Vestas", "foundation": "Jacket", "water_dept": -45, "turbine_mw": 9.5, "distance_to_shore": 33268, "tippecanoe_feature_density": 0}, "geometry": {"type": "Point", "coordinates": [-2.71087646484375, 58.166356655758904]}}, {"type": "Feature", "properties": {"point_type": "turbine", "turbinemod": "MHI V164-9.5", "oem": "MHI Vestas", "foundation": "Jacket", "water_dept": -46, "turbine_mw": 9.5, "distance_to_shore": 33947, "tippecanoe_feature_density": 0}, "geometry": {"type": "Point", "coordinates": [-2.71087646484375, 58.15621432598573]}}, {"type": "Feature", "properties": {"point_type": "turbine", "turbinemod": "MHI V164-9.5", "oem": "MHI Vestas", "foundation": "Jacket", "water_dept": -48, "turbine_mw": 9.5, "distance_to_shore": 34515, "tippecanoe_feature_density": 1}, "geometry": {"type": "Point", "coordinates": [-2.68341064453125, 58.166356655758904]}}, {"type": "Feature", "properties": {"point_type": "turbine", "turbinemod": "MHI V164-9.5", "oem": "MHI Vestas", "foundation": "Jacket", "water_dept": -48, "turbine_mw": 9.5, "distance_to_shore": 35193, "tippecanoe_feature_density": 1}, "geometry": {"type": "Point", "coordinates": [-2.68341064453125, 58.15621432598573]}}, {"type": "Feature", "properties": {"point_type": "turbine", "turbinemod": "MHI V164-9.5", "oem": "MHI Vestas", "foundation": "Jacket", "water_dept": -47, "turbine_mw": 9.5, "distance_to_shore": 34626, "tippecanoe_feature_density": 2}, "geometry": {"type": "Point", "coordinates": [-2.71087646484375, 58.146069104695556]}}, {"type": "Feature", "properties": {"point_type": "turbine", "turbinemod": "MHI V164-9.5", "oem": "MHI Vestas", "foundation": "Jacket", "water_dept": -50, "turbine_mw": 9.5, "distance_to_shore": 35305, "tippecanoe_feature_density": 2}, "geometry": {"type": "Point", "coordinates": [-2.71087646484375, 58.13592099138228]}}, {"type": "Feature", "properties": {"point_type": "turbine", "turbinemod": "MHI V164-9.5", "oem": "MHI Vestas", "foundation": "Jacket", "water_dept": -50, "turbine_mw": 9.5, "distance_to_shore": 35984, "tippecanoe_feature_density": 3}, "geometry": {"type": "Point", "coordinates": [-2.71087646484375, 58.12576998553985]}}, {"type": "Feature", "properties": {"point_type": "turbine", "turbinemod": "MHI V164-9.5", "oem": "MHI Vestas", "foundation": "Jacket", "water_dept": -50, "turbine_mw": 9.5, "distance_to_shore": 35873, "tippecanoe_feature_density": 3}, "geometry": {"type": "Point", "coordinates": [-2.68341064453125, 58.146069104695556]}}, {"type": "Feature", "properties": {"point_type": "turbine", "turbinemod": "MHI V164-9.5", "oem": "MHI Vestas", "foundation": "Jacket", "water_dept": -51, "turbine_mw": 9.5, "distance_to_shore": 36552, "tippecanoe_feature_density": 2}, "geometry": {"type": "Point", "coordinates": [-2.6861572265625, 58.13592099138228]}}, {"type": "Feature", "properties": {"point_type": "turbine", "turbinemod": "MHI V164-9.5", "oem": "MHI Vestas", "foundation": "Jacket", "water_dept": -51, "turbine_mw": 9.5, "distance_to_shore": 37231, "tippecanoe_feature_density": 2}, "geometry": {"type": "Point", "coordinates": [-2.6861572265625, 58.12576998553985]}}, {"type": "Feature", "properties": {"point_type": "turbine", "turbinemod": "MHI V164-9.5", "oem": "MHI Vestas", "foundation": "Jacket", "water_dept": -52, "turbine_mw": 9.5, "distance_to_shore": 38477, "tippecanoe_feature_density": 0}, "geometry": {"type": "Point", "coordinates": [-2.65869140625, 58.12431960569373]}}, {"type": "Feature", "properties": {"point_type": "turbine", "turbinemod": "MHI V164-9.5", "oem": "MHI Vestas", "foundation": "Jacket", "water_dept": -51, "turbine_mw": 9.5, "distance_to_shore": 37799, "tippecanoe_feature_density": 0}, "geometry": {"type": "Point", "coordinates": [-2.65869140625, 58.134471024795914]}}, {"type": "Feature", "properties": {"point_type": "turbine", "turbinemod": "MHI V164-9.5", "oem": "MHI Vestas", "foundation": "Jacket", "water_dept": -52, "turbine_mw": 9.5, "distance_to_shore": 36663, "tippecanoe_feature_density": 1}, "geometry": {"type": "Point", "coordinates": [-2.71087646484375, 58.115616086662584]}}, {"type": "Feature", "properties": {"point_type": "turbine", "turbinemod": "MHI V164-9.5", "oem": "MHI Vestas", "foundation": "Jacket", "water_dept": -52, "turbine_mw": 9.5, "distance_to_shore": 37910, "tippecanoe_feature_density": 1}, "geometry": {"type": "Point", "coordinates": [-2.6861572265625, 58.115616086662584]}}, {"type": "Feature", "properties": {"point_type": "turbine", "turbinemod": "MHI V164-9.5", "oem": "MHI Vestas", "foundation": "Jacket", "water_dept": -49, "turbine_mw": 9.5, "distance_to_shore": 31803, "tippecanoe_feature_density": 0}, "geometry": {"type": "Point", "coordinates": [-2.6312255859375, 58.256062575966666]}}, {"type": "Feature", "properties": {"point_type": "turbine", "turbinemod": "MHI V164-9.5", "oem": "MHI Vestas", "foundation": "Jacket", "water_dept": -50, "turbine_mw": 9.5, "distance_to_shore": 32277, "tippecanoe_feature_density": 0}, "geometry": {"type": "Point", "coordinates": [-2.6312255859375, 58.24594583464162]}}, {"type": "Feature", "properties": {"point_type": "turbine", "turbinemod": "MHI V164-9.5", "oem": "MHI Vestas", "foundation": "Jacket", "water_dept": -49, "turbine_mw": 9.5, "distance_to_shore": 32770, "tippecanoe_feature_density": 1}, "geometry": {"type": "Point", "coordinates": [-2.6312255859375, 58.235826206292444]}}, {"type": "Feature", "properties": {"point_type": "turbine", "turbinemod": "MHI V164-9.5", "oem": "MHI Vestas", "foundation": "Jacket", "water_dept": -51, "turbine_mw": 9.5, "distance_to_shore": 33296, "tippecanoe_feature_density": 1}, "geometry": {"type": "Point", "coordinates": [-2.6312255859375, 58.22570369041097]}}, {"type": "Feature", "properties": {"point_type": "turbine", "turbinemod": "MHI V164-9.5", "oem": "MHI Vestas", "foundation": "Jacket", "water_dept": -51, "turbine_mw": 9.5, "distance_to_shore": 34288, "tippecanoe_feature_density": 1}, "geometry": {"type": "Point", "coordinates": [-2.60101318359375, 58.235826206292444]}}, {"type": "Feature", "properties": {"point_type": "turbine", "turbinemod": "MHI V164-9.5", "oem": "MHI Vestas", "foundation": "Jacket", "water_dept": -51, "turbine_mw": 9.5, "distance_to_shore": 34670, "tippecanoe_feature_density": 1}, "geometry": {"type": "Point", "coordinates": [-2.603759765625, 58.22570369041097]}}, {"type": "Feature", "properties": {"point_type": "turbine", "turbinemod": "MHI V164-9.5", "oem": "MHI Vestas", "foundation": "Jacket", "water_dept": -53, "turbine_mw": 9.5, "distance_to_shore": 34431, "tippecanoe_feature_density": 0}, "geometry": {"type": "Point", "coordinates": [-2.6312255859375, 58.205449994019915]}}, {"type": "Feature", "properties": {"point_type": "turbine", "turbinemod": "MHI V164-9.5", "oem": "MHI Vestas", "foundation": "Jacket", "water_dept": -50, "turbine_mw": 9.5, "distance_to_shore": 35039, "tippecanoe_feature_density": 0}, "geometry": {"type": "Point", "coordinates": [-2.6312255859375, 58.1953188124952]}}, {"type": "Feature", "properties": {"point_type": "turbine", "turbinemod": "MHI V164-9.5", "oem": "MHI Vestas", "foundation": "Jacket", "water_dept": -52, "turbine_mw": 9.5, "distance_to_shore": 35672, "tippecanoe_feature_density": 1}, "geometry": {"type": "Point", "coordinates": [-2.6312255859375, 58.185184741407966]}}, {"type": "Feature", "properties": {"point_type": "turbine", "turbinemod": "MHI V164-9.5", "oem": "MHI Vestas", "foundation": "Jacket", "water_dept": -53, "turbine_mw": 9.5, "distance_to_shore": 37599, "tippecanoe_feature_density": 1}, "geometry": {"type": "Point", "coordinates": [-2.60650634765625, 58.17504778025119]}}, {"type": "Feature", "properties": {"point_type": "turbine", "turbinemod": "MHI V164-9.5", "oem": "MHI Vestas", "foundation": "Jacket", "water_dept": -52, "turbine_mw": 9.5, "distance_to_shore": 37680, "tippecanoe_feature_density": 0}, "geometry": {"type": "Point", "coordinates": [-2.57904052734375, 58.1953188124952]}}, {"type": "Feature", "properties": {"point_type": "turbine", "turbinemod": "MHI V164-9.5", "oem": "MHI Vestas", "foundation": "Jacket", "water_dept": -52, "turbine_mw": 9.5, "distance_to_shore": 38271, "tippecanoe_feature_density": 0}, "geometry": {"type": "Point", "coordinates": [-2.57904052734375, 58.185184741407966]}}, {"type": "Feature", "properties": {"point_type": "turbine", "turbinemod": "MHI V164-9.5", "oem": "MHI Vestas", "foundation": "Jacket", "water_dept": -53, "turbine_mw": 9.5, "distance_to_shore": 38887, "tippecanoe_feature_density": 1}, "geometry": {"type": "Point", "coordinates": [-2.57904052734375, 58.17504778025119]}}, {"type": "Feature", "properties": {"point_type": "turbine", "turbinemod": "MHI V164-9.5", "oem": "MHI Vestas", "foundation": "Jacket", "water_dept": -51, "turbine_mw": 9.5, "distance_to_shore": 37009, "tippecanoe_feature_density": 0}, "geometry": {"type": "Point", "coordinates": [-2.6312255859375, 58.16490792851806]}}, {"type": "Feature", "properties": {"point_type": "turbine", "turbinemod": "MHI V164-9.5", "oem": "MHI Vestas", "foundation": "Jacket", "water_dept": -52, "turbine_mw": 9.5, "distance_to_shore": 37688, "tippecanoe_feature_density": 0}, "geometry": {"type": "Point", "coordinates": [-2.6312255859375, 58.15476518570205]}}, {"type": "Feature", "properties": {"point_type": "turbine", "turbinemod": "MHI V164-9.5", "oem": "MHI Vestas", "foundation": "Jacket", "water_dept": -52, "turbine_mw": 9.5, "distance_to_shore": 38258, "tippecanoe_feature_density": 1}, "geometry": {"type": "Point", "coordinates": [-2.60650634765625, 58.16490792851806]}}, {"type": "Feature", "properties": {"point_type": "turbine", "turbinemod": "MHI V164-9.5", "oem": "MHI Vestas", "foundation": "Jacket", "water_dept": -52, "turbine_mw": 9.5, "distance_to_shore": 38935, "tippecanoe_feature_density": 1}, "geometry": {"type": "Point", "coordinates": [-2.60650634765625, 58.15476518570205]}}, {"type": "Feature", "properties": {"point_type": "turbine", "turbinemod": "MHI V164-9.5", "oem": "MHI Vestas", "foundation": "Jacket", "water_dept": -52, "turbine_mw": 9.5, "distance_to_shore": 38366, "tippecanoe_feature_density": 2}, "geometry": {"type": "Point", "coordinates": [-2.6312255859375, 58.1446195512967]}}, {"type": "Feature", "properties": {"point_type": "turbine", "turbinemod": "MHI V164-9.5", "oem": "MHI Vestas", "foundation": "Jacket", "water_dept": -51, "turbine_mw": 9.5, "distance_to_shore": 39045, "tippecanoe_feature_density": 2}, "geometry": {"type": "Point", "coordinates": [-2.6312255859375, 58.134471024795914]}}, {"type": "Feature", "properties": {"point_type": "turbine", "turbinemod": "MHI V164-9.5", "oem": "MHI Vestas", "foundation": "Jacket", "water_dept": -53, "turbine_mw": 9.5, "distance_to_shore": 40184, "tippecanoe_feature_density": 0}, "geometry": {"type": "Point", "coordinates": [-2.57904052734375, 58.15476518570205]}}, {"type": "Feature", "properties": {"point_type": "turbine", "turbinemod": "MHI V164-9.5", "oem": "MHI Vestas", "foundation": "Jacket", "water_dept": -40, "turbine_mw": 9.5, "distance_to_shore": 24316, "tippecanoe_feature_density": 0}, "geometry": {"type": "Point", "coordinates": [-2.84271240234375, 58.20762058560021]}}, {"type": "Feature", "properties": {"point_type": "turbine", "turbinemod": "MHI V164-9.5", "oem": "MHI Vestas", "foundation": "Jacket", "water_dept": -40, "turbine_mw": 9.5, "distance_to_shore": 24996, "tippecanoe_feature_density": 0}, "geometry": {"type": "Point", "coordinates": [-2.84271240234375, 58.19749002320148]}}, {"type": "Feature", "properties": {"point_type": "turbine", "turbinemod": "MHI V164-9.5", "oem": "MHI Vestas", "foundation": "Jacket", "water_dept": -40, "turbine_mw": 9.5, "distance_to_shore": 26922, "tippecanoe_feature_density": 0}, "geometry": {"type": "Point", "coordinates": [-2.816619873046875, 58.18663264278018]}}, {"type": "Feature", "properties": {"point_type": "turbine", "turbinemod": "MHI V164-9.5", "oem": "MHI Vestas", "foundation": "Jacket", "water_dept": -40, "turbine_mw": 9.5, "distance_to_shore": 27601, "tippecanoe_feature_density": 0}, "geometry": {"type": "Point", "coordinates": [-2.816619873046875, 58.176496094521525]}}, {"type": "Feature", "properties": {"point_type": "turbine", "turbinemod": "MHI V164-9.5", "oem": "MHI Vestas", "foundation": "Jacket", "water_dept": -40, "turbine_mw": 9.5, "distance_to_shore": 28280, "tippecanoe_feature_density": 0}, "geometry": {"type": "Point", "coordinates": [-2.816619873046875, 58.166356655758904]}}, {"type": "Feature", "properties": {"point_type": "turbine", "turbinemod": "MHI V164-9.5", "oem": "MHI Vestas", "foundation": "Jacket", "water_dept": -40, "turbine_mw": 9.5, "distance_to_shore": 28959, "tippecanoe_feature_density": 0}, "geometry": {"type": "Point", "coordinates": [-2.816619873046875, 58.15621432598573]}}, {"type": "Feature", "properties": {"point_type": "turbine", "turbinemod": "MHI V164-9.5", "oem": "MHI Vestas", "foundation": "Jacket", "water_dept": -41, "turbine_mw": 9.5, "distance_to_shore": 29639, "tippecanoe_feature_density": 0}, "geometry": {"type": "Point", "coordinates": [-2.816619873046875, 58.146069104695556]}}, {"type": "Feature", "properties": {"point_type": "turbine", "turbinemod": "MHI V164-9.5", "oem": "MHI Vestas", "foundation": "Jacket", "water_dept": -40, "turbine_mw": 9.5, "distance_to_shore": 30328, "tippecanoe_feature_density": 0}, "geometry": {"type": "Point", "coordinates": [-2.816619873046875, 58.13592099138228]}}, {"type": "Feature", "properties": {"point_type": "turbine", "turbinemod": "MHI V164-9.5", "oem": "MHI Vestas", "foundation": "Jacket", "water_dept": -41, "turbine_mw": 9.5, "distance_to_shore": 32023, "tippecanoe_feature_density": 0}, "geometry": {"type": "Point", "coordinates": [-2.868804931640625, 58.08586302141484]}}, {"type": "Feature", "properties": {"point_type": "turbine", "turbinemod": "MHI V164-9.5", "oem": "MHI Vestas", "foundation": "Jacket", "water_dept": -42, "turbine_mw": 9.5, "distance_to_shore": 31419, "tippecanoe_feature_density": 0}, "geometry": {"type": "Point", "coordinates": [-2.84271240234375, 58.10618487538761]}}, {"type": "Feature", "properties": {"point_type": "turbine", "turbinemod": "MHI V164-9.5", "oem": "MHI Vestas", "foundation": "Jacket", "water_dept": -42, "turbine_mw": 9.5, "distance_to_shore": 31781, "tippecanoe_feature_density": 0}, "geometry": {"type": "Point", "coordinates": [-2.816619873046875, 58.115616086662584]}}, {"type": "Feature", "properties": {"point_type": "turbine", "turbinemod": "MHI V164-9.5", "oem": "MHI Vestas", "foundation": "Jacket", "water_dept": -44, "turbine_mw": 9.5, "distance_to_shore": 32542, "tippecanoe_feature_density": 0}, "geometry": {"type": "Point", "coordinates": [-2.816619873046875, 58.10618487538761]}}, {"type": "Feature", "properties": {"point_type": "turbine", "turbinemod": "MHI V164-9.5", "oem": "MHI Vestas", "foundation": "Jacket", "water_dept": -44, "turbine_mw": 9.5, "distance_to_shore": 32228, "tippecanoe_feature_density": 0}, "geometry": {"type": "Point", "coordinates": [-2.84271240234375, 58.09602539565856]}}, {"type": "Feature", "properties": {"point_type": "turbine", "turbinemod": "MHI V164-9.5", "oem": "MHI Vestas", "foundation": "Jacket", "water_dept": -43, "turbine_mw": 9.5, "distance_to_shore": 33055, "tippecanoe_feature_density": 0}, "geometry": {"type": "Point", "coordinates": [-2.84271240234375, 58.08586302141484]}}, {"type": "Feature", "properties": {"point_type": "turbine", "turbinemod": "MHI V164-9.5", "oem": "MHI Vestas", "foundation": "Jacket", "water_dept": -49, "turbine_mw": 9.5, "distance_to_shore": 34126, "tippecanoe_feature_density": 0}, "geometry": {"type": "Point", "coordinates": [-2.816619873046875, 58.08586302141484]}}, {"type": "Feature", "properties": {"point_type": "turbine", "turbinemod": "MHI V164-9.5", "oem": "MHI Vestas", "foundation": "Jacket", "water_dept": -45, "turbine_mw": 9.5, "distance_to_shore": 32893, "tippecanoe_feature_density": 0}, "geometry": {"type": "Point", "coordinates": [-2.868804931640625, 58.075697752151484]}}, {"type": "Feature", "properties": {"point_type": "turbine", "turbinemod": "MHI V164-9.5", "oem": "MHI Vestas", "foundation": "Jacket", "water_dept": -47, "turbine_mw": 9.5, "distance_to_shore": 25210, "tippecanoe_feature_density": 0}, "geometry": {"type": "Point", "coordinates": [-2.736968994140625, 58.277731588129484]}}, {"type": "Feature", "properties": {"point_type": "turbine", "turbinemod": "MHI V164-9.5", "oem": "MHI Vestas", "foundation": "Jacket", "water_dept": -50, "turbine_mw": 9.5, "distance_to_shore": 26205, "tippecanoe_feature_density": 0}, "geometry": {"type": "Point", "coordinates": [-2.709503173828125, 58.28783925926027]}}, {"type": "Feature", "properties": {"point_type": "turbine", "turbinemod": "MHI V164-9.5", "oem": "MHI Vestas", "foundation": "Jacket", "water_dept": -49, "turbine_mw": 9.5, "distance_to_shore": 27641, "tippecanoe_feature_density": 0}, "geometry": {"type": "Point", "coordinates": [-2.68341064453125, 58.287117378430224]}}, {"type": "Feature", "properties": {"point_type": "turbine", "turbinemod": "MHI V164-9.5", "oem": "MHI Vestas", "foundation": "Jacket", "water_dept": -47, "turbine_mw": 9.5, "distance_to_shore": 26640, "tippecanoe_feature_density": 0}, "geometry": {"type": "Point", "coordinates": [-2.709503173828125, 58.27700950121451]}}, {"type": "Feature", "properties": {"point_type": "turbine", "turbinemod": "MHI V164-9.5", "oem": "MHI Vestas", "foundation": "Jacket", "water_dept": -45, "turbine_mw": 9.5, "distance_to_shore": 27092, "tippecanoe_feature_density": 0}, "geometry": {"type": "Point", "coordinates": [-2.709503173828125, 58.266898738536526]}}, {"type": "Feature", "properties": {"point_type": "turbine", "turbinemod": "MHI V164-9.5", "oem": "MHI Vestas", "foundation": "Jacket", "water_dept": -48, "turbine_mw": 9.5, "distance_to_shore": 28075, "tippecanoe_feature_density": 0}, "geometry": {"type": "Point", "coordinates": [-2.68341064453125, 58.27700950121451]}}, {"type": "Feature", "properties": {"point_type": "turbine", "turbinemod": "MHI V164-9.5", "oem": "MHI Vestas", "foundation": "Jacket", "water_dept": -46, "turbine_mw": 9.5, "distance_to_shore": 28513, "tippecanoe_feature_density": 0}, "geometry": {"type": "Point", "coordinates": [-2.68341064453125, 58.266898738536526]}}, {"type": "Feature", "properties": {"point_type": "turbine", "turbinemod": "MHI V164-9.5", "oem": "MHI Vestas", "foundation": "Jacket", "water_dept": -50, "turbine_mw": 9.5, "distance_to_shore": 29945, "tippecanoe_feature_density": 0}, "geometry": {"type": "Point", "coordinates": [-2.657318115234375, 58.266898738536526]}}, {"type": "Feature", "properties": {"point_type": "turbine", "turbinemod": "MHI V164-9.5", "oem": "MHI Vestas", "foundation": "Jacket", "water_dept": -45, "turbine_mw": 9.5, "distance_to_shore": 24775, "tippecanoe_feature_density": 0}, "geometry": {"type": "Point", "coordinates": [-2.789154052734375, 58.23727204426103]}}, {"type": "Feature", "properties": {"point_type": "turbine", "turbinemod": "MHI V164-9.5", "oem": "MHI Vestas", "foundation": "Jacket", "water_dept": -44, "turbine_mw": 9.5, "distance_to_shore": 25453, "tippecanoe_feature_density": 0}, "geometry": {"type": "Point", "coordinates": [-2.789154052734375, 58.22714994091527]}}, {"type": "Feature", "properties": {"point_type": "turbine", "turbinemod": "MHI V164-9.5", "oem": "MHI Vestas", "foundation": "Jacket", "water_dept": -46, "turbine_mw": 9.5, "distance_to_shore": 26132, "tippecanoe_feature_density": 0}, "geometry": {"type": "Point", "coordinates": [-2.789154052734375, 58.21702494960189]}}, {"type": "Feature", "properties": {"point_type": "turbine", "turbinemod": "MHI V164-9.5", "oem": "MHI Vestas", "foundation": "Jacket", "water_dept": -43, "turbine_mw": 9.5, "distance_to_shore": 26811, "tippecanoe_feature_density": 0}, "geometry": {"type": "Point", "coordinates": [-2.789154052734375, 58.20689706981324]}}, {"type": "Feature", "properties": {"point_type": "turbine", "turbinemod": "MHI V164-9.5", "oem": "MHI Vestas", "foundation": "Jacket", "water_dept": -45, "turbine_mw": 9.5, "distance_to_shore": 27490, "tippecanoe_feature_density": 0}, "geometry": {"type": "Point", "coordinates": [-2.789154052734375, 58.19676630104175]}}, {"type": "Feature", "properties": {"point_type": "turbine", "turbinemod": "MHI V164-9.5", "oem": "MHI Vestas", "foundation": "Jacket", "water_dept": -42, "turbine_mw": 9.5, "distance_to_shore": 28169, "tippecanoe_feature_density": 0}, "geometry": {"type": "Point", "coordinates": [-2.789154052734375, 58.18663264278018]}}, {"type": "Feature", "properties": {"point_type": "turbine", "turbinemod": "MHI V164-9.5", "oem": "MHI Vestas", "foundation": "Jacket", "water_dept": -40, "turbine_mw": 9.5, "distance_to_shore": 28848, "tippecanoe_feature_density": 0}, "geometry": {"type": "Point", "coordinates": [-2.789154052734375, 58.176496094521525]}}, {"type": "Feature", "properties": {"point_type": "turbine", "turbinemod": "MHI V164-9.5", "oem": "MHI Vestas", "foundation": "Jacket", "water_dept": -45, "turbine_mw": 9.5, "distance_to_shore": 27584, "tippecanoe_feature_density": 0}, "geometry": {"type": "Point", "coordinates": [-2.709503173828125, 58.256785089887615]}}, {"type": "Feature", "properties": {"point_type": "turbine", "turbinemod": "MHI V164-9.5", "oem": "MHI Vestas", "foundation": "Jacket", "water_dept": -45, "turbine_mw": 9.5, "distance_to_shore": 28112, "tippecanoe_feature_density": 0}, "geometry": {"type": "Point", "coordinates": [-2.71087646484375, 58.24666855475914]}}, {"type": "Feature", "properties": {"point_type": "turbine", "turbinemod": "MHI V164-9.5", "oem": "MHI Vestas", "foundation": "Jacket", "water_dept": -46, "turbine_mw": 9.5, "distance_to_shore": 28980, "tippecanoe_feature_density": 0}, "geometry": {"type": "Point", "coordinates": [-2.68341064453125, 58.256785089887615]}}, {"type": "Feature", "properties": {"point_type": "turbine", "turbinemod": "MHI V164-9.5", "oem": "MHI Vestas", "foundation": "Jacket", "water_dept": -48, "turbine_mw": 9.5, "distance_to_shore": 29485, "tippecanoe_feature_density": 0}, "geometry": {"type": "Point", "coordinates": [-2.68341064453125, 58.24666855475914]}}, {"type": "Feature", "properties": {"point_type": "turbine", "turbinemod": "MHI V164-9.5", "oem": "MHI Vestas", "foundation": "Jacket", "water_dept": -47, "turbine_mw": 9.5, "distance_to_shore": 28675, "tippecanoe_feature_density": 0}, "geometry": {"type": "Point", "coordinates": [-2.71087646484375, 58.23654913264278]}}, {"type": "Feature", "properties": {"point_type": "turbine", "turbinemod": "MHI V164-9.5", "oem": "MHI Vestas", "foundation": "Jacket", "water_dept": -48, "turbine_mw": 9.5, "distance_to_shore": 29271, "tippecanoe_feature_density": 0}, "geometry": {"type": "Point", "coordinates": [-2.71087646484375, 58.22642682303049]}}, {"type": "Feature", "properties": {"point_type": "turbine", "turbinemod": "MHI V164-9.5", "oem": "MHI Vestas", "foundation": "Jacket", "water_dept": -48, "turbine_mw": 9.5, "distance_to_shore": 30023, "tippecanoe_feature_density": 0}, "geometry": {"type": "Point", "coordinates": [-2.68341064453125, 58.23654913264278]}}, {"type": "Feature", "properties": {"point_type": "turbine", "turbinemod": "MHI V164-9.5", "oem": "MHI Vestas", "foundation": "Jacket", "water_dept": -50, "turbine_mw": 9.5, "distance_to_shore": 30593, "tippecanoe_feature_density": 0}, "geometry": {"type": "Point", "coordinates": [-2.68341064453125, 58.22642682303049]}}, {"type": "Feature", "properties": {"point_type": "turbine", "turbinemod": "MHI V164-9.5", "oem": "MHI Vestas", "foundation": "Jacket", "water_dept": -48, "turbine_mw": 9.5, "distance_to_shore": 30392, "tippecanoe_feature_density": 0}, "geometry": {"type": "Point", "coordinates": [-2.657318115234375, 58.256785089887615]}}, {"type": "Feature", "properties": {"point_type": "turbine", "turbinemod": "MHI V164-9.5", "oem": "MHI Vestas", "foundation": "Jacket", "water_dept": -48, "turbine_mw": 9.5, "distance_to_shore": 30875, "tippecanoe_feature_density": 0}, "geometry": {"type": "Point", "coordinates": [-2.657318115234375, 58.24666855475914]}}, {"type": "Feature", "properties": {"point_type": "turbine", "turbinemod": "MHI V164-9.5", "oem": "MHI Vestas", "foundation": "Jacket", "water_dept": -48, "turbine_mw": 9.5, "distance_to_shore": 29898, "tippecanoe_feature_density": 0}, "geometry": {"type": "Point", "coordinates": [-2.71087646484375, 58.2163016254143]}}, {"type": "Feature", "properties": {"point_type": "turbine", "turbinemod": "MHI V164-9.5", "oem": "MHI Vestas", "foundation": "Jacket", "water_dept": -48, "turbine_mw": 9.5, "distance_to_shore": 31231, "tippecanoe_feature_density": 0}, "geometry": {"type": "Point", "coordinates": [-2.71087646484375, 58.1960425641397]}}, {"type": "Feature", "properties": {"point_type": "turbine", "turbinemod": "MHI V164-9.5", "oem": "MHI Vestas", "foundation": "Jacket", "water_dept": -50, "turbine_mw": 9.5, "distance_to_shore": 31822, "tippecanoe_feature_density": 0}, "geometry": {"type": "Point", "coordinates": [-2.684783935546875, 58.20617353928651]}}, {"type": "Feature", "properties": {"point_type": "turbine", "turbinemod": "MHI V164-9.5", "oem": "MHI Vestas", "foundation": "Jacket", "water_dept": -51, "turbine_mw": 9.5, "distance_to_shore": 32480, "tippecanoe_feature_density": 0}, "geometry": {"type": "Point", "coordinates": [-2.684783935546875, 58.1960425641397]}}, {"type": "Feature", "properties": {"point_type": "turbine", "turbinemod": "MHI V164-9.5", "oem": "MHI Vestas", "foundation": "Jacket", "water_dept": -50, "turbine_mw": 9.5, "distance_to_shore": 32589, "tippecanoe_feature_density": 0}, "geometry": {"type": "Point", "coordinates": [-2.71087646484375, 58.175771944760186]}}, {"type": "Feature", "properties": {"point_type": "turbine", "turbinemod": "MHI V164-9.5", "oem": "MHI Vestas", "foundation": "Jacket", "water_dept": -49, "turbine_mw": 9.5, "distance_to_shore": 33835, "tippecanoe_feature_density": 0}, "geometry": {"type": "Point", "coordinates": [-2.684783935546875, 58.175771944760186]}}, {"type": "Feature", "properties": {"point_type": "turbine", "turbinemod": "MHI V164-9.5", "oem": "MHI Vestas", "foundation": "Jacket", "water_dept": -41, "turbine_mw": 9.5, "distance_to_shore": 29528, "tippecanoe_feature_density": 0}, "geometry": {"type": "Point", "coordinates": [-2.789154052734375, 58.166356655758904]}}, {"type": "Feature", "properties": {"point_type": "turbine", "turbinemod": "MHI V164-9.5", "oem": "MHI Vestas", "foundation": "Jacket", "water_dept": -46, "turbine_mw": 9.5, "distance_to_shore": 33379, "tippecanoe_feature_density": 0}, "geometry": {"type": "Point", "coordinates": [-2.736968994140625, 58.146069104695556]}}, {"type": "Feature", "properties": {"point_type": "turbine", "turbinemod": "MHI V164-9.5", "oem": "MHI Vestas", "foundation": "Jacket", "water_dept": -48, "turbine_mw": 9.5, "distance_to_shore": 34178, "tippecanoe_feature_density": 0}, "geometry": {"type": "Point", "coordinates": [-2.764434814453125, 58.115616086662584]}}, {"type": "Feature", "properties": {"point_type": "turbine", "turbinemod": "MHI V164-9.5", "oem": "MHI Vestas", "foundation": "Jacket", "water_dept": -50, "turbine_mw": 9.5, "distance_to_shore": 34888, "tippecanoe_feature_density": 0}, "geometry": {"type": "Point", "coordinates": [-2.764434814453125, 58.105459294244895]}}, {"type": "Feature", "properties": {"point_type": "turbine", "turbinemod": "MHI V164-9.5", "oem": "MHI Vestas", "foundation": "Jacket", "water_dept": -51, "turbine_mw": 9.5, "distance_to_shore": 36103, "tippecanoe_feature_density": 0}, "geometry": {"type": "Point", "coordinates": [-2.736968994140625, 58.105459294244895]}}, {"type": "Feature", "properties": {"point_type": "turbine", "turbinemod": "MHI V164-9.5", "oem": "MHI Vestas", "foundation": "Jacket", "water_dept": -45, "turbine_mw": 9.5, "distance_to_shore": 33268, "tippecanoe_feature_density": 0}, "geometry": {"type": "Point", "coordinates": [-2.71087646484375, 58.16563229951362]}}, {"type": "Feature", "properties": {"point_type": "turbine", "turbinemod": "MHI V164-9.5", "oem": "MHI Vestas", "foundation": "Jacket", "water_dept": -46, "turbine_mw": 9.5, "distance_to_shore": 33947, "tippecanoe_feature_density": 0}, "geometry": {"type": "Point", "coordinates": [-2.71087646484375, 58.15548976322029]}}, {"type": "Feature", "properties": {"point_type": "turbine", "turbinemod": "MHI V164-9.5", "oem": "MHI Vestas", "foundation": "Jacket", "water_dept": -48, "turbine_mw": 9.5, "distance_to_shore": 34515, "tippecanoe_feature_density": 0}, "geometry": {"type": "Point", "coordinates": [-2.684783935546875, 58.16563229951362]}}, {"type": "Feature", "properties": {"point_type": "turbine", "turbinemod": "MHI V164-9.5", "oem": "MHI Vestas", "foundation": "Jacket", "water_dept": -48, "turbine_mw": 9.5, "distance_to_shore": 35193, "tippecanoe_feature_density": 0}, "geometry": {"type": "Point", "coordinates": [-2.684783935546875, 58.15548976322029]}}, {"type": "Feature", "properties": {"point_type": "turbine", "turbinemod": "MHI V164-9.5", "oem": "MHI Vestas", "foundation": "Jacket", "water_dept": -47, "turbine_mw": 9.5, "distance_to_shore": 34626, "tippecanoe_feature_density": 0}, "geometry": {"type": "Point", "coordinates": [-2.71087646484375, 58.145344335373835]}}, {"type": "Feature", "properties": {"point_type": "turbine", "turbinemod": "MHI V164-9.5", "oem": "MHI Vestas", "foundation": "Jacket", "water_dept": -50, "turbine_mw": 9.5, "distance_to_shore": 35305, "tippecanoe_feature_density": 0}, "geometry": {"type": "Point", "coordinates": [-2.71087646484375, 58.1351960154681]}}, {"type": "Feature", "properties": {"point_type": "turbine", "turbinemod": "MHI V164-9.5", "oem": "MHI Vestas", "foundation": "Jacket", "water_dept": -50, "turbine_mw": 9.5, "distance_to_shore": 35984, "tippecanoe_feature_density": 0}, "geometry": {"type": "Point", "coordinates": [-2.71087646484375, 58.12504480299708]}}, {"type": "Feature", "properties": {"point_type": "turbine", "turbinemod": "MHI V164-9.5", "oem": "MHI Vestas", "foundation": "Jacket", "water_dept": -50, "turbine_mw": 9.5, "distance_to_shore": 35873, "tippecanoe_feature_density": 0}, "geometry": {"type": "Point", "coordinates": [-2.684783935546875, 58.145344335373835]}}, {"type": "Feature", "properties": {"point_type": "turbine", "turbinemod": "MHI V164-9.5", "oem": "MHI Vestas", "foundation": "Jacket", "water_dept": -51, "turbine_mw": 9.5, "distance_to_shore": 36552, "tippecanoe_feature_density": 0}, "geometry": {"type": "Point", "coordinates": [-2.684783935546875, 58.1351960154681]}}, {"type": "Feature", "properties": {"point_type": "turbine", "turbinemod": "MHI V164-9.5", "oem": "MHI Vestas", "foundation": "Jacket", "water_dept": -51, "turbine_mw": 9.5, "distance_to_shore": 37231, "tippecanoe_feature_density": 0}, "geometry": {"type": "Point", "coordinates": [-2.684783935546875, 58.12504480299708]}}, {"type": "Feature", "properties": {"point_type": "turbine", "turbinemod": "MHI V164-9.5", "oem": "MHI Vestas", "foundation": "Jacket", "water_dept": -52, "turbine_mw": 9.5, "distance_to_shore": 38477, "tippecanoe_feature_density": 0}, "geometry": {"type": "Point", "coordinates": [-2.65869140625, 58.12504480299708]}}, {"type": "Feature", "properties": {"point_type": "turbine", "turbinemod": "MHI V164-9.5", "oem": "MHI Vestas", "foundation": "Jacket", "water_dept": -51, "turbine_mw": 9.5, "distance_to_shore": 37799, "tippecanoe_feature_density": 0}, "geometry": {"type": "Point", "coordinates": [-2.65869140625, 58.1351960154681]}}, {"type": "Feature", "properties": {"point_type": "turbine", "turbinemod": "MHI V164-9.5", "oem": "MHI Vestas", "foundation": "Jacket", "water_dept": -52, "turbine_mw": 9.5, "distance_to_shore": 36663, "tippecanoe_feature_density": 0}, "geometry": {"type": "Point", "coordinates": [-2.71087646484375, 58.11489069745514]}}, {"type": "Feature", "properties": {"point_type": "turbine", "turbinemod": "MHI V164-9.5", "oem": "MHI Vestas", "foundation": "Jacket", "water_dept": -52, "turbine_mw": 9.5, "distance_to_shore": 37910, "tippecanoe_feature_density": 0}, "geometry": {"type": "Point", "coordinates": [-2.684783935546875, 58.11489069745514]}}, {"type": "Feature", "properties": {"point_type": "turbine", "turbinemod": "MHI V164-9.5", "oem": "MHI Vestas", "foundation": "Jacket", "water_dept": -51, "turbine_mw": 9.5, "distance_to_shore": 34288, "tippecanoe_feature_density": 0}, "geometry": {"type": "Point", "coordinates": [-2.602386474609375, 58.23654913264278]}}, {"type": "Feature", "properties": {"point_type": "turbine", "turbinemod": "MHI V164-9.5", "oem": "MHI Vestas", "foundation": "Jacket", "water_dept": -51, "turbine_mw": 9.5, "distance_to_shore": 34670, "tippecanoe_feature_density": 0}, "geometry": {"type": "Point", "coordinates": [-2.605133056640625, 58.22570369041097]}}, {"type": "Feature", "properties": {"point_type": "turbine", "turbinemod": "MHI V164-9.5", "oem": "MHI Vestas", "foundation": "Jacket", "water_dept": -53, "turbine_mw": 9.5, "distance_to_shore": 37599, "tippecanoe_feature_density": 0}, "geometry": {"type": "Point", "coordinates": [-2.605133056640625, 58.17504778025119]}}, {"type": "Feature", "properties": {"point_type": "turbine", "turbinemod": "MHI V164-9.5", "oem": "MHI Vestas", "foundation": "Jacket", "water_dept": -51, "turbine_mw": 9.5, "distance_to_shore": 37009, "tippecanoe_feature_density": 0}, "geometry": {"type": "Point", "coordinates": [-2.632598876953125, 58.16490792851806]}}, {"type": "Feature", "properties": {"point_type": "turbine", "turbinemod": "MHI V164-9.5", "oem": "MHI Vestas", "foundation": "Jacket", "water_dept": -52, "turbine_mw": 9.5, "distance_to_shore": 37688, "tippecanoe_feature_density": 0}, "geometry": {"type": "Point", "coordinates": [-2.632598876953125, 58.15476518570205]}}, {"type": "Feature", "properties": {"point_type": "turbine", "turbinemod": "MHI V164-9.5", "oem": "MHI Vestas", "foundation": "Jacket", "water_dept": -52, "turbine_mw": 9.5, "distance_to_shore": 38258, "tippecanoe_feature_density": 0}, "geometry": {"type": "Point", "coordinates": [-2.605133056640625, 58.16490792851806]}}, {"type": "Feature", "properties": {"point_type": "turbine", "turbinemod": "MHI V164-9.5", "oem": "MHI Vestas", "foundation": "Jacket", "water_dept": -52, "turbine_mw": 9.5, "distance_to_shore": 38935, "tippecanoe_feature_density": 0}, "geometry": {"type": "Point", "coordinates": [-2.605133056640625, 58.15476518570205]}}, {"type": "Feature", "properties": {"point_type": "turbine", "turbinemod": "MHI V164-9.5", "oem": "MHI Vestas", "foundation": "Jacket", "water_dept": -52, "turbine_mw": 9.5, "distance_to_shore": 38366, "tippecanoe_feature_density": 0}, "geometry": {"type": "Point", "coordinates": [-2.632598876953125, 58.1446195512967]}}, {"type": "Feature", "properties": {"point_type": "turbine", "turbinemod": "MHI V164-9.5", "oem": "MHI Vestas", "foundation": "Jacket", "water_dept": -51, "turbine_mw": 9.5, "distance_to_shore": 39045, "tippecanoe_feature_density": 0}, "geometry": {"type": "Point", "coordinates": [-2.632598876953125, 58.134471024795914]}}]}