{"type": "FeatureCollection", "features": [{"type": "Feature", "properties": {"wf_develop": "Ocean Winds", "turbine_mo": "V164-9.5", "fou_type": "Jacket", "wtg_hubhei": 105, "wtg_oem": "Vestas", "cod": "2022-04-01T00:00:00", "wf_name": "Moray East", "status": "Fully Commissioned", "no_turbine": 100, "country": "United Kingdom", "capacity_m": 950, "wf_owners": "EDP Renovaveis/Three Gorges/Diamond Generating Europe/Mitsubishi/Kansai Electric Power/ENGIE", "tippecanoe_feature_density": 0}, "geometry": {"type": "Polygon", "coordinates": [[[-2.57080078125, 58.21919483374279], [-2.569427490234375, 58.134471024795914], [-2.912750244140625, 58.065529587363926], [-2.9094969071163557, 58.067175248924045], [-2.91412353515625, 58.066255980884534], [-2.8923100614179686, 58.07586900892939], [-2.88116455078125, 58.081506831966436], [-2.8688017882230725, 58.09021983113834], [-2.8564453125, 58.09965411352832], [-2.851674036497419, 58.10511559270769], [-2.841339111328125, 58.11851749586461], [-2.83721923828125, 58.12866912166372], [-2.83447265625, 58.13882074746283], [-2.83447265625, 58.15983691852708], [-2.8399658203125, 58.17504778025119], [-2.85369873046875, 58.19242365848862], [-2.85878635891542, 58.19701943848181], [-2.874298095703125, 58.20979104452482], [-2.8399658203125, 58.22714994091527], [-2.7850341796875, 58.26473177108073], [-2.75482177734375, 58.296500681194715], [-2.746578922376411, 58.309491356668275], [-2.7465789223763997, 58.309491356668296], [-2.73834228515625, 58.32319339283964], [-2.57080078125, 58.21919483374279]]]}}]}