{"type": "FeatureCollection", "features": [{"type": "Feature", "properties": {"point_type": "substation", "distance_to_shore": 54372, "foundation": "Jacket", "item": "Substation", "jacket_weight": 1100, "seabed_soil": "Sand", "sub_name": "ME-OSP2", "topside_manufacture": "Smulders", "topside_weight": 1252, "water_dept": -43, "wf_name": "Moray East", "tippecanoe_feature_density": 0}, "geometry": {"type": "Point", "coordinates": [-2.735595703125, 58.21702494960189]}}, {"type": "Feature", "properties": {"point_type": "substation", "distance_to_shore": 63471, "foundation": "Jacket", "item": "Substation", "jacket_weight": 1100, "seabed_soil": "Coarse-grained sediment", "sub_name": "ME-OSP1", "topside_manufacture": "Smulders", "topside_weight": 1252, "water_dept": -48, "wf_name": "Moray East", "tippecanoe_feature_density": 0}, "geometry": {"type": "Point", "coordinates": [-2.7630615234375, 58.12576998553985]}}, {"type": "Feature", "properties": {"point_type": "substation", "distance_to_shore": 67862, "foundation": "Jacket", "item": "Substation", "jacket_weight": 1100, "seabed_soil": "Coarse-grained sediment", "sub_name": "ME-OSP3", "topside_manufacture": "Smulders", "topside_weight": 1252, "water_dept": -50, "wf_name": "Moray East", "tippecanoe_feature_density": 0}, "geometry": {"type": "Point", "coordinates": [-2.65869140625, 58.16490792851806]}}, {"type": "Feature", "properties": {"point_type": "substation", "distance_to_shore": 54372, "foundation": "Jacket", "item": "Substation", "jacket_weight": 1100, "seabed_soil": "Sand", "sub_name": "ME-OSP2", "topside_manufacture": "Smulders", "topside_weight": 1252, "water_dept": -43, "wf_name": "Moray East", "tippecanoe_feature_density": 0}, "geometry": {"type": "Point", "coordinates": [-2.736968994140625, 58.21702494960189]}}, {"type": "Feature", "properties": {"point_type": "substation", "distance_to_shore": 67862, "foundation": "Jacket", "item": "Substation", "jacket_weight": 1100, "seabed_soil": "Coarse-grained sediment", "sub_name": "ME-OSP3", "topside_manufacture": "Smulders", "topside_weight": 1252, "water_dept": -50, "wf_name": "Moray East", "tippecanoe_feature_density": 0}, "geometry": {"type": "Point", "coordinates": [-2.65869140625, 58.16563229951362]}}]}