{"type": "FeatureCollection", "features": [{"type": "Feature", "properties": {"point_type": "substation", "distance_to_shore": 36030, "foundation": "Jacket", "item": "Substation", "seabed_soil": "Sand", "sub_name": "NNG-OSS-N", "topside_manufacture": "HSM Offshore Energy", "topside_weight": 1200, "water_dept": -51, "wf_name": "Neart na Gaoithe", "tippecanoe_feature_density": 0}, "geometry": {"type": "Point", "coordinates": [-2.252197265625, 56.27386144604574]}}, {"type": "Feature", "properties": {"point_type": "substation", "distance_to_shore": 38124, "foundation": "Jacket", "item": "Substation", "seabed_soil": "Sand", "sub_name": "NNG-OSS-S", "topside_manufacture": "HSM Offshore Energy", "topside_weight": 1200, "water_dept": -48, "wf_name": "Neart na Gaoithe", "tippecanoe_feature_density": 0}, "geometry": {"type": "Point", "coordinates": [-2.23846435546875, 56.243349924105246]}}, {"type": "Feature", "properties": {"point_type": "substation", "distance_to_shore": 36030, "foundation": "Jacket", "item": "Substation", "seabed_soil": "Sand", "sub_name": "NNG-OSS-N", "topside_manufacture": "HSM Offshore Energy", "topside_weight": 1200, "water_dept": -51, "wf_name": "Neart na Gaoithe", "tippecanoe_feature_density": 0}, "geometry": {"type": "Point", "coordinates": [-2.253570556640625, 56.27386144604574]}}, {"type": "Feature", "properties": {"point_type": "substation", "distance_to_shore": 38124, "foundation": "Jacket", "item": "Substation", "seabed_soil": "Sand", "sub_name": "NNG-OSS-S", "topside_manufacture": "HSM Offshore Energy", "topside_weight": 1200, "water_dept": -48, "wf_name": "Neart na Gaoithe", "tippecanoe_feature_density": 0}, "geometry": {"type": "Point", "coordinates": [-2.239837646484375, 56.243349924105246]}}]}