{"type": "FeatureCollection", "features": [{"type": "Feature", "properties": {"wf_develop": "EDF Renewables", "turbine_mo": "SG 8.0-167 DD", "fou_type": "Jacket", "wtg_hubhei": 119.5, "wtg_oem": "Siemens Gamesa", "cod": "2025-07-24T00:00:00", "wf_name": "Neart na Gaoithe", "status": "Fully Commissioned", "no_turbine": 54, "country": "United Kingdom", "capacity_m": 448, "wf_owners": "ESB/EDF Energy Renewables", "tippecanoe_feature_density": 0}, "geometry": {"type": "Polygon", "coordinates": [[[-2.1533203125, 56.21128664026273], [-2.27142333984375, 56.21281407174655], [-2.3345947265625, 56.26318518028012], [-2.33734130859375, 56.29063241616282], [-2.297515869140625, 56.32948228964412], [-2.275543212890625, 56.33861769463613], [-2.248077392578125, 56.33633404840367], [-2.164306640625, 56.254794595477364], [-2.162933910554999, 56.248690770876046], [-2.1533203125, 56.21128664026273]]]}}]}