{"type": "FeatureCollection", "features": [{"type": "Feature", "properties": {"wf_develop": "SeaGreen Bravo  Alpha Wind Energy", "turbine_mo": "V164-10.0", "fou_type": "Jacket", "wtg_oem": "Vestas", "cod": "2031-12-31T00:00:00", "wf_name": "Seagreen 1A", "status": "Consent Authorised", "no_turbine": 36, "country": "United Kingdom", "capacity_m": 360, "wf_owners": "TotalEnergies, SSE Renewables", "tippecanoe_feature_density": 0}, "geometry": {"type": "Polygon", "coordinates": [[[-1.852569580078125, 56.582179097916196], [-1.792144775390625, 56.57537154375959], [-1.7866526002596963, 56.57348053759288], [-1.768798828125, 56.56856276386725], [-1.7666408523615373, 56.5626176072359], [-1.76605224609375, 56.561752758114665], [-1.7662726532443733, 56.56160323003106], [-1.76605224609375, 56.56099601513304], [-1.8017578125, 56.53677224709517], [-1.83197021484375, 56.54737205307899], [-1.84295654296875, 56.5413153844508], [-1.830596923828125, 56.53677224709517], [-1.847076416015625, 56.52692691283181], [-1.847253474965114, 56.52693911958568], [-1.84844970703125, 56.52616947342747], [-1.87042236328125, 56.527684337092666], [-1.8896458429355107, 56.524654836923155], [-1.889645842935548, 56.52465483692315], [-1.910247802734375, 56.52086697356606], [-1.9205476054668609, 56.524843894840586], [-1.92535400390625, 56.52616947342747], [-1.9390869140625, 56.52616947342747], [-1.9390869140625, 56.5957905295206], [-1.91986083984375, 56.589741609539345], [-1.89239501953125, 56.59427839029624], [-1.8731689453125, 56.59276619055882], [-1.863555908203125, 56.58747264423751], [-1.852569580078125, 56.582179097916196]]]}}]}