{"type": "FeatureCollection", "features": [{"type": "Feature", "properties": {"wf_develop": "TotalEnergies", "turbine_mo": "TBA", "fou_type": "Floating", "wf_name": "TotalEnergies E&P UK", "status": "Early Planning", "country": "United Kingdom", "capacity_m": 3, "wf_owners": "TotalEnergies E&P UK, TotalEnergies E&P North Sea, TotalEnergies Renewables UK", "tippecanoe_feature_density": 0}, "geometry": {"type": "Polygon", "coordinates": [[[1.8896484375, 57.19431985167856], [1.8896484375, 57.188367072384295], [1.88140869140625, 57.183901858311884], [1.8717956266340845, 57.18520426863344], [1.869049072265625, 57.18539032296755], [1.863555908203125, 57.18911122226146], [1.86492919921875, 57.19431985167856], [1.87042236328125, 57.198039851582024], [1.8759155826780967, 57.198039851582024], [1.88140869140625, 57.19878380659699], [1.8896484375, 57.19431985167856]]]}}]}