{"type": "FeatureCollection", "features": [{"type": "Feature", "properties": {"wf_develop": "Orsted", "turbine_mo": "SG 11.0-200 DD", "fou_type": "Monopile (TP Less)", "wtg_hubhei": 133, "wtg_oem": "Siemens Gamesa", "cod": "2026-03-31T00:00:00", "wf_name": "Revolution Wind", "status": "Under Construction", "no_turbine": 65, "country": "United States", "capacity_m": 704, "wf_owners": "\u00d8rsted, Skyborn Renewables", "tippecanoe_feature_density": 0}, "geometry": {"type": "MultiPolygon", "coordinates": [[[[-71.06266021728516, 41.2592268285089], [-71.06094360351562, 41.20526431968838], [-71.1038589477539, 41.20448941396151], [-71.10248565673828, 41.161338522901104], [-71.04515075683594, 41.162372409523385], [-71.04549407958984, 41.17322723430294], [-70.94558715820312, 41.17477777675836], [-70.9442138671875, 41.13160730762189], [-70.82988739013672, 41.13341741906527], [-70.8292007446289, 41.1119514544674], [-70.91503143310547, 41.110399425867314], [-70.91468811035156, 41.09979291516521], [-70.92910766601562, 41.09953419838084], [-70.92876434326172, 41.08866717321064], [-70.94284057617188, 41.08840841260633], [-70.94249725341797, 41.07753954704728], [-70.98541259765625, 41.07702193718447], [-70.98506927490234, 41.066151188538726], [-71.0708999633789, 41.064598077718074], [-71.07227325439453, 41.11324478360737], [-71.20101928710938, 41.11091677281064], [-71.19964599609375, 41.072880911548936], [-71.2137222290039, 41.07262208878544], [-71.21440887451172, 41.083491767508235], [-71.22848510742188, 41.08323298652331], [-71.22882843017578, 41.094100910500345], [-71.25732421875, 41.09358343107297], [-71.25869750976562, 41.1259180608036], [-71.17286682128906, 41.127469722495505], [-71.17252349853516, 41.116865969650235], [-71.14402770996094, 41.11738326563528], [-71.14505767822266, 41.14970617453724], [-71.25938415527344, 41.14763798539187], [-71.25972747802734, 41.158236765172745], [-71.24530792236328, 41.15849525059005], [-71.24565124511719, 41.169350717601446], [-71.23157501220703, 41.16960915918426], [-71.23191833496094, 41.18046278509976], [-71.21749877929688, 41.18072118284584], [-71.21818542480469, 41.20242295382758], [-71.20410919189453, 41.20268126491291], [-71.20445251464844, 41.21352940979034], [-71.19003295898438, 41.213787677032144], [-71.19037628173828, 41.22437575601833], [-71.17595672607422, 41.224892203830024], [-71.17630004882812, 41.235478485093836], [-71.16222381591797, 41.235736665661534], [-71.16291046142578, 41.257420192731786], [-71.14849090576172, 41.257678286616624], [-71.14883422851562, 41.268517308841126], [-71.13441467285156, 41.26877535887135], [-71.13475799560547, 41.27961253915379], [-71.12068176269531, 41.2798705453271], [-71.1199951171875, 41.25819447132679], [-71.06266021728516, 41.2592268285089]]], [[[-71.27861022949219, 41.287610256243255], [-71.27792358398438, 41.27677440393049], [-71.29234313964844, 41.276516385517795], [-71.29302978515625, 41.29818637656061], [-71.26453399658203, 41.29870224100776], [-71.26419067382812, 41.28786823079747], [-71.27861022949219, 41.287610256243255]]]]}}]}