{"type": "FeatureCollection", "features": [{"type": "Feature", "properties": {"point_type": "turbine", "turbinemod": "SWT-3.6-107", "oem": "Siemens", "foundation": "Monopile", "water_dept": -4, "turbine_mw": 3.6, "distance_to_shore": 9992, "tippecanoe_feature_density": 0}, "geometry": {"type": "Point", "coordinates": [-3.2186508178710938, 53.501933878340424]}}, {"type": "Feature", "properties": {"point_type": "turbine", "turbinemod": "SWT-3.6-107", "oem": "Siemens", "foundation": "Monopile", "water_dept": -5, "turbine_mw": 3.6, "distance_to_shore": 10449, "tippecanoe_feature_density": 0}, "geometry": {"type": "Point", "coordinates": [-3.2220840454101562, 53.494990275789235]}}, {"type": "Feature", "properties": {"point_type": "turbine", "turbinemod": "SWT-3.6-107", "oem": "Siemens", "foundation": "Monopile", "water_dept": -5, "turbine_mw": 3.6, "distance_to_shore": 9727, "tippecanoe_feature_density": 0}, "geometry": {"type": "Point", "coordinates": [-3.2128143310546875, 53.498666442319774]}}, {"type": "Feature", "properties": {"point_type": "turbine", "turbinemod": "SWT-3.6-107", "oem": "Siemens", "foundation": "Monopile", "water_dept": -5, "turbine_mw": 3.6, "distance_to_shore": 10185, "tippecanoe_feature_density": 0}, "geometry": {"type": "Point", "coordinates": [-3.2159042358398438, 53.491518048075704]}}, {"type": "Feature", "properties": {"point_type": "turbine", "turbinemod": "SWT-3.6-107", "oem": "Siemens", "foundation": "Monopile", "water_dept": -6, "turbine_mw": 3.6, "distance_to_shore": 9901, "tippecanoe_feature_density": 0}, "geometry": {"type": "Point", "coordinates": [-3.2097244262695312, 53.48824980933938]}}, {"type": "Feature", "properties": {"point_type": "turbine", "turbinemod": "SWT-3.6-107", "oem": "Siemens", "foundation": "Monopile", "water_dept": -2, "turbine_mw": 3.6, "distance_to_shore": 8998, "tippecanoe_feature_density": 0}, "geometry": {"type": "Point", "coordinates": [-3.2028579711914062, 53.501933878340424]}}, {"type": "Feature", "properties": {"point_type": "turbine", "turbinemod": "SWT-3.6-107", "oem": "Siemens", "foundation": "Monopile", "water_dept": -6, "turbine_mw": 3.6, "distance_to_shore": 9444, "tippecanoe_feature_density": 0}, "geometry": {"type": "Point", "coordinates": [-3.2062911987304688, 53.49519451562466]}}, {"type": "Feature", "properties": {"point_type": "turbine", "turbinemod": "SWT-3.6-107", "oem": "Siemens", "foundation": "Monopile", "water_dept": -6, "turbine_mw": 3.6, "distance_to_shore": 9188, "tippecanoe_feature_density": 0}, "geometry": {"type": "Point", "coordinates": [-3.2001113891601562, 53.491518048075704]}}, {"type": "Feature", "properties": {"point_type": "turbine", "turbinemod": "SWT-3.6-107", "oem": "Siemens", "foundation": "Monopile", "water_dept": -4, "turbine_mw": 3.6, "distance_to_shore": 8731, "tippecanoe_feature_density": 0}, "geometry": {"type": "Point", "coordinates": [-3.1966781616210938, 53.498666442319774]}}, {"type": "Feature", "properties": {"point_type": "turbine", "turbinemod": "SWT-3.6-107", "oem": "Siemens", "foundation": "Monopile", "water_dept": -5, "turbine_mw": 3.6, "distance_to_shore": 8449, "tippecanoe_feature_density": 0}, "geometry": {"type": "Point", "coordinates": [-3.1904983520507812, 53.49519451562466]}}, {"type": "Feature", "properties": {"point_type": "turbine", "turbinemod": "SWT-3.6-107", "oem": "Siemens", "foundation": "Monopile", "water_dept": -5, "turbine_mw": 3.6, "distance_to_shore": 8923, "tippecanoe_feature_density": 0}, "geometry": {"type": "Point", "coordinates": [-3.1939315795898438, 53.48824980933938]}}, {"type": "Feature", "properties": {"point_type": "turbine", "turbinemod": "SWT-3.6-107", "oem": "Siemens", "foundation": "Monopile", "water_dept": -4, "turbine_mw": 3.6, "distance_to_shore": 8183, "tippecanoe_feature_density": 0}, "geometry": {"type": "Point", "coordinates": [-3.1843185424804688, 53.49192656020995]}}, {"type": "Feature", "properties": {"point_type": "turbine", "turbinemod": "SWT-3.6-107", "oem": "Siemens", "foundation": "Monopile", "water_dept": -3, "turbine_mw": 3.6, "distance_to_shore": 7918, "tippecanoe_feature_density": 0}, "geometry": {"type": "Point", "coordinates": [-3.1781387329101562, 53.488454081638736]}}, {"type": "Feature", "properties": {"point_type": "turbine", "turbinemod": "SWT-3.6-107", "oem": "Siemens", "foundation": "Monopile", "water_dept": -6, "turbine_mw": 3.6, "distance_to_shore": 9521, "tippecanoe_feature_density": 0}, "geometry": {"type": "Point", "coordinates": [-3.2035446166992188, 53.48477702972815]}}, {"type": "Feature", "properties": {"point_type": "turbine", "turbinemod": "SWT-3.6-107", "oem": "Siemens", "foundation": "Monopile", "water_dept": -6, "turbine_mw": 3.6, "distance_to_shore": 8999, "tippecanoe_feature_density": 0}, "geometry": {"type": "Point", "coordinates": [-3.1973648071289062, 53.481303965790545]}}, {"type": "Feature", "properties": {"point_type": "turbine", "turbinemod": "SWT-3.6-107", "oem": "Siemens", "foundation": "Monopile", "water_dept": -5, "turbine_mw": 3.6, "distance_to_shore": 8640, "tippecanoe_feature_density": 0}, "geometry": {"type": "Point", "coordinates": [-3.1877517700195312, 53.48498131875229]}}, {"type": "Feature", "properties": {"point_type": "turbine", "turbinemod": "SWT-3.6-107", "oem": "Siemens", "foundation": "Monopile", "water_dept": -6, "turbine_mw": 3.6, "distance_to_shore": 8470, "tippecanoe_feature_density": 0}, "geometry": {"type": "Point", "coordinates": [-3.1911849975585938, 53.47803493999152]}}, {"type": "Feature", "properties": {"point_type": "turbine", "turbinemod": "SWT-3.6-107", "oem": "Siemens", "foundation": "Monopile", "water_dept": -5, "turbine_mw": 3.6, "distance_to_shore": 8374, "tippecanoe_feature_density": 0}, "geometry": {"type": "Point", "coordinates": [-3.1815719604492188, 53.48171257630568]}}, {"type": "Feature", "properties": {"point_type": "turbine", "turbinemod": "SWT-3.6-107", "oem": "Siemens", "foundation": "Monopile", "water_dept": -6, "turbine_mw": 3.6, "distance_to_shore": 7990, "tippecanoe_feature_density": 0}, "geometry": {"type": "Point", "coordinates": [-3.175048828125, 53.47823926148308]}}, {"type": "Feature", "properties": {"point_type": "turbine", "turbinemod": "SWT-3.6-107", "oem": "Siemens", "foundation": "Monopile", "water_dept": -4, "turbine_mw": 3.6, "distance_to_shore": 7634, "tippecanoe_feature_density": 0}, "geometry": {"type": "Point", "coordinates": [-3.1719589233398438, 53.485185606792584]}}, {"type": "Feature", "properties": {"point_type": "turbine", "turbinemod": "SWT-3.6-107", "oem": "Siemens", "foundation": "Monopile", "water_dept": -4, "turbine_mw": 3.6, "distance_to_shore": 7378, "tippecanoe_feature_density": 0}, "geometry": {"type": "Point", "coordinates": [-3.1657791137695312, 53.48171257630568]}}, {"type": "Feature", "properties": {"point_type": "turbine", "turbinemod": "SWT-3.6-107", "oem": "Siemens", "foundation": "Monopile", "water_dept": -7, "turbine_mw": 3.6, "distance_to_shore": 7949, "tippecanoe_feature_density": 0}, "geometry": {"type": "Point", "coordinates": [-3.1850051879882812, 53.474765662314326]}}, {"type": "Feature", "properties": {"point_type": "turbine", "turbinemod": "SWT-3.6-107", "oem": "Siemens", "foundation": "Monopile", "water_dept": -3, "turbine_mw": 3.6, "distance_to_shore": 6639, "tippecanoe_feature_density": 0}, "geometry": {"type": "Point", "coordinates": [-3.1561660766601562, 53.485185606792584]}}, {"type": "Feature", "properties": {"point_type": "turbine", "turbinemod": "SWT-3.6-107", "oem": "Siemens", "foundation": "Monopile", "water_dept": -5, "turbine_mw": 3.6, "distance_to_shore": 7112, "tippecanoe_feature_density": 0}, "geometry": {"type": "Point", "coordinates": [-3.1595993041992188, 53.47823926148308]}}, {"type": "Feature", "properties": {"point_type": "turbine", "turbinemod": "SWT-3.6-107", "oem": "Siemens", "foundation": "Monopile", "water_dept": -4, "turbine_mw": 3.6, "distance_to_shore": 6372, "tippecanoe_feature_density": 0}, "geometry": {"type": "Point", "coordinates": [-3.1499862670898438, 53.48191688008748]}}]}