{"type": "FeatureCollection", "features": [{"type": "Feature", "properties": {"wf_develop": "JERA Nex bp/EnBW", "turbine_mo": "TBA", "fou_type": "Monopile", "cod": "2030-01-01T00:00:00", "wf_name": "Mona", "status": "Consent Authorised", "no_turbine": 96, "country": "United Kingdom", "capacity_m": 1500, "wf_owners": "JERA Nex bp/EnBW", "tippecanoe_feature_density": 0}, "geometry": {"type": "Polygon", "coordinates": [[[-4.065971374511719, 53.944367137762924], [-3.9890670776367188, 53.9093944380397], [-3.986663818359375, 53.907371998780945], [-3.8689041137695312, 53.766572431861704], [-3.8627243041992188, 53.76068705042033], [-3.7109756469726562, 53.667832593011326], [-3.70513916015625, 53.66193337984055], [-3.702392578125, 53.656440266601976], [-3.7013626098632812, 53.60961805205298], [-3.7068557739257812, 53.60452554962529], [-3.7109756469726562, 53.60004363950398], [-3.7113189697265625, 53.59963616954698], [-3.9049530029296875, 53.59820999374486], [-3.9190292358398438, 53.599432433094535], [-3.9341354370117188, 53.6012660257924], [-3.97430419921875, 53.60737742664011], [-4.016876220703125, 53.615728244397786], [-4.0326690673828125, 53.62041212639167], [-4.046058654785156, 53.62692796727171], [-4.052238464355469, 53.631814187804395], [-4.056358337402344, 53.63629272626102], [-4.059104919433594, 53.75622172801522], [-4.0601348876953125, 53.780369401944824], [-4.056358337402344, 53.79436463347383], [-4.049491882324219, 53.804705934586735], [-4.044342041015625, 53.81524738076183], [-4.03472900390625, 53.8314598143875], [-4.031639099121094, 53.851311497058475], [-4.037818908691406, 53.88167850008247], [-4.057731628417969, 53.89968583646359], [-4.078330993652344, 53.913236802844125], [-4.0924072265625, 53.92860272719932], [-4.094123840332031, 53.93688989068622], [-4.0889739990234375, 53.94254847127738], [-4.079017639160156, 53.94477127510302], [-4.065971374511719, 53.944367137762924]]]}}]}