{"type": "FeatureCollection", "features": [{"type": "Feature", "properties": {"wf_develop": "NWP Offshore Ltd", "turbine_mo": "V80-2.0", "fou_type": "Monopile", "wtg_hubhei": 67, "wtg_oem": "Vestas", "cod": "2003-12-01T00:00:00", "wf_name": "North Hoyle", "status": "Fully Commissioned", "no_turbine": 30, "country": "United Kingdom", "capacity_m": 60, "wf_owners": "Greencoat UK Wind", "tippecanoe_feature_density": 0}, "geometry": {"type": "Polygon", "coordinates": [[[-3.4150314331054688, 53.41035045204762], [-3.4740829467773438, 53.40339185871528], [-3.481292724609375, 53.4248779622242], [-3.4218978881835938, 53.43121940315871], [-3.4150314331054688, 53.41035045204762]]]}}]}