{"type": "FeatureCollection", "features": [{"type": "Feature", "properties": {"item": "export", "manufacturer": "Nexans", "length_m": 99548, "shared_with_farms": ["Sunrise Wind", "South Fork Wind"]}, "geometry": {"type": "MultiLineString", "coordinates": [[[-71.7462158203125, 40.97056664236638], [-71.73316955566406, 40.97860211698972]], [[-71.73316955566406, 40.97860211698972], [-71.72561645507812, 40.98248989849304], [-71.72046783788988, 40.98611732554118]], [[-71.72046783788988, 40.98611732554118], [-71.71760546801413, 40.98813399089606]], [[-71.71760546801413, 40.98813399089606], [-71.71531677246094, 40.98974647748247], [-71.70021057128906, 40.999334303475734], [-71.69844490397494, 41.000074618142264]], [[-71.69844490397494, 41.000074618142264], [-71.6971206665039, 41.00062984868538]], [[-71.73316955566406, 40.97860211698972], [-71.72561645507812, 40.98223072018905], [-71.72046783788988, 40.98611732554118]], [[-71.72046783788988, 40.98611732554118], [-71.71875, 40.987414092749304], [-71.71760546801413, 40.98813399089606]], [[-71.71760546801413, 40.98813399089606], [-71.70021057128906, 40.99907519137798], [-71.69844490397494, 41.000074618142264]], [[-71.69844490397494, 41.000074618142264], [-71.69746398925781, 41.00062984868538], [-71.60442352294922, 41.02446333535116], [-71.58554077148438, 41.02912540032224], [-71.44786834716797, 41.0317152937929], [-71.42314910888672, 41.0317152937929], [-71.39533996582031, 41.03223326026193], [-71.35311126708984, 41.0324922419683], [-71.34212493896484, 41.03326918097483], [-71.3338851928711, 41.03275122265592], [-71.32255554199219, 41.03275122265592], [-71.30229949951172, 41.03378713521863], [-71.29783630371094, 41.035340973499586], [-71.28307342529297, 41.04751143778827], [-71.2789535522461, 41.049323867571616], [-71.2738037109375, 41.05553753352862], [-71.26934051513672, 41.057867506959866], [-71.26075744628906, 41.05916190098276], [-71.25560760498047, 41.05864414643028], [-71.24393463134766, 41.05942077673066], [-71.22608184814453, 41.058903024215994], [-71.2188720703125, 41.05993852516974], [-71.2130355834961, 41.05942077673066], [-71.1855697631836, 41.07365737372555], [-71.1749267578125, 41.07779835045022], [-71.17218017578125, 41.07779835045022], [-71.16806030273438, 41.07598670523103]]]}}, {"type": "Feature", "properties": {"item": "export", "manufacturer": null, "length_m": 75349, "shared_with_farms": null}, "geometry": {"type": "LineString", "coordinates": [[-71.42623901367188, 41.586174776828045], [-71.42417907714844, 41.57924104503638], [-71.42280578613281, 41.57718646300546], [-71.41559600830078, 41.56973805523003], [-71.40872955322266, 41.56485759823758], [-71.40083312988281, 41.55098481291705], [-71.3998031616211, 41.54918627087085], [-71.39911651611328, 41.54122069749329], [-71.39705657958984, 41.53119809844284], [-71.39705657958984, 41.52888497041329], [-71.39945983886719, 41.51963163123415], [-71.40117645263672, 41.51731808967821], [-71.40426635742188, 41.51500446541942], [-71.4056396484375, 41.51294784109379], [-71.40872955322266, 41.50497780464056], [-71.40907287597656, 41.50266373931376], [-71.40838623046875, 41.48980631493987], [-71.40735626220703, 41.47463127147779], [-71.40769958496094, 41.46691378485315], [-71.41044616699219, 41.44735870701865], [-71.41044616699219, 41.44375581277325], [-71.40941619873047, 41.43912322621114], [-71.40666961669922, 41.433975519951275], [-71.40083312988281, 41.41852995163521], [-71.39739990234375, 41.4156978655642], [-71.39293670654297, 41.41415303929429], [-71.3895034790039, 41.41415303929429], [-71.37096405029297, 41.415955333037175], [-71.3675308227539, 41.415440397070626], [-71.36306762695312, 41.41389556467732], [-71.35929107666016, 41.41080578966981], [-71.35448455810547, 41.40308070920773], [-71.34899139404297, 41.3912338019793], [-71.34418487548828, 41.38711263243965], [-71.33834838867188, 41.38376398983456], [-71.334228515625, 41.37886950966322], [-71.33045196533203, 41.37680856570236], [-71.32736206054688, 41.37655094311543], [-71.31534576416016, 41.37629331950811], [-71.29955291748047, 41.377066187268866], [-71.27689361572266, 41.378611895239516], [-71.25732421875, 41.38196080315538], [-71.24462127685547, 41.382476004451576], [-71.23947143554688, 41.38170320097666], [-71.2350082397461, 41.379127123066496], [-71.23329162597656, 41.37655094311543], [-71.23260498046875, 41.373974661124606], [-71.23294830322266, 41.2966387587382], [-71.23191833496094, 41.278838514514064], [-71.23260498046875, 41.27032363763465], [-71.23191833496094, 41.267227043391586], [-71.23260498046875, 41.26438836965207], [-71.23191833496094, 41.24012557929038], [-71.23157501220703, 41.232896623330845], [-71.2298583984375, 41.22876543240588], [-71.22711181640625, 41.22618330551458], [-71.2192153930664, 41.22076050713119], [-71.21475219726562, 41.218952807741175], [-71.20925903320312, 41.21791981422845], [-71.1416244506836, 41.22076050713119], [-71.13853454589844, 41.220502267420216], [-71.13544464111328, 41.219211053570206], [-71.13304138183594, 41.217145058387416], [-71.12823486328125, 41.21017184286001], [-71.12411499023438, 41.209138710675575], [-71.12136840820312, 41.207330690097365], [-71.11312866210938, 41.19363977027871], [-71.11278533935547, 41.190022822717054], [-71.1148452758789, 41.15875373498798], [-71.114501953125, 41.156168845136705], [-71.11347198486328, 41.154100859861046], [-71.1086654663086, 41.14970617453724], [-71.10523223876953, 41.148155038794215], [-71.08531951904297, 41.14737945716172], [-71.0811996459961, 41.146345334047794], [-71.07810974121094, 41.143759954910706], [-71.07467651367188, 41.135227480564936], [-71.07227325439453, 41.13290024946343], [-71.070556640625, 41.13186589802868], [-71.06334686279297, 41.13005574377672], [-71.0592269897461, 41.127728329210186]]}}, {"type": "Feature", "properties": {"item": "export", "manufacturer": null, "length_m": 62479, "shared_with_farms": null}, "geometry": {"type": "LineString", "coordinates": [[-71.42658233642578, 41.586174776828045], [-71.4224624633789, 41.57076547288284], [-71.41902923583984, 41.56742630576832], [-71.41181945800781, 41.564086966064366], [-71.41010284423828, 41.562802558684496], [-71.40254974365234, 41.55021401530996], [-71.40117645263672, 41.54635988941769], [-71.3998031616211, 41.53428214049228], [-71.39808654785156, 41.52862795108243], [-71.40083312988281, 41.520145740348596], [-71.40701293945312, 41.51294784109379], [-71.41010284423828, 41.502406615839305], [-71.40838623046875, 41.47540296960938], [-71.4111328125, 41.459452674486556], [-71.4111328125, 41.451990705653486], [-71.41216278076172, 41.44375581277325], [-71.41216278076172, 41.44143956083008], [-71.41044616699219, 41.436292038291214], [-71.40632629394531, 41.429084820851415], [-71.40357971191406, 41.4208470211133], [-71.40186309814453, 41.417500116442966], [-71.39842987060547, 41.41492545702181], [-71.39328002929688, 41.413380612381644], [-71.38126373291016, 41.41363808903975], [-71.37714385986328, 41.41415303929429], [-71.36924743652344, 41.4144105128907], [-71.36615753173828, 41.41389556467732], [-71.36341094970703, 41.41286565600379], [-71.36100769042969, 41.41054830178558], [-71.35723114013672, 41.40462579877837], [-71.35242462158203, 41.39200649218489], [-71.3510513305664, 41.389945964560695], [-71.34178161621094, 41.382218404313704], [-71.33285522460938, 41.37680856570236], [-71.33010864257812, 41.3757780692323], [-71.32255554199219, 41.37500518616565], [-71.28170013427734, 41.377066187268866], [-71.25938415527344, 41.38015756647556], [-71.24805450439453, 41.38041517477677], [-71.24393463134766, 41.379899957153924], [-71.2408447265625, 41.37809666333095], [-71.23912811279297, 41.376035694880414], [-71.23844146728516, 41.373717027313376], [-71.23432159423828, 41.28941605670289], [-71.23329162597656, 41.278322492987854], [-71.23397827148438, 41.2747102280708], [-71.2350082397461, 41.263872233895455], [-71.23432159423828, 41.238318415252394], [-71.23397827148438, 41.23599484520952], [-71.2302017211914, 41.2266997390505], [-71.22711181640625, 41.22256815655703], [-71.22264862060547, 41.218694560892516], [-71.2192153930664, 41.217403311354076], [-71.21337890625, 41.2166285493951], [-71.18385314941406, 41.217403311354076], [-71.14025115966797, 41.21972754216924], [-71.13716125488281, 41.218694560892516], [-71.13475799560547, 41.217403311354076], [-71.13166809082031, 41.212754601947125], [-71.12857818603516, 41.21017184286001]]}}]}