{"type": "FeatureCollection", "features": [{"type": "Feature", "properties": {"wf_id": "RI01_USA", "lenght_m": 1834, "tippecanoe_feature_density": 0}, "geometry": {"type": "MultiLineString", "coordinates": [[[-71.19380950927734, 41.1920896743641], [-71.21578216552734, 41.1918313214766]], [[-71.23706817626953, 41.15771979127999], [-71.24359130859375, 41.15849525059005], [-71.25869750976562, 41.157461302804535]], [[-71.21543884277344, 41.17503619693284], [-71.21440887451172, 41.16547397152766], [-71.21475219726562, 41.15849525059005]], [[-71.21509552001953, 41.158236765172745], [-71.23672485351562, 41.15771979127999]], [[-71.19312286376953, 41.17555303422341], [-71.1965560913086, 41.17606986743613], [-71.19895935058594, 41.17555303422341], [-71.21509552001953, 41.17503619693284]], [[-71.15089416503906, 41.22618330551458], [-71.17286682128906, 41.225925087217064]], [[-71.17218017578125, 41.209138710675575], [-71.18350982666016, 41.20836385083118], [-71.19415283203125, 41.208880425080395]], [[-71.17183685302734, 41.192606377080494], [-71.19380950927734, 41.1920896743641]], [[-71.14986419677734, 41.19312307571869], [-71.15467071533203, 41.19828983779905], [-71.15432739257812, 41.202164641722675], [-71.1529541015625, 41.20603921623879], [-71.15467071533203, 41.20836385083118], [-71.15673065185547, 41.208880425080395], [-71.17218017578125, 41.209138710675575]], [[-71.14986419677734, 41.19286472690936], [-71.1526107788086, 41.19234802623208], [-71.15741729736328, 41.19286472690936], [-71.17149353027344, 41.192606377080494]], [[-71.12857818603516, 41.2266997390505], [-71.13853454589844, 41.2266997390505], [-71.15089416503906, 41.22618330551458]], [[-71.12823486328125, 41.21017184286001], [-71.12823486328125, 41.22179345577834], [-71.12857818603516, 41.2266997390505]], [[-71.12857818603516, 41.2266997390505], [-71.11930847167969, 41.2266997390505], [-71.11141204833984, 41.2274743817066], [-71.10660552978516, 41.227216168507596]], [[-71.12823486328125, 41.21017184286001], [-71.13235473632812, 41.21043012335707], [-71.13407135009766, 41.20991356134334], [-71.13475799560547, 41.208622138465614], [-71.13544464111328, 41.20423111001335], [-71.13475799560547, 41.19854816519768], [-71.136474609375, 41.19286472690936], [-71.14025115966797, 41.1918313214766], [-71.14574432373047, 41.191314612643], [-71.14952087402344, 41.19286472690936]], [[-71.12823486328125, 41.21017184286001], [-71.12411499023438, 41.20836385083118], [-71.12308502197266, 41.206555808841046], [-71.1258316040039, 41.18408026077117], [-71.12823486328125, 41.18072118284584], [-71.12823486328125, 41.179429183920604], [-71.12720489501953, 41.176845109609246]], [[-71.12823486328125, 41.21017184286001], [-71.12445831298828, 41.20526431968838], [-71.12754821777344, 41.19338142350847]], [[-71.12823486328125, 41.21017184286001], [-71.12480163574219, 41.21146323514898], [-71.11209869384766, 41.21120495873046], [-71.1093521118164, 41.21068840283448], [-71.10626220703125, 41.21043012335707]], [[-71.10626220703125, 41.21043012335707], [-71.10591888427734, 41.1938981160294]], [[-71.10591888427734, 41.19363977027871], [-71.10591888427734, 41.191314612643], [-71.10488891601562, 41.18924773652711], [-71.10523223876953, 41.17736193262732]], [[-71.12823486328125, 41.21017184286001], [-71.13201141357422, 41.209396995251126], [-71.13372802734375, 41.20707239736487], [-71.13338470458984, 41.192606377080494], [-71.13475799560547, 41.190022822717054], [-71.1416244506836, 41.185113788546744], [-71.14334106445312, 41.18252993852275], [-71.1478042602539, 41.17968758574463], [-71.14986419677734, 41.17891237721415], [-71.17149353027344, 41.17891237721415], [-71.17767333984375, 41.176845109609246], [-71.19312286376953, 41.17555303422341]], [[-71.17115020751953, 41.17581145133951], [-71.17080688476562, 41.159529182065484]], [[-71.17080688476562, 41.1592707007257], [-71.1910629272461, 41.15875373498798]], [[-71.14917755126953, 41.17632828251331], [-71.15535736083984, 41.17606986743613], [-71.17115020751953, 41.17581145133951]], [[-71.12754821777344, 41.19338142350847], [-71.14437103271484, 41.180204386334225], [-71.1474609375, 41.17839556642977], [-71.14917755126953, 41.17658669657101]], [[-71.17080688476562, 41.1592707007257], [-71.14883422851562, 41.159529182065484]], [[-71.12720489501953, 41.176845109609246], [-71.12857818603516, 41.17477777675836], [-71.12686157226562, 41.169867599747676], [-71.12617492675781, 41.1634062798353], [-71.12686157226562, 41.160046141686905]], [[-71.12686157226562, 41.160046141686905], [-71.11621856689453, 41.15022321163025], [-71.11209869384766, 41.14737945716172], [-71.08222961425781, 41.144277038892625]], [[-71.10523223876953, 41.17710352162803], [-71.10660552978516, 41.17012603929166], [-71.10694885253906, 41.16314781378642], [-71.10523223876953, 41.16056309723075]], [[-71.10660552978516, 41.227216168507596], [-71.08463287353516, 41.2274743817066]], [[-71.08463287353516, 41.2274743817066], [-71.06266021728516, 41.227990805045465]], [[-71.10626220703125, 41.21043012335707], [-71.09458923339844, 41.210946681292285], [-71.08428955078125, 41.210946681292285]], [[-71.08394622802734, 41.210946681292285], [-71.06231689453125, 41.21120495873046]], [[-71.06025695800781, 41.161338522901104], [-71.07845306396484, 41.1592707007257], [-71.08016967773438, 41.159529182065484], [-71.08257293701172, 41.16056309723075]], [[-71.0592269897461, 41.127728329210186], [-71.0599136352539, 41.12979714623515], [-71.06060028076172, 41.13057293580209], [-71.06849670410156, 41.13238307578456], [-71.07124328613281, 41.13471032523279], [-71.07707977294922, 41.144535579354624], [-71.07673645019531, 41.145828266374906], [-71.06986999511719, 41.15203280934642], [-71.06094360351562, 41.153842357114485], [-71.06025695800781, 41.15435936158826], [-71.0595703125, 41.15565185493398], [-71.06025695800781, 41.15875373498798], [-71.06025695800781, 41.161080048697045]], [[-71.08222961425781, 41.144277038892625], [-71.08051300048828, 41.141950128865744], [-71.07879638671875, 41.13833032693901], [-71.0757064819336, 41.13600320591868], [-71.07433319091797, 41.134193165823575], [-71.07467651367188, 41.13315883477398], [-71.07810974121094, 41.12850414323884], [-71.07879638671875, 41.127728329210186], [-71.08051300048828, 41.127469722495505]], [[-71.06025695800781, 41.161338522901104], [-71.04446411132812, 41.16185546825105], [-71.03828430175781, 41.16159699608576]], [[-71.0159683227539, 41.162372409523385], [-71.02386474609375, 41.16211393939693], [-71.03450775146484, 41.16082157347361], [-71.03828430175781, 41.16159699608576]], [[-71.0592269897461, 41.127728329210186], [-71.05716705322266, 41.129279948094364], [-71.04686737060547, 41.13315883477398], [-71.03759765625, 41.1450526572207]], [[-71.0592269897461, 41.127728329210186], [-71.05613708496094, 41.127728329210186], [-71.0544204711914, 41.12695250600842], [-71.0537338256836, 41.1259180608036], [-71.05270385742188, 41.12229737416507], [-71.05304718017578, 41.121262855576816], [-71.0592269897461, 41.11117544475354]], [[-71.03759765625, 41.1450526572207], [-71.03553771972656, 41.143242866851494], [-71.03553771972656, 41.142208678501476], [-71.03691101074219, 41.127469722495505]], [[-71.03691101074219, 41.127469722495505], [-71.03759765625, 41.111434115677326]], [[-71.0592269897461, 41.127728329210186], [-71.05510711669922, 41.1259180608036], [-71.0544204711914, 41.124883599291195], [-71.0540771484375, 41.122814627343985], [-71.0544204711914, 41.122038746046826], [-71.06163024902344, 41.111692785581965], [-71.06197357177734, 41.10651919385191], [-71.05819702148438, 41.09435964868544]], [[-71.0592269897461, 41.127728329210186], [-71.05613708496094, 41.12850414323884], [-71.0537338256836, 41.127986934905636], [-71.05304718017578, 41.12695250600842], [-71.05098724365234, 41.12229737416507], [-71.05545043945312, 41.11091677281064], [-71.05819702148438, 41.10807131417479], [-71.05819702148438, 41.10677788312023], [-71.05545043945312, 41.10238002695823], [-71.04789733886719, 41.09539459123508], [-71.03691101074219, 41.09047846890749], [-71.03313446044922, 41.09021971543652], [-71.01631164550781, 41.09047846890749], [-71.01390838623047, 41.09203096833332], [-71.01390838623047, 41.094618385851476]], [[-71.05819702148438, 41.09435964868544], [-71.05785369873047, 41.09177222097665], [-71.05648040771484, 41.09073722135943], [-71.0372543334961, 41.087632124679146], [-71.0211181640625, 41.08685582758068], [-71.01287841796875, 41.08711459429921], [-70.9493637084961, 41.09280720428893], [-70.94833374023438, 41.093324689830695], [-70.92704772949219, 41.11324478360737]], [[-71.0592269897461, 41.127728329210186], [-71.05579376220703, 41.124107742455124], [-71.05579376220703, 41.12229737416507], [-71.06266021728516, 41.112468789180895], [-71.06334686279297, 41.10677788312023], [-71.06128692626953, 41.09358343107297], [-71.05819702148438, 41.08789088834058], [-71.05716705322266, 41.0806451206289], [-71.05785369873047, 41.07779835045022]], [[-71.03759765625, 41.11117544475354], [-71.03759765625, 41.105484426587395], [-71.03691101074219, 41.103414843140456], [-71.03691101074219, 41.097981876273735], [-71.03519439697266, 41.09513585712631]], [[-71.05785369873047, 41.07779835045022], [-71.03588104248047, 41.0783159541991]], [[-71.03553771972656, 41.0783159541991], [-71.02798461914062, 41.07857475454506], [-71.02180480957031, 41.08142149109682], [-71.02008819580078, 41.081680279214766], [-71.01768493652344, 41.08116270195984], [-71.01459503173828, 41.078833553872016]], [[-71.0159683227539, 41.162372409523385], [-71.00669860839844, 41.161338522901104], [-70.99983215332031, 41.161338522901104], [-70.99433898925781, 41.162372409523385]], [[-70.9939956665039, 41.162372409523385], [-70.98369598388672, 41.162630878630466], [-70.97923278808594, 41.16314781378642], [-70.97511291503906, 41.16314781378642], [-70.97270965576172, 41.162630878630466]], [[-70.92670440673828, 41.11324478360737], [-70.90473175048828, 41.11376210812924]], [[-70.90507507324219, 41.13057293580209], [-70.88722229003906, 41.13134871619579], [-70.88275909423828, 41.13083153028592]], [[-70.90438842773438, 41.11376210812924], [-70.88241577148438, 41.114279428574434]], [[-70.88275909423828, 41.13083153028592], [-70.86078643798828, 41.13134871619579]], [[-70.86078643798828, 41.13134871619579], [-70.84671020507812, 41.13160730762189], [-70.83984375, 41.13134871619579]], [[-70.88207244873047, 41.114279428574434], [-70.8786392211914, 41.114796744942964], [-70.86044311523438, 41.11453808726827]], [[-70.86044311523438, 41.11453808726827], [-70.85426330566406, 41.11660732012896], [-70.8449935913086, 41.11660732012896], [-70.83881378173828, 41.11505540159848]], [[-71.01390838623047, 41.094618385851476], [-71.01116180419922, 41.09280720428893], [-71.00910186767578, 41.092548459989445], [-70.99536895751953, 41.09668824649293], [-70.99227905273438, 41.09668824649293]], [[-71.01459503173828, 41.078833553872016], [-71.01425170898438, 41.081680279214766], [-71.01287841796875, 41.082715421496545], [-71.01116180419922, 41.08323298652331], [-70.99536895751953, 41.082715421496545], [-70.9939956665039, 41.082197852393676], [-70.99056243896484, 41.07909235218]], [[-70.97030639648438, 41.09591205639546], [-70.97339630126953, 41.09591205639546], [-70.9768295288086, 41.094877121998394], [-70.97923278808594, 41.094877121998394], [-70.98026275634766, 41.09513585712631], [-70.99262237548828, 41.106001812257915], [-70.99262237548828, 41.111692785581965]], [[-70.99227905273438, 41.09668824649293], [-70.98026275634766, 41.09358343107297], [-70.97614288330078, 41.09358343107297], [-70.97270965576172, 41.09280720428893], [-70.97064971923828, 41.09358343107297], [-70.97030639648438, 41.09591205639546]], [[-71.0592269897461, 41.11117544475354], [-71.0592269897461, 41.10470834043821], [-71.05476379394531, 41.09694697448728], [-71.04995727539062, 41.09306594756936], [-71.03691101074219, 41.08918469136211], [-71.01631164550781, 41.08866717321064], [-71.00910186767578, 41.08970220543739], [-70.97064971923828, 41.0922897146709], [-70.95142364501953, 41.09435964868544], [-70.94867706298828, 41.09642951747955]], [[-70.99021911621094, 41.07909235218], [-70.96961975097656, 41.07935114946898]], [[-70.96961975097656, 41.07935114946898], [-70.94764709472656, 41.07986874098995]], [[-70.94833374023438, 41.09668824649293], [-70.94524383544922, 41.099016761754854], [-70.9445571899414, 41.10056905940368], [-70.94524383544922, 41.11350344637788], [-70.94181060791016, 41.115314057234826], [-70.94043731689453, 41.11712461815236], [-70.93940734863281, 41.119452408808115], [-70.93185424804688, 41.123849121471295], [-70.92498779296875, 41.12953854767437], [-70.9218978881836, 41.12953854767437], [-70.91915130615234, 41.127728329210186], [-70.91743469238281, 41.127469722495505], [-70.90747833251953, 41.129279948094364], [-70.90507507324219, 41.13057293580209]]]}}]}