{"type": "FeatureCollection", "features": [{"type": "Feature", "properties": {"point_type": "substation", "distance_to_shore": 33985, "foundation": "Monopile", "item": "Substation", "sub_name": "AF08", "water_dept": -33, "wf_name": "Revolution Wind", "tippecanoe_feature_density": 0}, "geometry": {"type": "Point", "coordinates": [-71.12823486328125, 41.21017184286001]}}, {"type": "Feature", "properties": {"point_type": "substation", "distance_to_shore": 32145, "foundation": "Monopile", "item": "Substation", "sub_name": "AL11", "water_dept": -32, "wf_name": "Revolution Wind", "tippecanoe_feature_density": 0}, "geometry": {"type": "Point", "coordinates": [-71.0592269897461, 41.127728329210186]}}]}