{"type": "FeatureCollection", "features": [{"type": "Feature", "properties": {"point_type": "turbine", "turbinemod": "SG 11.0-200 DD", "foundation": "Monopile (TP Less)", "water_dept": -42, "turbine_mw": 11, "distance_to_shore": 28320, "tippecanoe_feature_density": 0}, "geometry": {"type": "Point", "coordinates": [-71.21578216552734, 41.191572967569556]}}, {"type": "Feature", "properties": {"point_type": "turbine", "turbinemod": "SG 11.0-200 DD", "foundation": "Monopile (TP Less)", "water_dept": -41, "turbine_mw": 11, "distance_to_shore": 28875, "tippecanoe_feature_density": 0}, "geometry": {"type": "Point", "coordinates": [-71.19415283203125, 41.208622138465614]}}, {"type": "Feature", "properties": {"point_type": "turbine", "turbinemod": "SG 11.0-200 DD", "foundation": "Monopile (TP Less)", "water_dept": -38, "turbine_mw": 11, "distance_to_shore": 30150, "tippecanoe_feature_density": 0}, "geometry": {"type": "Point", "coordinates": [-71.19380950927734, 41.1920896743641]}}, {"type": "Feature", "properties": {"point_type": "turbine", "turbinemod": "SG 11.0-200 DD", "foundation": "Monopile (TP Less)", "water_dept": -48, "turbine_mw": 11, "distance_to_shore": 24371, "tippecanoe_feature_density": 0}, "geometry": {"type": "Point", "coordinates": [-71.25869750976562, 41.157461302804535]}}, {"type": "Feature", "properties": {"point_type": "turbine", "turbinemod": "SG 11.0-200 DD", "foundation": "Monopile (TP Less)", "water_dept": -39, "turbine_mw": 11, "distance_to_shore": 26215, "tippecanoe_feature_density": 0}, "geometry": {"type": "Point", "coordinates": [-71.23672485351562, 41.15771979127999]}}, {"type": "Feature", "properties": {"point_type": "turbine", "turbinemod": "SG 11.0-200 DD", "foundation": "Monopile (TP Less)", "water_dept": -35, "turbine_mw": 11, "distance_to_shore": 28127, "tippecanoe_feature_density": 0}, "geometry": {"type": "Point", "coordinates": [-71.21509552001953, 41.17503619693284]}}, {"type": "Feature", "properties": {"point_type": "turbine", "turbinemod": "SG 11.0-200 DD", "foundation": "Monopile (TP Less)", "water_dept": -36, "turbine_mw": 11, "distance_to_shore": 28057, "tippecanoe_feature_density": 0}, "geometry": {"type": "Point", "coordinates": [-71.21475219726562, 41.158236765172745]}}, {"type": "Feature", "properties": {"point_type": "turbine", "turbinemod": "SG 11.0-200 DD", "foundation": "Monopile (TP Less)", "water_dept": -39, "turbine_mw": 11, "distance_to_shore": 29980, "tippecanoe_feature_density": 0}, "geometry": {"type": "Point", "coordinates": [-71.19312286376953, 41.17555303422341]}}, {"type": "Feature", "properties": {"point_type": "turbine", "turbinemod": "SG 11.0-200 DD", "foundation": "Monopile (TP Less)", "water_dept": -42, "turbine_mw": 11, "distance_to_shore": 26990, "tippecanoe_feature_density": 0}, "geometry": {"type": "Point", "coordinates": [-71.17252349853516, 41.225925087217064]}}, {"type": "Feature", "properties": {"point_type": "turbine", "turbinemod": "SG 11.0-200 DD", "foundation": "Monopile (TP Less)", "water_dept": -42, "turbine_mw": 11, "distance_to_shore": 26875, "tippecanoe_feature_density": 0}, "geometry": {"type": "Point", "coordinates": [-71.15089416503906, 41.22618330551458]}}, {"type": "Feature", "properties": {"point_type": "turbine", "turbinemod": "SG 11.0-200 DD", "foundation": "Monopile (TP Less)", "water_dept": -40, "turbine_mw": 11, "distance_to_shore": 28842, "tippecanoe_feature_density": 0}, "geometry": {"type": "Point", "coordinates": [-71.17218017578125, 41.209138710675575]}}, {"type": "Feature", "properties": {"point_type": "turbine", "turbinemod": "SG 11.0-200 DD", "foundation": "Monopile (TP Less)", "water_dept": -38, "turbine_mw": 11, "distance_to_shore": 29585, "tippecanoe_feature_density": 0}, "geometry": {"type": "Point", "coordinates": [-71.17149353027344, 41.192606377080494]}}, {"type": "Feature", "properties": {"point_type": "turbine", "turbinemod": "SG 11.0-200 DD", "foundation": "Monopile (TP Less)", "water_dept": -35, "turbine_mw": 11, "distance_to_shore": 27794, "tippecanoe_feature_density": 0}, "geometry": {"type": "Point", "coordinates": [-71.14952087402344, 41.19286472690936]}}, {"type": "Feature", "properties": {"point_type": "turbine", "turbinemod": "SG 11.0-200 DD", "foundation": "Monopile (TP Less)", "water_dept": -36, "turbine_mw": 11, "distance_to_shore": 25272, "tippecanoe_feature_density": 0}, "geometry": {"type": "Point", "coordinates": [-71.12857818603516, 41.2266997390505]}}, {"type": "Feature", "properties": {"point_type": "turbine", "turbinemod": "SG 11.0-200 DD", "foundation": "Monopile (TP Less)", "water_dept": -39, "turbine_mw": 11, "distance_to_shore": 23446, "tippecanoe_feature_density": 0}, "geometry": {"type": "Point", "coordinates": [-71.10660552978516, 41.227216168507596]}}, {"type": "Feature", "properties": {"point_type": "turbine", "turbinemod": "SG 11.0-200 DD", "foundation": "Monopile (TP Less)", "water_dept": -33, "turbine_mw": 11, "distance_to_shore": 26003, "tippecanoe_feature_density": 0}, "geometry": {"type": "Point", "coordinates": [-71.12754821777344, 41.19338142350847]}}, {"type": "Feature", "properties": {"point_type": "turbine", "turbinemod": "SG 11.0-200 DD", "foundation": "Monopile (TP Less)", "water_dept": -38, "turbine_mw": 11, "distance_to_shore": 23775, "tippecanoe_feature_density": 0}, "geometry": {"type": "Point", "coordinates": [-71.10626220703125, 41.21043012335707]}}, {"type": "Feature", "properties": {"point_type": "turbine", "turbinemod": "SG 11.0-200 DD", "foundation": "Monopile (TP Less)", "water_dept": -37, "turbine_mw": 11, "distance_to_shore": 24256, "tippecanoe_feature_density": 0}, "geometry": {"type": "Point", "coordinates": [-71.10591888427734, 41.19363977027871]}}, {"type": "Feature", "properties": {"point_type": "turbine", "turbinemod": "SG 11.0-200 DD", "foundation": "Monopile (TP Less)", "water_dept": -38, "turbine_mw": 11, "distance_to_shore": 30081, "tippecanoe_feature_density": 0}, "geometry": {"type": "Point", "coordinates": [-71.17115020751953, 41.17581145133951]}}, {"type": "Feature", "properties": {"point_type": "turbine", "turbinemod": "SG 11.0-200 DD", "foundation": "Monopile (TP Less)", "water_dept": -37, "turbine_mw": 11, "distance_to_shore": 30042, "tippecanoe_feature_density": 0}, "geometry": {"type": "Point", "coordinates": [-71.1910629272461, 41.15875373498798]}}, {"type": "Feature", "properties": {"point_type": "turbine", "turbinemod": "SG 11.0-200 DD", "foundation": "Monopile (TP Less)", "water_dept": -40, "turbine_mw": 11, "distance_to_shore": 30660, "tippecanoe_feature_density": 0}, "geometry": {"type": "Point", "coordinates": [-71.17046356201172, 41.1592707007257]}}, {"type": "Feature", "properties": {"point_type": "turbine", "turbinemod": "SG 11.0-200 DD", "foundation": "Monopile (TP Less)", "water_dept": -36, "turbine_mw": 11, "distance_to_shore": 28298, "tippecanoe_feature_density": 0}, "geometry": {"type": "Point", "coordinates": [-71.14917755126953, 41.17632828251331]}}, {"type": "Feature", "properties": {"point_type": "turbine", "turbinemod": "SG 11.0-200 DD", "foundation": "Monopile (TP Less)", "water_dept": -34, "turbine_mw": 11, "distance_to_shore": 28935, "tippecanoe_feature_density": 0}, "geometry": {"type": "Point", "coordinates": [-71.14849090576172, 41.159529182065484]}}, {"type": "Feature", "properties": {"point_type": "turbine", "turbinemod": "SG 11.0-200 DD", "foundation": "Monopile (TP Less)", "water_dept": -36, "turbine_mw": 11, "distance_to_shore": 26543, "tippecanoe_feature_density": 0}, "geometry": {"type": "Point", "coordinates": [-71.12686157226562, 41.176845109609246]}}, {"type": "Feature", "properties": {"point_type": "turbine", "turbinemod": "SG 11.0-200 DD", "foundation": "Monopile (TP Less)", "water_dept": -33, "turbine_mw": 11, "distance_to_shore": 27240, "tippecanoe_feature_density": 0}, "geometry": {"type": "Point", "coordinates": [-71.12686157226562, 41.160046141686905]}}, {"type": "Feature", "properties": {"point_type": "turbine", "turbinemod": "SG 11.0-200 DD", "foundation": "Monopile (TP Less)", "water_dept": -34, "turbine_mw": 11, "distance_to_shore": 24814, "tippecanoe_feature_density": 0}, "geometry": {"type": "Point", "coordinates": [-71.10488891601562, 41.17710352162803]}}, {"type": "Feature", "properties": {"point_type": "turbine", "turbinemod": "SG 11.0-200 DD", "foundation": "Monopile (TP Less)", "water_dept": -38, "turbine_mw": 11, "distance_to_shore": 25577, "tippecanoe_feature_density": 0}, "geometry": {"type": "Point", "coordinates": [-71.10523223876953, 41.16056309723075]}}, {"type": "Feature", "properties": {"point_type": "turbine", "turbinemod": "SG 11.0-200 DD", "foundation": "Monopile (TP Less)", "water_dept": -39, "turbine_mw": 11, "distance_to_shore": 21619, "tippecanoe_feature_density": 0}, "geometry": {"type": "Point", "coordinates": [-71.08463287353516, 41.2274743817066]}}, {"type": "Feature", "properties": {"point_type": "turbine", "turbinemod": "SG 11.0-200 DD", "foundation": "Monopile (TP Less)", "water_dept": -35, "turbine_mw": 11, "distance_to_shore": 19798, "tippecanoe_feature_density": 0}, "geometry": {"type": "Point", "coordinates": [-71.06266021728516, 41.227990805045465]}}, {"type": "Feature", "properties": {"point_type": "turbine", "turbinemod": "SG 11.0-200 DD", "foundation": "Monopile (TP Less)", "water_dept": -34, "turbine_mw": 11, "distance_to_shore": 21969, "tippecanoe_feature_density": 0}, "geometry": {"type": "Point", "coordinates": [-71.08394622802734, 41.21068840283448]}}, {"type": "Feature", "properties": {"point_type": "turbine", "turbinemod": "SG 11.0-200 DD", "foundation": "Monopile (TP Less)", "water_dept": -32, "turbine_mw": 11, "distance_to_shore": 20185, "tippecanoe_feature_density": 0}, "geometry": {"type": "Point", "coordinates": [-71.06231689453125, 41.21120495873046]}}, {"type": "Feature", "properties": {"point_type": "turbine", "turbinemod": "SG 11.0-200 DD", "foundation": "Monopile (TP Less)", "water_dept": -33, "turbine_mw": 11, "distance_to_shore": 23861, "tippecanoe_feature_density": 0}, "geometry": {"type": "Point", "coordinates": [-71.08222961425781, 41.16056309723075]}}, {"type": "Feature", "properties": {"point_type": "turbine", "turbinemod": "SG 11.0-200 DD", "foundation": "Monopile (TP Less)", "water_dept": -31, "turbine_mw": 11, "distance_to_shore": 22195, "tippecanoe_feature_density": 0}, "geometry": {"type": "Point", "coordinates": [-71.06025695800781, 41.161080048697045]}}, {"type": "Feature", "properties": {"point_type": "turbine", "turbinemod": "SG 11.0-200 DD", "foundation": "Monopile (TP Less)", "water_dept": -31, "turbine_mw": 11, "distance_to_shore": 24746, "tippecanoe_feature_density": 0}, "geometry": {"type": "Point", "coordinates": [-71.08222961425781, 41.144277038892625]}}, {"type": "Feature", "properties": {"point_type": "turbine", "turbinemod": "SG 11.0-200 DD", "foundation": "Monopile (TP Less)", "water_dept": -34, "turbine_mw": 11, "distance_to_shore": 25653, "tippecanoe_feature_density": 0}, "geometry": {"type": "Point", "coordinates": [-71.08051300048828, 41.127469722495505]}}, {"type": "Feature", "properties": {"point_type": "turbine", "turbinemod": "SG 11.0-200 DD", "foundation": "Monopile (TP Less)", "water_dept": -31, "turbine_mw": 11, "distance_to_shore": 20593, "tippecanoe_feature_density": 0}, "geometry": {"type": "Point", "coordinates": [-71.03828430175781, 41.16159699608576]}}, {"type": "Feature", "properties": {"point_type": "turbine", "turbinemod": "SG 11.0-200 DD", "foundation": "Monopile (TP Less)", "water_dept": -32, "turbine_mw": 11, "distance_to_shore": 18987, "tippecanoe_feature_density": 0}, "geometry": {"type": "Point", "coordinates": [-71.0159683227539, 41.16211393939693]}}, {"type": "Feature", "properties": {"point_type": "turbine", "turbinemod": "SG 11.0-200 DD", "foundation": "Monopile (TP Less)", "water_dept": -31, "turbine_mw": 11, "distance_to_shore": 21592, "tippecanoe_feature_density": 0}, "geometry": {"type": "Point", "coordinates": [-71.03759765625, 41.14479411879731]}}, {"type": "Feature", "properties": {"point_type": "turbine", "turbinemod": "SG 11.0-200 DD", "foundation": "Monopile (TP Less)", "water_dept": -33, "turbine_mw": 11, "distance_to_shore": 22759, "tippecanoe_feature_density": 0}, "geometry": {"type": "Point", "coordinates": [-71.03691101074219, 41.127469722495505]}}, {"type": "Feature", "properties": {"point_type": "turbine", "turbinemod": "SG 11.0-200 DD", "foundation": "Monopile (TP Less)", "water_dept": -35, "turbine_mw": 11, "distance_to_shore": 25352, "tippecanoe_feature_density": 0}, "geometry": {"type": "Point", "coordinates": [-71.05888366699219, 41.11117544475354]}}, {"type": "Feature", "properties": {"point_type": "turbine", "turbinemod": "SG 11.0-200 DD", "foundation": "Monopile (TP Less)", "water_dept": -34, "turbine_mw": 11, "distance_to_shore": 26553, "tippecanoe_feature_density": 0}, "geometry": {"type": "Point", "coordinates": [-71.05819702148438, 41.09435964868544]}}, {"type": "Feature", "properties": {"point_type": "turbine", "turbinemod": "SG 11.0-200 DD", "foundation": "Monopile (TP Less)", "water_dept": -32, "turbine_mw": 11, "distance_to_shore": 23994, "tippecanoe_feature_density": 0}, "geometry": {"type": "Point", "coordinates": [-71.03759765625, 41.11117544475354]}}, {"type": "Feature", "properties": {"point_type": "turbine", "turbinemod": "SG 11.0-200 DD", "foundation": "Monopile (TP Less)", "water_dept": -36, "turbine_mw": 11, "distance_to_shore": 25148, "tippecanoe_feature_density": 0}, "geometry": {"type": "Point", "coordinates": [-71.03519439697266, 41.094877121998394]}}, {"type": "Feature", "properties": {"point_type": "turbine", "turbinemod": "SG 11.0-200 DD", "foundation": "Monopile (TP Less)", "water_dept": -32, "turbine_mw": 11, "distance_to_shore": 27848, "tippecanoe_feature_density": 0}, "geometry": {"type": "Point", "coordinates": [-71.05785369873047, 41.07779835045022]}}, {"type": "Feature", "properties": {"point_type": "turbine", "turbinemod": "SG 11.0-200 DD", "foundation": "Monopile (TP Less)", "water_dept": -34, "turbine_mw": 11, "distance_to_shore": 26563, "tippecanoe_feature_density": 0}, "geometry": {"type": "Point", "coordinates": [-71.03553771972656, 41.0783159541991]}}, {"type": "Feature", "properties": {"point_type": "turbine", "turbinemod": "SG 11.0-200 DD", "foundation": "Monopile (TP Less)", "water_dept": -32, "turbine_mw": 11, "distance_to_shore": 17516, "tippecanoe_feature_density": 0}, "geometry": {"type": "Point", "coordinates": [-70.9939956665039, 41.162372409523385]}}, {"type": "Feature", "properties": {"point_type": "turbine", "turbinemod": "SG 11.0-200 DD", "foundation": "Monopile (TP Less)", "water_dept": -31, "turbine_mw": 11, "distance_to_shore": 16133, "tippecanoe_feature_density": 0}, "geometry": {"type": "Point", "coordinates": [-70.97270965576172, 41.162630878630466]}}, {"type": "Feature", "properties": {"point_type": "turbine", "turbinemod": "SG 11.0-200 DD", "foundation": "Monopile (TP Less)", "water_dept": -33, "turbine_mw": 11, "distance_to_shore": 18201, "tippecanoe_feature_density": 0}, "geometry": {"type": "Point", "coordinates": [-70.92670440673828, 41.11324478360737]}}, {"type": "Feature", "properties": {"point_type": "turbine", "turbinemod": "SG 11.0-200 DD", "foundation": "Monopile (TP Less)", "water_dept": -32, "turbine_mw": 11, "distance_to_shore": 15623, "tippecanoe_feature_density": 0}, "geometry": {"type": "Point", "coordinates": [-70.90507507324219, 41.13057293580209]}}, {"type": "Feature", "properties": {"point_type": "turbine", "turbinemod": "SG 11.0-200 DD", "foundation": "Monopile (TP Less)", "water_dept": -33, "turbine_mw": 11, "distance_to_shore": 17216, "tippecanoe_feature_density": 0}, "geometry": {"type": "Point", "coordinates": [-70.90438842773438, 41.11376210812924]}}, {"type": "Feature", "properties": {"point_type": "turbine", "turbinemod": "SG 11.0-200 DD", "foundation": "Monopile (TP Less)", "water_dept": -35, "turbine_mw": 11, "distance_to_shore": 14679, "tippecanoe_feature_density": 0}, "geometry": {"type": "Point", "coordinates": [-70.88275909423828, 41.13083153028592]}}, {"type": "Feature", "properties": {"point_type": "turbine", "turbinemod": "SG 11.0-200 DD", "foundation": "Monopile (TP Less)", "water_dept": -37, "turbine_mw": 11, "distance_to_shore": 16314, "tippecanoe_feature_density": 0}, "geometry": {"type": "Point", "coordinates": [-70.88207244873047, 41.114279428574434]}}, {"type": "Feature", "properties": {"point_type": "turbine", "turbinemod": "SG 11.0-200 DD", "foundation": "Monopile (TP Less)", "water_dept": -32, "turbine_mw": 11, "distance_to_shore": 13887, "tippecanoe_feature_density": 0}, "geometry": {"type": "Point", "coordinates": [-70.86078643798828, 41.131090123750454]}}, {"type": "Feature", "properties": {"point_type": "turbine", "turbinemod": "SG 11.0-200 DD", "foundation": "Monopile (TP Less)", "water_dept": -38, "turbine_mw": 11, "distance_to_shore": 15618, "tippecanoe_feature_density": 0}, "geometry": {"type": "Point", "coordinates": [-70.86044311523438, 41.11453808726827]}}, {"type": "Feature", "properties": {"point_type": "turbine", "turbinemod": "SG 11.0-200 DD", "foundation": "Monopile (TP Less)", "water_dept": -34, "turbine_mw": 11, "distance_to_shore": 23999, "tippecanoe_feature_density": 0}, "geometry": {"type": "Point", "coordinates": [-71.01390838623047, 41.094618385851476]}}, {"type": "Feature", "properties": {"point_type": "turbine", "turbinemod": "SG 11.0-200 DD", "foundation": "Monopile (TP Less)", "water_dept": -33, "turbine_mw": 11, "distance_to_shore": 21397, "tippecanoe_feature_density": 0}, "geometry": {"type": "Point", "coordinates": [-70.99262237548828, 41.111692785581965]}}, {"type": "Feature", "properties": {"point_type": "turbine", "turbinemod": "SG 11.0-200 DD", "foundation": "Monopile (TP Less)", "water_dept": -34, "turbine_mw": 11, "distance_to_shore": 22688, "tippecanoe_feature_density": 0}, "geometry": {"type": "Point", "coordinates": [-70.99227905273438, 41.09668824649293]}}, {"type": "Feature", "properties": {"point_type": "turbine", "turbinemod": "SG 11.0-200 DD", "foundation": "Monopile (TP Less)", "water_dept": -33, "turbine_mw": 11, "distance_to_shore": 25397, "tippecanoe_feature_density": 0}, "geometry": {"type": "Point", "coordinates": [-71.01459503173828, 41.078833553872016]}}, {"type": "Feature", "properties": {"point_type": "turbine", "turbinemod": "SG 11.0-200 DD", "foundation": "Monopile (TP Less)", "water_dept": -32, "turbine_mw": 11, "distance_to_shore": 24192, "tippecanoe_feature_density": 0}, "geometry": {"type": "Point", "coordinates": [-70.99021911621094, 41.07909235218]}}, {"type": "Feature", "properties": {"point_type": "turbine", "turbinemod": "SG 11.0-200 DD", "foundation": "Monopile (TP Less)", "water_dept": -35, "turbine_mw": 11, "distance_to_shore": 21702, "tippecanoe_feature_density": 0}, "geometry": {"type": "Point", "coordinates": [-70.97030639648438, 41.09591205639546]}}, {"type": "Feature", "properties": {"point_type": "turbine", "turbinemod": "SG 11.0-200 DD", "foundation": "Monopile (TP Less)", "water_dept": -33, "turbine_mw": 11, "distance_to_shore": 23242, "tippecanoe_feature_density": 0}, "geometry": {"type": "Point", "coordinates": [-70.96961975097656, 41.07935114946898]}}, {"type": "Feature", "properties": {"point_type": "turbine", "turbinemod": "SG 11.0-200 DD", "foundation": "Monopile (TP Less)", "water_dept": -34, "turbine_mw": 11, "distance_to_shore": 20712, "tippecanoe_feature_density": 0}, "geometry": {"type": "Point", "coordinates": [-70.94833374023438, 41.09642951747955]}}, {"type": "Feature", "properties": {"point_type": "turbine", "turbinemod": "SG 11.0-200 DD", "foundation": "Monopile (TP Less)", "water_dept": -34, "turbine_mw": 11, "distance_to_shore": 22294, "tippecanoe_feature_density": 0}, "geometry": {"type": "Point", "coordinates": [-70.94764709472656, 41.07986874098995]}}, {"type": "Feature", "properties": {"point_type": "turbine", "turbinemod": "SG 11.0-200 DD", "foundation": "Monopile (TP Less)", "water_dept": -37, "turbine_mw": 11, "distance_to_shore": 13339, "tippecanoe_feature_density": 0}, "geometry": {"type": "Point", "coordinates": [-70.83984375, 41.13134871619579]}}, {"type": "Feature", "properties": {"point_type": "turbine", "turbinemod": "SG 11.0-200 DD", "foundation": "Monopile (TP Less)", "water_dept": -38, "turbine_mw": 11, "distance_to_shore": 15094, "tippecanoe_feature_density": 0}, "geometry": {"type": "Point", "coordinates": [-70.83881378173828, 41.11505540159848]}}]}