{"type": "FeatureCollection", "features": [{"type": "Feature", "properties": {"wf_develop": "Offshore Wind Ltd.", "turbine_mo": "TBA", "wf_name": "Greystones", "status": "Early Planning", "country": "Ireland", "capacity_m": 1000, "wf_owners": "COBRA INSTALACIONES Y SERVICIOS S.A.,Flotation Energy plc", "tippecanoe_feature_density": 0}, "geometry": {"type": "Polygon", "coordinates": [[[-5.625, 53.295182851167624], [-5.586891174316406, 53.27137284957044], [-5.625, 53.20993933370997], [-5.6352996826171875, 53.19328162693694], [-5.6524658203125, 53.19328162693694], [-5.6524658203125, 53.30544169165486], [-5.6421661376953125, 53.305646843328674], [-5.625, 53.295182851167624]]]}}]}