{"type": "FeatureCollection", "features": [{"type": "Feature", "properties": {"wf_develop": "Vattenfall", "turbine_mo": "V164-8.0", "fou_type": "Suction Bucket Jacket", "wtg_hubhei": 108.5, "wtg_oem": "Vestas", "cod": "2018-07-01T00:00:00", "wf_name": "Aberdeen Offshore Wind Farm", "status": "Fully Commissioned", "no_turbine": 11, "country": "United Kingdom", "capacity_m": 93, "wf_owners": "Vattenfall", "tippecanoe_feature_density": 0}, "geometry": {"type": "Polygon", "coordinates": [[[-1.9775390625, 57.206222532426665], [-2.044830322265625, 57.197295881578725], [-2.0447088354661176, 57.1974902083383], [-2.04620361328125, 57.197295881578725], [-2.0159912109375, 57.2448797526547], [-2.015002144489164, 57.245008169290735], [-2.014617919921875, 57.245622763760366], [-1.94732666015625, 57.253794897477775], [-1.9775390625, 57.206222532426665]]]}}]}