{"type": "FeatureCollection", "features": [{"type": "Feature", "properties": {"point_type": "turbine", "turbinemod": "MHI V164-8.0", "oem": "MHI Vestas", "foundation": "Suction Bucket Jacket", "water_dept": -24, "turbine_mw": 8, "distance_to_shore": 2844, "tippecanoe_feature_density": 0}, "geometry": {"type": "Point", "coordinates": [-1.988525390625, 57.23298953794358]}}, {"type": "Feature", "properties": {"point_type": "turbine", "turbinemod": "MHI V164-8.0", "oem": "MHI Vestas", "foundation": "Suction Bucket Jacket", "water_dept": -28, "turbine_mw": 8, "distance_to_shore": 3358, "tippecanoe_feature_density": 0}, "geometry": {"type": "Point", "coordinates": [-1.97479248046875, 57.24042137149311]}}, {"type": "Feature", "properties": {"point_type": "turbine", "turbinemod": "MHI V164-8.0", "oem": "MHI Vestas", "foundation": "Suction Bucket Jacket", "water_dept": -20, "turbine_mw": 8, "distance_to_shore": 1923, "tippecanoe_feature_density": 0}, "geometry": {"type": "Point", "coordinates": [-2.01324462890625, 57.224069360303815]}}, {"type": "Feature", "properties": {"point_type": "turbine", "turbinemod": "MHI V164-8.0", "oem": "MHI Vestas", "foundation": "Suction Bucket Jacket", "water_dept": -21, "turbine_mw": 8, "distance_to_shore": 2328, "tippecanoe_feature_density": 0}, "geometry": {"type": "Point", "coordinates": [-2.00225830078125, 57.22852971878345]}}, {"type": "Feature", "properties": {"point_type": "turbine", "turbinemod": "MHI V164-8.0", "oem": "MHI Vestas", "foundation": "Suction Bucket Jacket", "water_dept": -24, "turbine_mw": 8, "distance_to_shore": 2766, "tippecanoe_feature_density": 6}, "geometry": {"type": "Point", "coordinates": [-1.99951171875, 57.21960846246648]}}, {"type": "Feature", "properties": {"point_type": "turbine", "turbinemod": "MHI V164-8.0", "oem": "MHI Vestas", "foundation": "Suction Bucket Jacket", "water_dept": -21, "turbine_mw": 8, "distance_to_shore": 2233, "tippecanoe_feature_density": 6}, "geometry": {"type": "Point", "coordinates": [-2.010498046875, 57.21514702523331]}}, {"type": "Feature", "properties": {"point_type": "turbine", "turbinemod": "MHI V164-8.0", "oem": "MHI Vestas", "foundation": "Suction Bucket Jacket", "water_dept": -22, "turbine_mw": 8, "distance_to_shore": 2466, "tippecanoe_feature_density": 4}, "geometry": {"type": "Point", "coordinates": [-2.010498046875, 57.20771009775021]}}, {"type": "Feature", "properties": {"point_type": "turbine", "turbinemod": "MHI V164-8.0", "oem": "MHI Vestas", "foundation": "Suction Bucket Jacket", "water_dept": -27, "turbine_mw": 8, "distance_to_shore": 3292, "tippecanoe_feature_density": 4}, "geometry": {"type": "Point", "coordinates": [-1.988525390625, 57.224069360303815]}}, {"type": "Feature", "properties": {"point_type": "turbine", "turbinemod": "MHI V164-8.0", "oem": "MHI Vestas", "foundation": "Suction Bucket Jacket", "water_dept": -26, "turbine_mw": 8, "distance_to_shore": 3068, "tippecanoe_feature_density": 2}, "geometry": {"type": "Point", "coordinates": [-1.99951171875, 57.21217243406127]}}, {"type": "Feature", "properties": {"point_type": "turbine", "turbinemod": "MHI V164-8.0", "oem": "MHI Vestas", "foundation": "Suction Bucket Jacket", "water_dept": -31, "turbine_mw": 8, "distance_to_shore": 3723, "tippecanoe_feature_density": 2}, "geometry": {"type": "Point", "coordinates": [-1.98577880859375, 57.216634230912916]}}, {"type": "Feature", "properties": {"point_type": "turbine", "turbinemod": "MHI V164-8.0", "oem": "MHI Vestas", "foundation": "Suction Bucket Jacket", "water_dept": -29, "turbine_mw": 8, "distance_to_shore": 3843, "tippecanoe_feature_density": 0}, "geometry": {"type": "Point", "coordinates": [-1.97479248046875, 57.23001638509268]}}, {"type": "Feature", "properties": {"point_type": "turbine", "turbinemod": "MHI V164-8.0", "oem": "MHI Vestas", "foundation": "Suction Bucket Jacket", "water_dept": -24, "turbine_mw": 8, "distance_to_shore": 2844, "tippecanoe_feature_density": 0}, "geometry": {"type": "Point", "coordinates": [-1.989898681640625, 57.23373278870582]}}, {"type": "Feature", "properties": {"point_type": "turbine", "turbinemod": "MHI V164-8.0", "oem": "MHI Vestas", "foundation": "Suction Bucket Jacket", "water_dept": -28, "turbine_mw": 8, "distance_to_shore": 3358, "tippecanoe_feature_density": 0}, "geometry": {"type": "Point", "coordinates": [-1.976165771484375, 57.23967825554331]}}, {"type": "Feature", "properties": {"point_type": "turbine", "turbinemod": "MHI V164-8.0", "oem": "MHI Vestas", "foundation": "Suction Bucket Jacket", "water_dept": -20, "turbine_mw": 8, "distance_to_shore": 1923, "tippecanoe_feature_density": 0}, "geometry": {"type": "Point", "coordinates": [-2.011871337890625, 57.22332591478735]}}, {"type": "Feature", "properties": {"point_type": "turbine", "turbinemod": "MHI V164-8.0", "oem": "MHI Vestas", "foundation": "Suction Bucket Jacket", "water_dept": -24, "turbine_mw": 8, "distance_to_shore": 2766, "tippecanoe_feature_density": 1}, "geometry": {"type": "Point", "coordinates": [-1.99951171875, 57.2203519828964]}}, {"type": "Feature", "properties": {"point_type": "turbine", "turbinemod": "MHI V164-8.0", "oem": "MHI Vestas", "foundation": "Suction Bucket Jacket", "water_dept": -21, "turbine_mw": 8, "distance_to_shore": 2233, "tippecanoe_feature_density": 1}, "geometry": {"type": "Point", "coordinates": [-2.010498046875, 57.21589063556516]}}, {"type": "Feature", "properties": {"point_type": "turbine", "turbinemod": "MHI V164-8.0", "oem": "MHI Vestas", "foundation": "Suction Bucket Jacket", "water_dept": -27, "turbine_mw": 8, "distance_to_shore": 3292, "tippecanoe_feature_density": 1}, "geometry": {"type": "Point", "coordinates": [-1.987152099609375, 57.224069360303815]}}, {"type": "Feature", "properties": {"point_type": "turbine", "turbinemod": "MHI V164-8.0", "oem": "MHI Vestas", "foundation": "Suction Bucket Jacket", "water_dept": -26, "turbine_mw": 8, "distance_to_shore": 3068, "tippecanoe_feature_density": 0}, "geometry": {"type": "Point", "coordinates": [-1.998138427734375, 57.2114287488063]}}, {"type": "Feature", "properties": {"point_type": "turbine", "turbinemod": "MHI V164-8.0", "oem": "MHI Vestas", "foundation": "Suction Bucket Jacket", "water_dept": -31, "turbine_mw": 8, "distance_to_shore": 3723, "tippecanoe_feature_density": 0}, "geometry": {"type": "Point", "coordinates": [-1.98577880859375, 57.21589063556516]}}, {"type": "Feature", "properties": {"point_type": "turbine", "turbinemod": "MHI V164-8.0", "oem": "MHI Vestas", "foundation": "Suction Bucket Jacket", "water_dept": -29, "turbine_mw": 8, "distance_to_shore": 3843, "tippecanoe_feature_density": 0}, "geometry": {"type": "Point", "coordinates": [-1.973419189453125, 57.23001638509268]}}]}