{"type": "FeatureCollection", "features": [{"type": "Feature", "properties": {"wf_develop": "\u00d8rsted", "turbine_mo": "SWT-3.6-120", "fou_type": "Monopile", "wtg_hubhei": 90, "wtg_oem": "Siemens Gamesa", "cod": "2014-10-01T00:00:00", "wf_name": "West of Duddon Sands", "status": "Fully Commissioned", "no_turbine": 108, "country": "United Kingdom", "capacity_m": 389, "wf_owners": "Scottish Power/Orsted", "tippecanoe_feature_density": 0}, "geometry": {"type": "Polygon", "coordinates": [[[-3.3800125122070312, 53.972445363437544], [-3.4229278564453125, 53.94396299650728], [-3.4888458251953125, 53.94517540852763], [-3.5585403442382812, 54.002522609191146], [-3.4442138671875, 54.029553395634764], [-3.3800125122070312, 53.972445363437544]]]}}]}