{"type": "FeatureCollection", "features": [{"type": "Feature", "properties": {"point_type": "turbine", "turbinemod": "SWT-3.6-120", "oem": "Siemens", "foundation": "Monopile", "water_dept": -23, "turbine_mw": 3.6, "distance_to_shore": 23979, "tippecanoe_feature_density": 0}, "geometry": {"type": "Point", "coordinates": [-3.5537338256835938, 54.000101084888]}}, {"type": "Feature", "properties": {"point_type": "turbine", "turbinemod": "SWT-3.6-120", "oem": "Siemens", "foundation": "Monopile", "water_dept": -23, "turbine_mw": 3.6, "distance_to_shore": 23242, "tippecanoe_feature_density": 0}, "geometry": {"type": "Point", "coordinates": [-3.5427474975585938, 54.002522609191146]}}, {"type": "Feature", "properties": {"point_type": "turbine", "turbinemod": "SWT-3.6-120", "oem": "Siemens", "foundation": "Monopile", "water_dept": -23, "turbine_mw": 3.6, "distance_to_shore": 23932, "tippecanoe_feature_density": 0}, "geometry": {"type": "Point", "coordinates": [-3.5461807250976562, 53.99404665781205]}}, {"type": "Feature", "properties": {"point_type": "turbine", "turbinemod": "SWT-3.6-120", "oem": "Siemens", "foundation": "Monopile", "water_dept": -23, "turbine_mw": 3.6, "distance_to_shore": 23915, "tippecanoe_feature_density": 0}, "geometry": {"type": "Point", "coordinates": [-3.5406875610351562, 53.98940433409436]}}, {"type": "Feature", "properties": {"point_type": "turbine", "turbinemod": "SWT-3.6-120", "oem": "Siemens", "foundation": "Monopile", "water_dept": -22, "turbine_mw": 3.6, "distance_to_shore": 22506, "tippecanoe_feature_density": 0}, "geometry": {"type": "Point", "coordinates": [-3.5321044921875, 54.0049439926274]}}, {"type": "Feature", "properties": {"point_type": "turbine", "turbinemod": "SWT-3.6-120", "oem": "Siemens", "foundation": "Monopile", "water_dept": -23, "turbine_mw": 3.6, "distance_to_shore": 23201, "tippecanoe_feature_density": 0}, "geometry": {"type": "Point", "coordinates": [-3.5355377197265625, 53.99646853429937]}}, {"type": "Feature", "properties": {"point_type": "turbine", "turbinemod": "SWT-3.6-120", "oem": "Siemens", "foundation": "Monopile", "water_dept": -22, "turbine_mw": 3.6, "distance_to_shore": 21770, "tippecanoe_feature_density": 0}, "geometry": {"type": "Point", "coordinates": [-3.5214614868164062, 54.007365235200666]}}, {"type": "Feature", "properties": {"point_type": "turbine", "turbinemod": "SWT-3.6-120", "oem": "Siemens", "foundation": "Monopile", "water_dept": -22, "turbine_mw": 3.6, "distance_to_shore": 22470, "tippecanoe_feature_density": 0}, "geometry": {"type": "Point", "coordinates": [-3.5248947143554688, 53.998890269910135]}}, {"type": "Feature", "properties": {"point_type": "turbine", "turbinemod": "SWT-3.6-120", "oem": "Siemens", "foundation": "Monopile", "water_dept": -22, "turbine_mw": 3.6, "distance_to_shore": 23189, "tippecanoe_feature_density": 0}, "geometry": {"type": "Point", "coordinates": [-3.5297012329101562, 53.991624640444314]}}, {"type": "Feature", "properties": {"point_type": "turbine", "turbinemod": "SWT-3.6-120", "oem": "Siemens", "foundation": "Monopile", "water_dept": -23, "turbine_mw": 3.6, "distance_to_shore": 23915, "tippecanoe_feature_density": 0}, "geometry": {"type": "Point", "coordinates": [-3.53485107421875, 53.98455961840389]}}, {"type": "Feature", "properties": {"point_type": "turbine", "turbinemod": "SWT-3.6-120", "oem": "Siemens", "foundation": "Monopile", "water_dept": -22, "turbine_mw": 3.6, "distance_to_shore": 22463, "tippecanoe_feature_density": 0}, "geometry": {"type": "Point", "coordinates": [-3.5190582275390625, 53.99404665781205]}}, {"type": "Feature", "properties": {"point_type": "turbine", "turbinemod": "SWT-3.6-120", "oem": "Siemens", "foundation": "Monopile", "water_dept": -22, "turbine_mw": 3.6, "distance_to_shore": 23195, "tippecanoe_feature_density": 0}, "geometry": {"type": "Point", "coordinates": [-3.5242080688476562, 53.986982046694976]}}, {"type": "Feature", "properties": {"point_type": "turbine", "turbinemod": "SWT-3.6-120", "oem": "Siemens", "foundation": "Monopile", "water_dept": -22, "turbine_mw": 3.6, "distance_to_shore": 23219, "tippecanoe_feature_density": 0}, "geometry": {"type": "Point", "coordinates": [-3.51837158203125, 53.982137049217215]}}, {"type": "Feature", "properties": {"point_type": "turbine", "turbinemod": "SWT-3.6-120", "oem": "Siemens", "foundation": "Monopile", "water_dept": -23, "turbine_mw": 3.6, "distance_to_shore": 23934, "tippecanoe_feature_density": 0}, "geometry": {"type": "Point", "coordinates": [-3.5290145874023438, 53.97991623701995]}}, {"type": "Feature", "properties": {"point_type": "turbine", "turbinemod": "SWT-3.6-120", "oem": "Siemens", "foundation": "Monopile", "water_dept": -23, "turbine_mw": 3.6, "distance_to_shore": 23970, "tippecanoe_feature_density": 0}, "geometry": {"type": "Point", "coordinates": [-3.5231781005859375, 53.97507041761847]}}, {"type": "Feature", "properties": {"point_type": "turbine", "turbinemod": "SWT-3.6-120", "oem": "Siemens", "foundation": "Monopile", "water_dept": -22, "turbine_mw": 3.6, "distance_to_shore": 24024, "tippecanoe_feature_density": 0}, "geometry": {"type": "Point", "coordinates": [-3.5173416137695312, 53.97042597845473]}}, {"type": "Feature", "properties": {"point_type": "turbine", "turbinemod": "SWT-3.6-120", "oem": "Siemens", "foundation": "Monopile", "water_dept": -21, "turbine_mw": 3.6, "distance_to_shore": 20803, "tippecanoe_feature_density": 0}, "geometry": {"type": "Point", "coordinates": [-3.50738525390625, 54.01039159033445]}}, {"type": "Feature", "properties": {"point_type": "turbine", "turbinemod": "SWT-3.6-120", "oem": "Siemens", "foundation": "Monopile", "water_dept": -21, "turbine_mw": 3.6, "distance_to_shore": 20053, "tippecanoe_feature_density": 0}, "geometry": {"type": "Point", "coordinates": [-3.49639892578125, 54.01301425342598]}}, {"type": "Feature", "properties": {"point_type": "turbine", "turbinemod": "SWT-3.6-120", "oem": "Siemens", "foundation": "Monopile", "water_dept": -21, "turbine_mw": 3.6, "distance_to_shore": 19304, "tippecanoe_feature_density": 0}, "geometry": {"type": "Point", "coordinates": [-3.4857559204101562, 54.01543502648374]}}, {"type": "Feature", "properties": {"point_type": "turbine", "turbinemod": "SWT-3.6-120", "oem": "Siemens", "foundation": "Monopile", "water_dept": -20, "turbine_mw": 3.6, "distance_to_shore": 18556, "tippecanoe_feature_density": 0}, "geometry": {"type": "Point", "coordinates": [-3.4747695922851562, 54.01785565869531]}}, {"type": "Feature", "properties": {"point_type": "turbine", "turbinemod": "SWT-3.6-120", "oem": "Siemens", "foundation": "Monopile", "water_dept": -20, "turbine_mw": 3.6, "distance_to_shore": 19314, "tippecanoe_feature_density": 0}, "geometry": {"type": "Point", "coordinates": [-3.478546142578125, 54.00938282974411]}}, {"type": "Feature", "properties": {"point_type": "turbine", "turbinemod": "SWT-3.6-120", "oem": "Siemens", "foundation": "Monopile", "water_dept": -20, "turbine_mw": 3.6, "distance_to_shore": 16938, "tippecanoe_feature_density": 0}, "geometry": {"type": "Point", "coordinates": [-3.4514236450195312, 54.02350325280864]}}, {"type": "Feature", "properties": {"point_type": "turbine", "turbinemod": "SWT-3.6-120", "oem": "Siemens", "foundation": "Monopile", "water_dept": -20, "turbine_mw": 3.6, "distance_to_shore": 17748, "tippecanoe_feature_density": 0}, "geometry": {"type": "Point", "coordinates": [-3.4627532958984375, 54.02047785132123]}}, {"type": "Feature", "properties": {"point_type": "turbine", "turbinemod": "SWT-3.6-120", "oem": "Siemens", "foundation": "Monopile", "water_dept": -20, "turbine_mw": 3.6, "distance_to_shore": 18576, "tippecanoe_feature_density": 0}, "geometry": {"type": "Point", "coordinates": [-3.467559814453125, 54.01180381407852]}}, {"type": "Feature", "properties": {"point_type": "turbine", "turbinemod": "SWT-3.6-120", "oem": "Siemens", "foundation": "Monopile", "water_dept": -20, "turbine_mw": 3.6, "distance_to_shore": 17789, "tippecanoe_feature_density": 0}, "geometry": {"type": "Point", "coordinates": [-3.4558868408203125, 54.01442638815999]}}, {"type": "Feature", "properties": {"point_type": "turbine", "turbinemod": "SWT-3.6-120", "oem": "Siemens", "foundation": "Monopile", "water_dept": -20, "turbine_mw": 3.6, "distance_to_shore": 17847, "tippecanoe_feature_density": 0}, "geometry": {"type": "Point", "coordinates": [-3.4503936767578125, 54.00958458381851]}}, {"type": "Feature", "properties": {"point_type": "turbine", "turbinemod": "SWT-3.6-120", "oem": "Siemens", "foundation": "Monopile", "water_dept": -19, "turbine_mw": 3.6, "distance_to_shore": 17072, "tippecanoe_feature_density": 0}, "geometry": {"type": "Point", "coordinates": [-3.4452438354492188, 54.01684707905696]}}, {"type": "Feature", "properties": {"point_type": "turbine", "turbinemod": "SWT-3.6-120", "oem": "Siemens", "foundation": "Monopile", "water_dept": -19, "turbine_mw": 3.6, "distance_to_shore": 17139, "tippecanoe_feature_density": 0}, "geometry": {"type": "Point", "coordinates": [-3.4397506713867188, 54.01200555641509]}}, {"type": "Feature", "properties": {"point_type": "turbine", "turbinemod": "SWT-3.6-120", "oem": "Siemens", "foundation": "Monopile", "water_dept": -19, "turbine_mw": 3.6, "distance_to_shore": 16360, "tippecanoe_feature_density": 0}, "geometry": {"type": "Point", "coordinates": [-3.434600830078125, 54.01906592198495]}}, {"type": "Feature", "properties": {"point_type": "turbine", "turbinemod": "SWT-3.6-120", "oem": "Siemens", "foundation": "Monopile", "water_dept": -19, "turbine_mw": 3.6, "distance_to_shore": 16436, "tippecanoe_feature_density": 0}, "geometry": {"type": "Point", "coordinates": [-3.429107666015625, 54.014224657560874]}}, {"type": "Feature", "properties": {"point_type": "turbine", "turbinemod": "SWT-3.6-120", "oem": "Siemens", "foundation": "Monopile", "water_dept": -22, "turbine_mw": 3.6, "distance_to_shore": 21740, "tippecanoe_feature_density": 0}, "geometry": {"type": "Point", "coordinates": [-3.514251708984375, 54.00131186464819]}}, {"type": "Feature", "properties": {"point_type": "turbine", "turbinemod": "SWT-3.6-120", "oem": "Siemens", "foundation": "Monopile", "water_dept": -22, "turbine_mw": 3.6, "distance_to_shore": 21739, "tippecanoe_feature_density": 0}, "geometry": {"type": "Point", "coordinates": [-3.5084152221679688, 53.99646853429937]}}, {"type": "Feature", "properties": {"point_type": "turbine", "turbinemod": "SWT-3.6-120", "oem": "Siemens", "foundation": "Monopile", "water_dept": -21, "turbine_mw": 3.6, "distance_to_shore": 20793, "tippecanoe_feature_density": 0}, "geometry": {"type": "Point", "coordinates": [-3.500518798828125, 54.00433865997442]}}, {"type": "Feature", "properties": {"point_type": "turbine", "turbinemod": "SWT-3.6-120", "oem": "Siemens", "foundation": "Monopile", "water_dept": -21, "turbine_mw": 3.6, "distance_to_shore": 20808, "tippecanoe_feature_density": 0}, "geometry": {"type": "Point", "coordinates": [-3.4946823120117188, 53.99969748380846]}}, {"type": "Feature", "properties": {"point_type": "turbine", "turbinemod": "SWT-3.6-120", "oem": "Siemens", "foundation": "Monopile", "water_dept": -22, "turbine_mw": 3.6, "distance_to_shore": 22475, "tippecanoe_feature_density": 0}, "geometry": {"type": "Point", "coordinates": [-3.5132217407226562, 53.98940433409436]}}, {"type": "Feature", "properties": {"point_type": "turbine", "turbinemod": "SWT-3.6-120", "oem": "Siemens", "foundation": "Monopile", "water_dept": -22, "turbine_mw": 3.6, "distance_to_shore": 22505, "tippecanoe_feature_density": 0}, "geometry": {"type": "Point", "coordinates": [-3.5077285766601562, 53.98455961840389]}}, {"type": "Feature", "properties": {"point_type": "turbine", "turbinemod": "SWT-3.6-120", "oem": "Siemens", "foundation": "Monopile", "water_dept": -21, "turbine_mw": 3.6, "distance_to_shore": 21759, "tippecanoe_feature_density": 0}, "geometry": {"type": "Point", "coordinates": [-3.5025787353515625, 53.99182648060591]}}, {"type": "Feature", "properties": {"point_type": "turbine", "turbinemod": "SWT-3.6-120", "oem": "Siemens", "foundation": "Monopile", "water_dept": -21, "turbine_mw": 3.6, "distance_to_shore": 21795, "tippecanoe_feature_density": 0}, "geometry": {"type": "Point", "coordinates": [-3.4967422485351562, 53.986982046694976]}}, {"type": "Feature", "properties": {"point_type": "turbine", "turbinemod": "SWT-3.6-120", "oem": "Siemens", "foundation": "Monopile", "water_dept": -21, "turbine_mw": 3.6, "distance_to_shore": 20052, "tippecanoe_feature_density": 0}, "geometry": {"type": "Point", "coordinates": [-3.489532470703125, 54.006759937763036]}}, {"type": "Feature", "properties": {"point_type": "turbine", "turbinemod": "SWT-3.6-120", "oem": "Siemens", "foundation": "Monopile", "water_dept": -21, "turbine_mw": 3.6, "distance_to_shore": 20075, "tippecanoe_feature_density": 0}, "geometry": {"type": "Point", "coordinates": [-3.4836959838867188, 54.002119031589814]}}, {"type": "Feature", "properties": {"point_type": "turbine", "turbinemod": "SWT-3.6-120", "oem": "Siemens", "foundation": "Monopile", "water_dept": -20, "turbine_mw": 3.6, "distance_to_shore": 19344, "tippecanoe_feature_density": 0}, "geometry": {"type": "Point", "coordinates": [-3.4727096557617188, 54.004540438503625]}}, {"type": "Feature", "properties": {"point_type": "turbine", "turbinemod": "SWT-3.6-120", "oem": "Siemens", "foundation": "Monopile", "water_dept": -20, "turbine_mw": 3.6, "distance_to_shore": 20120, "tippecanoe_feature_density": 0}, "geometry": {"type": "Point", "coordinates": [-3.4782028198242188, 53.9972757951557]}}, {"type": "Feature", "properties": {"point_type": "turbine", "turbinemod": "SWT-3.6-120", "oem": "Siemens", "foundation": "Monopile", "water_dept": -21, "turbine_mw": 3.6, "distance_to_shore": 21853, "tippecanoe_feature_density": 0}, "geometry": {"type": "Point", "coordinates": [-3.4912490844726562, 53.982137049217215]}}, {"type": "Feature", "properties": {"point_type": "turbine", "turbinemod": "SWT-3.6-120", "oem": "Siemens", "foundation": "Monopile", "water_dept": -22, "turbine_mw": 3.6, "distance_to_shore": 23262, "tippecanoe_feature_density": 0}, "geometry": {"type": "Point", "coordinates": [-3.5125350952148438, 53.97749339777263]}}, {"type": "Feature", "properties": {"point_type": "turbine", "turbinemod": "SWT-3.6-120", "oem": "Siemens", "foundation": "Monopile", "water_dept": -22, "turbine_mw": 3.6, "distance_to_shore": 23322, "tippecanoe_feature_density": 0}, "geometry": {"type": "Point", "coordinates": [-3.5066986083984375, 53.97264729655362]}}, {"type": "Feature", "properties": {"point_type": "turbine", "turbinemod": "SWT-3.6-120", "oem": "Siemens", "foundation": "Monopile", "water_dept": -22, "turbine_mw": 3.6, "distance_to_shore": 22556, "tippecanoe_feature_density": 0}, "geometry": {"type": "Point", "coordinates": [-3.50189208984375, 53.97991623701995]}}, {"type": "Feature", "properties": {"point_type": "turbine", "turbinemod": "SWT-3.6-120", "oem": "Siemens", "foundation": "Monopile", "water_dept": -21, "turbine_mw": 3.6, "distance_to_shore": 22624, "tippecanoe_feature_density": 0}, "geometry": {"type": "Point", "coordinates": [-3.4960556030273438, 53.97507041761847]}}, {"type": "Feature", "properties": {"point_type": "turbine", "turbinemod": "SWT-3.6-120", "oem": "Siemens", "foundation": "Monopile", "water_dept": -22, "turbine_mw": 3.6, "distance_to_shore": 24094, "tippecanoe_feature_density": 0}, "geometry": {"type": "Point", "coordinates": [-3.511505126953125, 53.96557905522377]}}, {"type": "Feature", "properties": {"point_type": "turbine", "turbinemod": "SWT-3.6-120", "oem": "Siemens", "foundation": "Monopile", "water_dept": -21, "turbine_mw": 3.6, "distance_to_shore": 24182, "tippecanoe_feature_density": 0}, "geometry": {"type": "Point", "coordinates": [-3.506011962890625, 53.960933558166715]}}, {"type": "Feature", "properties": {"point_type": "turbine", "turbinemod": "SWT-3.6-120", "oem": "Siemens", "foundation": "Monopile", "water_dept": -21, "turbine_mw": 3.6, "distance_to_shore": 23402, "tippecanoe_feature_density": 0}, "geometry": {"type": "Point", "coordinates": [-3.5008621215820312, 53.96780063167637]}}, {"type": "Feature", "properties": {"point_type": "turbine", "turbinemod": "SWT-3.6-120", "oem": "Siemens", "foundation": "Monopile", "water_dept": -21, "turbine_mw": 3.6, "distance_to_shore": 23499, "tippecanoe_feature_density": 0}, "geometry": {"type": "Point", "coordinates": [-3.495025634765625, 53.96315538222149]}}, {"type": "Feature", "properties": {"point_type": "turbine", "turbinemod": "SWT-3.6-120", "oem": "Siemens", "foundation": "Monopile", "water_dept": -21, "turbine_mw": 3.6, "distance_to_shore": 24288, "tippecanoe_feature_density": 0}, "geometry": {"type": "Point", "coordinates": [-3.5001754760742188, 53.956085530987906]}}, {"type": "Feature", "properties": {"point_type": "turbine", "turbinemod": "SWT-3.6-120", "oem": "Siemens", "foundation": "Monopile", "water_dept": -21, "turbine_mw": 3.6, "distance_to_shore": 23613, "tippecanoe_feature_density": 0}, "geometry": {"type": "Point", "coordinates": [-3.4891891479492188, 53.95830761342407]}}, {"type": "Feature", "properties": {"point_type": "turbine", "turbinemod": "SWT-3.6-120", "oem": "Siemens", "foundation": "Monopile", "water_dept": -20, "turbine_mw": 3.6, "distance_to_shore": 18617, "tippecanoe_feature_density": 0}, "geometry": {"type": "Point", "coordinates": [-3.462066650390625, 54.00696170455376]}}, {"type": "Feature", "properties": {"point_type": "turbine", "turbinemod": "SWT-3.6-120", "oem": "Siemens", "foundation": "Monopile", "water_dept": -20, "turbine_mw": 3.6, "distance_to_shore": 19399, "tippecanoe_feature_density": 0}, "geometry": {"type": "Point", "coordinates": [-3.4672164916992188, 53.99969748380846]}}, {"type": "Feature", "properties": {"point_type": "turbine", "turbinemod": "SWT-3.6-120", "oem": "Siemens", "foundation": "Monopile", "water_dept": -20, "turbine_mw": 3.6, "distance_to_shore": 18681, "tippecanoe_feature_density": 0}, "geometry": {"type": "Point", "coordinates": [-3.4562301635742188, 54.002119031589814]}}, {"type": "Feature", "properties": {"point_type": "turbine", "turbinemod": "SWT-3.6-120", "oem": "Siemens", "foundation": "Monopile", "water_dept": -19, "turbine_mw": 3.6, "distance_to_shore": 18767, "tippecanoe_feature_density": 0}, "geometry": {"type": "Point", "coordinates": [-3.4507369995117188, 53.9972757951557]}}, {"type": "Feature", "properties": {"point_type": "turbine", "turbinemod": "SWT-3.6-120", "oem": "Siemens", "foundation": "Monopile", "water_dept": -19, "turbine_mw": 3.6, "distance_to_shore": 17929, "tippecanoe_feature_density": 0}, "geometry": {"type": "Point", "coordinates": [-3.4449005126953125, 54.00474221605461]}}, {"type": "Feature", "properties": {"point_type": "turbine", "turbinemod": "SWT-3.6-120", "oem": "Siemens", "foundation": "Monopile", "water_dept": -19, "turbine_mw": 3.6, "distance_to_shore": 18033, "tippecanoe_feature_density": 0}, "geometry": {"type": "Point", "coordinates": [-3.4394073486328125, 53.99989928483737]}}, {"type": "Feature", "properties": {"point_type": "turbine", "turbinemod": "SWT-3.6-120", "oem": "Siemens", "foundation": "Monopile", "water_dept": -19, "turbine_mw": 3.6, "distance_to_shore": 17231, "tippecanoe_feature_density": 0}, "geometry": {"type": "Point", "coordinates": [-3.4342575073242188, 54.00696170455376]}}, {"type": "Feature", "properties": {"point_type": "turbine", "turbinemod": "SWT-3.6-120", "oem": "Siemens", "foundation": "Monopile", "water_dept": -19, "turbine_mw": 3.6, "distance_to_shore": 17346, "tippecanoe_feature_density": 0}, "geometry": {"type": "Point", "coordinates": [-3.4287643432617188, 54.002119031589814]}}, {"type": "Feature", "properties": {"point_type": "turbine", "turbinemod": "SWT-3.6-120", "oem": "Siemens", "foundation": "Monopile", "water_dept": -19, "turbine_mw": 3.6, "distance_to_shore": 18160, "tippecanoe_feature_density": 0}, "geometry": {"type": "Point", "coordinates": [-3.4339141845703125, 53.99505579013578]}}, {"type": "Feature", "properties": {"point_type": "turbine", "turbinemod": "SWT-3.6-120", "oem": "Siemens", "foundation": "Monopile", "water_dept": -19, "turbine_mw": 3.6, "distance_to_shore": 18875, "tippecanoe_feature_density": 0}, "geometry": {"type": "Point", "coordinates": [-3.4452438354492188, 53.99243199522053]}}, {"type": "Feature", "properties": {"point_type": "turbine", "turbinemod": "SWT-3.6-120", "oem": "Siemens", "foundation": "Monopile", "water_dept": -19, "turbine_mw": 3.6, "distance_to_shore": 19007, "tippecanoe_feature_density": 0}, "geometry": {"type": "Point", "coordinates": [-3.4397506713867188, 53.987587631753286]}}, {"type": "Feature", "properties": {"point_type": "turbine", "turbinemod": "SWT-3.6-120", "oem": "Siemens", "foundation": "Monopile", "water_dept": -18, "turbine_mw": 3.6, "distance_to_shore": 18310, "tippecanoe_feature_density": 0}, "geometry": {"type": "Point", "coordinates": [-3.4284210205078125, 53.99000988393033]}}, {"type": "Feature", "properties": {"point_type": "turbine", "turbinemod": "SWT-3.6-120", "oem": "Siemens", "foundation": "Monopile", "water_dept": -20, "turbine_mw": 3.6, "distance_to_shore": 21196, "tippecanoe_feature_density": 0}, "geometry": {"type": "Point", "coordinates": [-3.4658432006835938, 53.97527233801327]}}, {"type": "Feature", "properties": {"point_type": "turbine", "turbinemod": "SWT-3.6-120", "oem": "Siemens", "foundation": "Monopile", "water_dept": -20, "turbine_mw": 3.6, "distance_to_shore": 21356, "tippecanoe_feature_density": 0}, "geometry": {"type": "Point", "coordinates": [-3.460693359375, 53.97042597845473]}}, {"type": "Feature", "properties": {"point_type": "turbine", "turbinemod": "SWT-3.6-120", "oem": "Siemens", "foundation": "Monopile", "water_dept": -20, "turbine_mw": 3.6, "distance_to_shore": 21486, "tippecanoe_feature_density": 0}, "geometry": {"type": "Point", "coordinates": [-3.4545135498046875, 53.96557905522377]}}, {"type": "Feature", "properties": {"point_type": "turbine", "turbinemod": "SWT-3.6-120", "oem": "Siemens", "foundation": "Monopile", "water_dept": -19, "turbine_mw": 3.6, "distance_to_shore": 20833, "tippecanoe_feature_density": 0}, "geometry": {"type": "Point", "coordinates": [-3.4438705444335938, 53.96800258730022]}}, {"type": "Feature", "properties": {"point_type": "turbine", "turbinemod": "SWT-3.6-120", "oem": "Siemens", "foundation": "Monopile", "water_dept": -19, "turbine_mw": 3.6, "distance_to_shore": 21659, "tippecanoe_feature_density": 0}, "geometry": {"type": "Point", "coordinates": [-3.4490203857421875, 53.960933558166715]}}, {"type": "Feature", "properties": {"point_type": "turbine", "turbinemod": "SWT-3.6-120", "oem": "Siemens", "foundation": "Monopile", "water_dept": -19, "turbine_mw": 3.6, "distance_to_shore": 21020, "tippecanoe_feature_density": 0}, "geometry": {"type": "Point", "coordinates": [-3.4380340576171875, 53.96315538222149]}}, {"type": "Feature", "properties": {"point_type": "turbine", "turbinemod": "SWT-3.6-120", "oem": "Siemens", "foundation": "Monopile", "water_dept": -18, "turbine_mw": 3.6, "distance_to_shore": 21232, "tippecanoe_feature_density": 0}, "geometry": {"type": "Point", "coordinates": [-3.4321975708007812, 53.958105610823594]}}, {"type": "Feature", "properties": {"point_type": "turbine", "turbinemod": "SWT-3.6-120", "oem": "Siemens", "foundation": "Monopile", "water_dept": -19, "turbine_mw": 3.6, "distance_to_shore": 16539, "tippecanoe_feature_density": 0}, "geometry": {"type": "Point", "coordinates": [-3.423614501953125, 54.00938282974411]}}, {"type": "Feature", "properties": {"point_type": "turbine", "turbinemod": "SWT-3.6-120", "oem": "Siemens", "foundation": "Monopile", "water_dept": -19, "turbine_mw": 3.6, "distance_to_shore": 16664, "tippecanoe_feature_density": 0}, "geometry": {"type": "Point", "coordinates": [-3.418121337890625, 54.004540438503625]}}, {"type": "Feature", "properties": {"point_type": "turbine", "turbinemod": "SWT-3.6-120", "oem": "Siemens", "foundation": "Monopile", "water_dept": -19, "turbine_mw": 3.6, "distance_to_shore": 17485, "tippecanoe_feature_density": 0}, "geometry": {"type": "Point", "coordinates": [-3.4232711791992188, 53.9972757951557]}}, {"type": "Feature", "properties": {"point_type": "turbine", "turbinemod": "SWT-3.6-120", "oem": "Siemens", "foundation": "Monopile", "water_dept": -18, "turbine_mw": 3.6, "distance_to_shore": 16816, "tippecanoe_feature_density": 0}, "geometry": {"type": "Point", "coordinates": [-3.412628173828125, 53.99969748380846]}}, {"type": "Feature", "properties": {"point_type": "turbine", "turbinemod": "SWT-3.6-120", "oem": "Siemens", "foundation": "Monopile", "water_dept": -18, "turbine_mw": 3.6, "distance_to_shore": 16990, "tippecanoe_feature_density": 0}, "geometry": {"type": "Point", "coordinates": [-3.407135009765625, 53.99485396562767]}}, {"type": "Feature", "properties": {"point_type": "turbine", "turbinemod": "SWT-3.6-120", "oem": "Siemens", "foundation": "Monopile", "water_dept": -18, "turbine_mw": 3.6, "distance_to_shore": 17646, "tippecanoe_feature_density": 0}, "geometry": {"type": "Point", "coordinates": [-3.4177780151367188, 53.99243199522053]}}, {"type": "Feature", "properties": {"point_type": "turbine", "turbinemod": "SWT-3.6-120", "oem": "Siemens", "foundation": "Monopile", "water_dept": -18, "turbine_mw": 3.6, "distance_to_shore": 18509, "tippecanoe_feature_density": 0}, "geometry": {"type": "Point", "coordinates": [-3.4222412109375, 53.98455961840389]}}, {"type": "Feature", "properties": {"point_type": "turbine", "turbinemod": "SWT-3.6-120", "oem": "Siemens", "foundation": "Monopile", "water_dept": -18, "turbine_mw": 3.6, "distance_to_shore": 17865, "tippecanoe_feature_density": 0}, "geometry": {"type": "Point", "coordinates": [-3.4112548828125, 53.98678018305205]}}, {"type": "Feature", "properties": {"point_type": "turbine", "turbinemod": "SWT-3.6-120", "oem": "Siemens", "foundation": "Monopile", "water_dept": -18, "turbine_mw": 3.6, "distance_to_shore": 18074, "tippecanoe_feature_density": 0}, "geometry": {"type": "Point", "coordinates": [-3.40576171875, 53.98193516209167]}}, {"type": "Feature", "properties": {"point_type": "turbine", "turbinemod": "SWT-3.6-120", "oem": "Siemens", "foundation": "Monopile", "water_dept": -18, "turbine_mw": 3.6, "distance_to_shore": 17228, "tippecanoe_feature_density": 0}, "geometry": {"type": "Point", "coordinates": [-3.4006118774414062, 53.98900062931176]}}, {"type": "Feature", "properties": {"point_type": "turbine", "turbinemod": "SWT-3.6-120", "oem": "Siemens", "foundation": "Monopile", "water_dept": -18, "turbine_mw": 3.6, "distance_to_shore": 17452, "tippecanoe_feature_density": 0}, "geometry": {"type": "Point", "coordinates": [-3.3951187133789062, 53.98415586665729]}}, {"type": "Feature", "properties": {"point_type": "turbine", "turbinemod": "SWT-3.6-120", "oem": "Siemens", "foundation": "Monopile", "water_dept": -19, "turbine_mw": 3.6, "distance_to_shore": 19549, "tippecanoe_feature_density": 0}, "geometry": {"type": "Point", "coordinates": [-3.4218978881835938, 53.972445363437544]}}, {"type": "Feature", "properties": {"point_type": "turbine", "turbinemod": "SWT-3.6-120", "oem": "Siemens", "foundation": "Monopile", "water_dept": -18, "turbine_mw": 3.6, "distance_to_shore": 18705, "tippecanoe_feature_density": 0}, "geometry": {"type": "Point", "coordinates": [-3.416748046875, 53.97971433913108]}}, {"type": "Feature", "properties": {"point_type": "turbine", "turbinemod": "SWT-3.6-120", "oem": "Siemens", "foundation": "Monopile", "water_dept": -18, "turbine_mw": 3.6, "distance_to_shore": 18920, "tippecanoe_feature_density": 0}, "geometry": {"type": "Point", "coordinates": [-3.4112548828125, 53.974868496245136]}}, {"type": "Feature", "properties": {"point_type": "turbine", "turbinemod": "SWT-3.6-120", "oem": "Siemens", "foundation": "Monopile", "water_dept": -19, "turbine_mw": 3.6, "distance_to_shore": 20386, "tippecanoe_feature_density": 0}, "geometry": {"type": "Point", "coordinates": [-3.4273910522460938, 53.96537708785621]}}, {"type": "Feature", "properties": {"point_type": "turbine", "turbinemod": "SWT-3.6-120", "oem": "Siemens", "foundation": "Monopile", "water_dept": -19, "turbine_mw": 3.6, "distance_to_shore": 20612, "tippecanoe_feature_density": 0}, "geometry": {"type": "Point", "coordinates": [-3.4215545654296875, 53.960529577433704]}}, {"type": "Feature", "properties": {"point_type": "turbine", "turbinemod": "SWT-3.6-120", "oem": "Siemens", "foundation": "Monopile", "water_dept": -19, "turbine_mw": 3.6, "distance_to_shore": 19763, "tippecanoe_feature_density": 0}, "geometry": {"type": "Point", "coordinates": [-3.4164047241210938, 53.967598675073845]}}, {"type": "Feature", "properties": {"point_type": "turbine", "turbinemod": "SWT-3.6-120", "oem": "Siemens", "foundation": "Monopile", "water_dept": -19, "turbine_mw": 3.6, "distance_to_shore": 20001, "tippecanoe_feature_density": 0}, "geometry": {"type": "Point", "coordinates": [-3.4109115600585938, 53.96275142301974]}}, {"type": "Feature", "properties": {"point_type": "turbine", "turbinemod": "SWT-3.6-120", "oem": "Siemens", "foundation": "Monopile", "water_dept": -18, "turbine_mw": 3.6, "distance_to_shore": 18303, "tippecanoe_feature_density": 0}, "geometry": {"type": "Point", "coordinates": [-3.4002685546875, 53.97708957753224]}}, {"type": "Feature", "properties": {"point_type": "turbine", "turbinemod": "SWT-3.6-120", "oem": "Siemens", "foundation": "Monopile", "water_dept": -18, "turbine_mw": 3.6, "distance_to_shore": 19155, "tippecanoe_feature_density": 0}, "geometry": {"type": "Point", "coordinates": [-3.40576171875, 53.96982014387734]}}, {"type": "Feature", "properties": {"point_type": "turbine", "turbinemod": "SWT-3.6-120", "oem": "Siemens", "foundation": "Monopile", "water_dept": -18, "turbine_mw": 3.6, "distance_to_shore": 18553, "tippecanoe_feature_density": 0}, "geometry": {"type": "Point", "coordinates": [-3.394775390625, 53.97224342934288]}}, {"type": "Feature", "properties": {"point_type": "turbine", "turbinemod": "SWT-3.6-120", "oem": "Siemens", "foundation": "Monopile", "water_dept": -18, "turbine_mw": 3.6, "distance_to_shore": 17697, "tippecanoe_feature_density": 0}, "geometry": {"type": "Point", "coordinates": [-3.3896255493164062, 53.97931054041791]}}, {"type": "Feature", "properties": {"point_type": "turbine", "turbinemod": "SWT-3.6-120", "oem": "Siemens", "foundation": "Monopile", "water_dept": -18, "turbine_mw": 3.6, "distance_to_shore": 20281, "tippecanoe_feature_density": 0}, "geometry": {"type": "Point", "coordinates": [-3.4047317504882812, 53.95749959714968]}}, {"type": "Feature", "properties": {"point_type": "turbine", "turbinemod": "SWT-3.6-120", "oem": "Siemens", "foundation": "Monopile", "water_dept": -18, "turbine_mw": 3.6, "distance_to_shore": 19559, "tippecanoe_feature_density": 0}, "geometry": {"type": "Point", "coordinates": [-3.3971786499023438, 53.96234745990324]}}, {"type": "Feature", "properties": {"point_type": "turbine", "turbinemod": "SWT-3.6-120", "oem": "Siemens", "foundation": "Monopile", "water_dept": -18, "turbine_mw": 3.6, "distance_to_shore": 18819, "tippecanoe_feature_density": 0}, "geometry": {"type": "Point", "coordinates": [-3.3892822265625, 53.967396717492704]}}, {"type": "Feature", "properties": {"point_type": "turbine", "turbinemod": "SWT-3.6-120", "oem": "Siemens", "foundation": "Monopile", "water_dept": -21, "turbine_mw": 3.6, "distance_to_shore": 24409, "tippecanoe_feature_density": 0}, "geometry": {"type": "Point", "coordinates": [-3.4943389892578125, 53.95143897592408]}}, {"type": "Feature", "properties": {"point_type": "turbine", "turbinemod": "SWT-3.6-120", "oem": "Siemens", "foundation": "Monopile", "water_dept": -21, "turbine_mw": 3.6, "distance_to_shore": 23744, "tippecanoe_feature_density": 0}, "geometry": {"type": "Point", "coordinates": [-3.4833526611328125, 53.953661305989016]}}, {"type": "Feature", "properties": {"point_type": "turbine", "turbinemod": "SWT-3.6-120", "oem": "Siemens", "foundation": "Monopile", "water_dept": -21, "turbine_mw": 3.6, "distance_to_shore": 24563, "tippecanoe_feature_density": 0}, "geometry": {"type": "Point", "coordinates": [-3.4878158569335938, 53.94618572495875]}}, {"type": "Feature", "properties": {"point_type": "turbine", "turbinemod": "SWT-3.6-120", "oem": "Siemens", "foundation": "Monopile", "water_dept": -20, "turbine_mw": 3.6, "distance_to_shore": 23996, "tippecanoe_feature_density": 0}, "geometry": {"type": "Point", "coordinates": [-3.4740829467773438, 53.94598366363027]}}, {"type": "Feature", "properties": {"point_type": "turbine", "turbinemod": "SWT-3.6-120", "oem": "Siemens", "foundation": "Monopile", "water_dept": -19, "turbine_mw": 3.6, "distance_to_shore": 21858, "tippecanoe_feature_density": 0}, "geometry": {"type": "Point", "coordinates": [-3.442840576171875, 53.9558835176212]}}, {"type": "Feature", "properties": {"point_type": "turbine", "turbinemod": "SWT-3.6-120", "oem": "Siemens", "foundation": "Monopile", "water_dept": -19, "turbine_mw": 3.6, "distance_to_shore": 22927, "tippecanoe_feature_density": 0}, "geometry": {"type": "Point", "coordinates": [-3.4462738037109375, 53.94537747377157]}}, {"type": "Feature", "properties": {"point_type": "turbine", "turbinemod": "SWT-3.6-120", "oem": "Siemens", "foundation": "Monopile", "water_dept": -18, "turbine_mw": 3.6, "distance_to_shore": 22095, "tippecanoe_feature_density": 0}, "geometry": {"type": "Point", "coordinates": [-3.4366607666015625, 53.950428786742464]}}, {"type": "Feature", "properties": {"point_type": "turbine", "turbinemod": "SWT-3.6-120", "oem": "Siemens", "foundation": "Monopile", "water_dept": -18, "turbine_mw": 3.6, "distance_to_shore": 22353, "tippecanoe_feature_density": 0}, "geometry": {"type": "Point", "coordinates": [-3.4301376342773438, 53.94497334230476]}}, {"type": "Feature", "properties": {"point_type": "turbine", "turbinemod": "SWT-3.6-120", "oem": "Siemens", "foundation": "Monopile", "water_dept": -18, "turbine_mw": 3.6, "distance_to_shore": 21484, "tippecanoe_feature_density": 0}, "geometry": {"type": "Point", "coordinates": [-3.4260177612304688, 53.952651170641445]}}, {"type": "Feature", "properties": {"point_type": "turbine", "turbinemod": "SWT-3.6-120", "oem": "Siemens", "foundation": "Monopile", "water_dept": -18, "turbine_mw": 3.6, "distance_to_shore": 21752, "tippecanoe_feature_density": 0}, "geometry": {"type": "Point", "coordinates": [-3.4198379516601562, 53.94739807237357]}}, {"type": "Feature", "properties": {"point_type": "turbine", "turbinemod": "SWT-3.6-120", "oem": "Siemens", "foundation": "Monopile", "water_dept": -18, "turbine_mw": 3.6, "distance_to_shore": 21017, "tippecanoe_feature_density": 0}, "geometry": {"type": "Point", "coordinates": [-3.4122848510742188, 53.95244914063554]}}]}