{"type": "FeatureCollection", "features": [{"type": "Feature", "properties": {"wf_develop": "RWE", "turbine_mo": "SWT-3.6-107", "fou_type": "Monopile", "wtg_hubhei": 98, "wtg_oem": "Siemens Gamesa", "cod": "2015-06-01T00:00:00", "wf_name": "Gwynt y Mor", "status": "Fully Commissioned", "no_turbine": 160, "country": "United Kingdom", "capacity_m": 576, "wf_owners": "Innogy/Siemens/Green Investment Group/Stadtwerke Munchen", "tippecanoe_feature_density": 0}, "geometry": {"type": "MultiPolygon", "coordinates": [[[[-3.596649169921875, 53.42242295690912], [-3.6141586303710938, 53.41689867661603], [-3.6313247680664062, 53.422218366733745], [-3.6368179321289062, 53.427741955921505], [-3.6690902709960938, 53.4387869814033], [-3.6800765991210938, 53.44328598369819], [-3.6859130859375, 53.44451290164511], [-3.6920928955078125, 53.45044250555688], [-3.6756134033203125, 53.46802198158528], [-3.626861572265625, 53.485185606792584], [-3.610382080078125, 53.49070101200215], [-3.5866928100585938, 53.49090527249618], [-3.585662841796875, 53.43408296962377], [-3.596649169921875, 53.42242295690912]]], [[[-3.4981155395507812, 53.445330827258005], [-3.5303878784179688, 53.44492186642003], [-3.563690185546875, 53.43326482746403], [-3.5702133178710938, 53.43980952375716], [-3.5708999633789062, 53.48498131875229], [-3.5650634765625, 53.491313790532956], [-3.525238037109375, 53.491518048075704], [-3.4555435180664062, 53.45166921681792], [-3.4981155395507812, 53.445330827258005]]]]}}]}