{"type": "FeatureCollection", "features": [{"type": "Feature", "properties": {"point_type": "turbine", "turbinemod": "SWT-3.6-107", "oem": "Siemens", "foundation": "Monopile", "water_dept": -27, "turbine_mw": 3.6, "distance_to_shore": 15524, "tippecanoe_feature_density": 0}, "geometry": {"type": "Point", "coordinates": [-3.69140625, 53.45064695989416]}}, {"type": "Feature", "properties": {"point_type": "turbine", "turbinemod": "SWT-3.6-107", "oem": "Siemens", "foundation": "Monopile", "water_dept": -28, "turbine_mw": 3.6, "distance_to_shore": 21030, "tippecanoe_feature_density": 0}, "geometry": {"type": "Point", "coordinates": [-3.6110687255859375, 53.49008822461744]}}, {"type": "Feature", "properties": {"point_type": "turbine", "turbinemod": "SWT-3.6-107", "oem": "Siemens", "foundation": "Monopile", "water_dept": -28, "turbine_mw": 3.6, "distance_to_shore": 16940, "tippecanoe_feature_density": 0}, "geometry": {"type": "Point", "coordinates": [-3.6811065673828125, 53.46189043285915]}}, {"type": "Feature", "properties": {"point_type": "turbine", "turbinemod": "SWT-3.6-107", "oem": "Siemens", "foundation": "Monopile", "water_dept": -28, "turbine_mw": 3.6, "distance_to_shore": 17649, "tippecanoe_feature_density": 0}, "geometry": {"type": "Point", "coordinates": [-3.6756134033203125, 53.46761323922294]}}, {"type": "Feature", "properties": {"point_type": "turbine", "turbinemod": "SWT-3.6-107", "oem": "Siemens", "foundation": "Monopile", "water_dept": -27, "turbine_mw": 3.6, "distance_to_shore": 17208, "tippecanoe_feature_density": 0}, "geometry": {"type": "Point", "coordinates": [-3.6701202392578125, 53.46209483208534]}}, {"type": "Feature", "properties": {"point_type": "turbine", "turbinemod": "SWT-3.6-107", "oem": "Siemens", "foundation": "Monopile", "water_dept": -26, "turbine_mw": 3.6, "distance_to_shore": 17922, "tippecanoe_feature_density": 0}, "geometry": {"type": "Point", "coordinates": [-3.6649703979492188, 53.46761323922294]}}, {"type": "Feature", "properties": {"point_type": "turbine", "turbinemod": "SWT-3.6-107", "oem": "Siemens", "foundation": "Monopile", "water_dept": -26, "turbine_mw": 3.6, "distance_to_shore": 17504, "tippecanoe_feature_density": 0}, "geometry": {"type": "Point", "coordinates": [-3.6594772338867188, 53.46209483208534]}}, {"type": "Feature", "properties": {"point_type": "turbine", "turbinemod": "SWT-3.6-107", "oem": "Siemens", "foundation": "Monopile", "water_dept": -27, "turbine_mw": 3.6, "distance_to_shore": 18219, "tippecanoe_feature_density": 0}, "geometry": {"type": "Point", "coordinates": [-3.6539840698242188, 53.467817610896105]}}, {"type": "Feature", "properties": {"point_type": "turbine", "turbinemod": "SWT-3.6-107", "oem": "Siemens", "foundation": "Monopile", "water_dept": -25, "turbine_mw": 3.6, "distance_to_shore": 17822, "tippecanoe_feature_density": 0}, "geometry": {"type": "Point", "coordinates": [-3.6484909057617188, 53.46229923032746]}}, {"type": "Feature", "properties": {"point_type": "turbine", "turbinemod": "SWT-3.6-107", "oem": "Siemens", "foundation": "Monopile", "water_dept": -28, "turbine_mw": 3.6, "distance_to_shore": 16230, "tippecanoe_feature_density": 0}, "geometry": {"type": "Point", "coordinates": [-3.6862564086914062, 53.45637128176699]}}, {"type": "Feature", "properties": {"point_type": "turbine", "turbinemod": "SWT-3.6-107", "oem": "Siemens", "foundation": "Monopile", "water_dept": -26, "turbine_mw": 3.6, "distance_to_shore": 15783, "tippecanoe_feature_density": 0}, "geometry": {"type": "Point", "coordinates": [-3.6807632446289062, 53.45085141324728]}}, {"type": "Feature", "properties": {"point_type": "turbine", "turbinemod": "SWT-3.6-107", "oem": "Siemens", "foundation": "Monopile", "water_dept": -27, "turbine_mw": 3.6, "distance_to_shore": 16496, "tippecanoe_feature_density": 0}, "geometry": {"type": "Point", "coordinates": [-3.6756134033203125, 53.45637128176699]}}, {"type": "Feature", "properties": {"point_type": "turbine", "turbinemod": "SWT-3.6-107", "oem": "Siemens", "foundation": "Monopile", "water_dept": -25, "turbine_mw": 3.6, "distance_to_shore": 16073, "tippecanoe_feature_density": 0}, "geometry": {"type": "Point", "coordinates": [-3.6697769165039062, 53.45085141324728]}}, {"type": "Feature", "properties": {"point_type": "turbine", "turbinemod": "SWT-3.6-107", "oem": "Siemens", "foundation": "Monopile", "water_dept": -20, "turbine_mw": 3.6, "distance_to_shore": 15102, "tippecanoe_feature_density": 0}, "geometry": {"type": "Point", "coordinates": [-3.6859130859375, 53.44553530620064]}}, {"type": "Feature", "properties": {"point_type": "turbine", "turbinemod": "SWT-3.6-107", "oem": "Siemens", "foundation": "Monopile", "water_dept": -20, "turbine_mw": 3.6, "distance_to_shore": 15357, "tippecanoe_feature_density": 0}, "geometry": {"type": "Point", "coordinates": [-3.6752700805664062, 53.445330827258005]}}, {"type": "Feature", "properties": {"point_type": "turbine", "turbinemod": "SWT-3.6-107", "oem": "Siemens", "foundation": "Monopile", "water_dept": -20, "turbine_mw": 3.6, "distance_to_shore": 14952, "tippecanoe_feature_density": 0}, "geometry": {"type": "Point", "coordinates": [-3.6697769165039062, 53.43960501725499]}}, {"type": "Feature", "properties": {"point_type": "turbine", "turbinemod": "SWT-3.6-107", "oem": "Siemens", "foundation": "Monopile", "water_dept": -26, "turbine_mw": 3.6, "distance_to_shore": 16787, "tippecanoe_feature_density": 0}, "geometry": {"type": "Point", "coordinates": [-3.6646270751953125, 53.45657570756376]}}, {"type": "Feature", "properties": {"point_type": "turbine", "turbinemod": "SWT-3.6-107", "oem": "Siemens", "foundation": "Monopile", "water_dept": -24, "turbine_mw": 3.6, "distance_to_shore": 16386, "tippecanoe_feature_density": 0}, "geometry": {"type": "Point", "coordinates": [-3.6591339111328125, 53.45085141324728]}}, {"type": "Feature", "properties": {"point_type": "turbine", "turbinemod": "SWT-3.6-107", "oem": "Siemens", "foundation": "Monopile", "water_dept": -25, "turbine_mw": 3.6, "distance_to_shore": 17103, "tippecanoe_feature_density": 0}, "geometry": {"type": "Point", "coordinates": [-3.6539840698242188, 53.45657570756376]}}, {"type": "Feature", "properties": {"point_type": "turbine", "turbinemod": "SWT-3.6-107", "oem": "Siemens", "foundation": "Monopile", "water_dept": -23, "turbine_mw": 3.6, "distance_to_shore": 16726, "tippecanoe_feature_density": 0}, "geometry": {"type": "Point", "coordinates": [-3.6484909057617188, 53.45105586561621]}}, {"type": "Feature", "properties": {"point_type": "turbine", "turbinemod": "SWT-3.6-107", "oem": "Siemens", "foundation": "Monopile", "water_dept": -20, "turbine_mw": 3.6, "distance_to_shore": 15668, "tippecanoe_feature_density": 0}, "geometry": {"type": "Point", "coordinates": [-3.6642837524414062, 53.445330827258005]}}, {"type": "Feature", "properties": {"point_type": "turbine", "turbinemod": "SWT-3.6-107", "oem": "Siemens", "foundation": "Monopile", "water_dept": -21, "turbine_mw": 3.6, "distance_to_shore": 15289, "tippecanoe_feature_density": 0}, "geometry": {"type": "Point", "coordinates": [-3.6587905883789062, 53.43980952375716]}}, {"type": "Feature", "properties": {"point_type": "turbine", "turbinemod": "SWT-3.6-107", "oem": "Siemens", "foundation": "Monopile", "water_dept": -22, "turbine_mw": 3.6, "distance_to_shore": 16008, "tippecanoe_feature_density": 0}, "geometry": {"type": "Point", "coordinates": [-3.6536407470703125, 53.445330827258005]}}, {"type": "Feature", "properties": {"point_type": "turbine", "turbinemod": "SWT-3.6-107", "oem": "Siemens", "foundation": "Monopile", "water_dept": -21, "turbine_mw": 3.6, "distance_to_shore": 15654, "tippecanoe_feature_density": 0}, "geometry": {"type": "Point", "coordinates": [-3.6481475830078125, 53.43980952375716]}}, {"type": "Feature", "properties": {"point_type": "turbine", "turbinemod": "SWT-3.6-107", "oem": "Siemens", "foundation": "Monopile", "water_dept": -27, "turbine_mw": 3.6, "distance_to_shore": 19974, "tippecanoe_feature_density": 0}, "geometry": {"type": "Point", "coordinates": [-3.6326980590820312, 53.47905653761052]}}, {"type": "Feature", "properties": {"point_type": "turbine", "turbinemod": "SWT-3.6-107", "oem": "Siemens", "foundation": "Monopile", "water_dept": -27, "turbine_mw": 3.6, "distance_to_shore": 19257, "tippecanoe_feature_density": 0}, "geometry": {"type": "Point", "coordinates": [-3.637847900390625, 53.473539618246235]}}, {"type": "Feature", "properties": {"point_type": "turbine", "turbinemod": "SWT-3.6-107", "oem": "Siemens", "foundation": "Monopile", "water_dept": -27, "turbine_mw": 3.6, "distance_to_shore": 18538, "tippecanoe_feature_density": 0}, "geometry": {"type": "Point", "coordinates": [-3.643341064453125, 53.467817610896105]}}, {"type": "Feature", "properties": {"point_type": "turbine", "turbinemod": "SWT-3.6-107", "oem": "Siemens", "foundation": "Monopile", "water_dept": -24, "turbine_mw": 3.6, "distance_to_shore": 18162, "tippecanoe_feature_density": 0}, "geometry": {"type": "Point", "coordinates": [-3.637847900390625, 53.46229923032746]}}, {"type": "Feature", "properties": {"point_type": "turbine", "turbinemod": "SWT-3.6-107", "oem": "Siemens", "foundation": "Monopile", "water_dept": -25, "turbine_mw": 3.6, "distance_to_shore": 19599, "tippecanoe_feature_density": 0}, "geometry": {"type": "Point", "coordinates": [-3.6272048950195312, 53.473539618246235]}}, {"type": "Feature", "properties": {"point_type": "turbine", "turbinemod": "SWT-3.6-107", "oem": "Siemens", "foundation": "Monopile", "water_dept": -25, "turbine_mw": 3.6, "distance_to_shore": 18882, "tippecanoe_feature_density": 0}, "geometry": {"type": "Point", "coordinates": [-3.632354736328125, 53.467817610896105]}}, {"type": "Feature", "properties": {"point_type": "turbine", "turbinemod": "SWT-3.6-107", "oem": "Siemens", "foundation": "Monopile", "water_dept": -22, "turbine_mw": 3.6, "distance_to_shore": 18525, "tippecanoe_feature_density": 0}, "geometry": {"type": "Point", "coordinates": [-3.626861572265625, 53.46229923032746]}}, {"type": "Feature", "properties": {"point_type": "turbine", "turbinemod": "SWT-3.6-107", "oem": "Siemens", "foundation": "Monopile", "water_dept": -27, "turbine_mw": 3.6, "distance_to_shore": 20646, "tippecanoe_feature_density": 0}, "geometry": {"type": "Point", "coordinates": [-3.6165618896484375, 53.48477702972815]}}, {"type": "Feature", "properties": {"point_type": "turbine", "turbinemod": "SWT-3.6-107", "oem": "Siemens", "foundation": "Monopile", "water_dept": -28, "turbine_mw": 3.6, "distance_to_shore": 20227, "tippecanoe_feature_density": 0}, "geometry": {"type": "Point", "coordinates": [-3.6217117309570312, 53.47905653761052]}}, {"type": "Feature", "properties": {"point_type": "turbine", "turbinemod": "SWT-3.6-107", "oem": "Siemens", "foundation": "Monopile", "water_dept": -25, "turbine_mw": 3.6, "distance_to_shore": 20350, "tippecanoe_feature_density": 0}, "geometry": {"type": "Point", "coordinates": [-3.6055755615234375, 53.48477702972815]}}, {"type": "Feature", "properties": {"point_type": "turbine", "turbinemod": "SWT-3.6-107", "oem": "Siemens", "foundation": "Monopile", "water_dept": -25, "turbine_mw": 3.6, "distance_to_shore": 19931, "tippecanoe_feature_density": 0}, "geometry": {"type": "Point", "coordinates": [-3.6110687255859375, 53.479260854182655]}}, {"type": "Feature", "properties": {"point_type": "turbine", "turbinemod": "SWT-3.6-107", "oem": "Siemens", "foundation": "Monopile", "water_dept": -23, "turbine_mw": 3.6, "distance_to_shore": 19511, "tippecanoe_feature_density": 0}, "geometry": {"type": "Point", "coordinates": [-3.6162185668945312, 53.473539618246235]}}, {"type": "Feature", "properties": {"point_type": "turbine", "turbinemod": "SWT-3.6-107", "oem": "Siemens", "foundation": "Monopile", "water_dept": -24, "turbine_mw": 3.6, "distance_to_shore": 19092, "tippecanoe_feature_density": 0}, "geometry": {"type": "Point", "coordinates": [-3.6217117309570312, 53.46802198158528]}}, {"type": "Feature", "properties": {"point_type": "turbine", "turbinemod": "SWT-3.6-107", "oem": "Siemens", "foundation": "Monopile", "water_dept": -21, "turbine_mw": 3.6, "distance_to_shore": 18378, "tippecanoe_feature_density": 0}, "geometry": {"type": "Point", "coordinates": [-3.6162185668945312, 53.46250362758556]}}, {"type": "Feature", "properties": {"point_type": "turbine", "turbinemod": "SWT-3.6-107", "oem": "Siemens", "foundation": "Monopile", "water_dept": -22, "turbine_mw": 3.6, "distance_to_shore": 19216, "tippecanoe_feature_density": 0}, "geometry": {"type": "Point", "coordinates": [-3.6055755615234375, 53.47374396138409]}}, {"type": "Feature", "properties": {"point_type": "turbine", "turbinemod": "SWT-3.6-107", "oem": "Siemens", "foundation": "Monopile", "water_dept": -23, "turbine_mw": 3.6, "distance_to_shore": 18797, "tippecanoe_feature_density": 0}, "geometry": {"type": "Point", "coordinates": [-3.6107254028320312, 53.46802198158528]}}, {"type": "Feature", "properties": {"point_type": "turbine", "turbinemod": "SWT-3.6-107", "oem": "Siemens", "foundation": "Monopile", "water_dept": -21, "turbine_mw": 3.6, "distance_to_shore": 18083, "tippecanoe_feature_density": 0}, "geometry": {"type": "Point", "coordinates": [-3.6052322387695312, 53.46250362758556]}}, {"type": "Feature", "properties": {"point_type": "turbine", "turbinemod": "SWT-3.6-107", "oem": "Siemens", "foundation": "Monopile", "water_dept": -24, "turbine_mw": 3.6, "distance_to_shore": 17445, "tippecanoe_feature_density": 0}, "geometry": {"type": "Point", "coordinates": [-3.6429977416992188, 53.45657570756376]}}, {"type": "Feature", "properties": {"point_type": "turbine", "turbinemod": "SWT-3.6-107", "oem": "Siemens", "foundation": "Monopile", "water_dept": -22, "turbine_mw": 3.6, "distance_to_shore": 17090, "tippecanoe_feature_density": 0}, "geometry": {"type": "Point", "coordinates": [-3.6375045776367188, 53.45105586561621]}}, {"type": "Feature", "properties": {"point_type": "turbine", "turbinemod": "SWT-3.6-107", "oem": "Siemens", "foundation": "Monopile", "water_dept": -22, "turbine_mw": 3.6, "distance_to_shore": 17808, "tippecanoe_feature_density": 0}, "geometry": {"type": "Point", "coordinates": [-3.632354736328125, 53.45678013237645]}}, {"type": "Feature", "properties": {"point_type": "turbine", "turbinemod": "SWT-3.6-107", "oem": "Siemens", "foundation": "Monopile", "water_dept": -21, "turbine_mw": 3.6, "distance_to_shore": 17475, "tippecanoe_feature_density": 0}, "geometry": {"type": "Point", "coordinates": [-3.626861572265625, 53.45126031700096]}}, {"type": "Feature", "properties": {"point_type": "turbine", "turbinemod": "SWT-3.6-107", "oem": "Siemens", "foundation": "Monopile", "water_dept": -22, "turbine_mw": 3.6, "distance_to_shore": 16371, "tippecanoe_feature_density": 0}, "geometry": {"type": "Point", "coordinates": [-3.6429977416992188, 53.44553530620064]}}, {"type": "Feature", "properties": {"point_type": "turbine", "turbinemod": "SWT-3.6-107", "oem": "Siemens", "foundation": "Monopile", "water_dept": -21, "turbine_mw": 3.6, "distance_to_shore": 16041, "tippecanoe_feature_density": 0}, "geometry": {"type": "Point", "coordinates": [-3.6371612548828125, 53.44001402927506]}}, {"type": "Feature", "properties": {"point_type": "turbine", "turbinemod": "SWT-3.6-107", "oem": "Siemens", "foundation": "Monopile", "water_dept": -21, "turbine_mw": 3.6, "distance_to_shore": 16757, "tippecanoe_feature_density": 0}, "geometry": {"type": "Point", "coordinates": [-3.6320114135742188, 53.44553530620064]}}, {"type": "Feature", "properties": {"point_type": "turbine", "turbinemod": "SWT-3.6-107", "oem": "Siemens", "foundation": "Monopile", "water_dept": -20, "turbine_mw": 3.6, "distance_to_shore": 16310, "tippecanoe_feature_density": 0}, "geometry": {"type": "Point", "coordinates": [-3.6265182495117188, 53.44001402927506]}}, {"type": "Feature", "properties": {"point_type": "turbine", "turbinemod": "SWT-3.6-107", "oem": "Siemens", "foundation": "Monopile", "water_dept": -21, "turbine_mw": 3.6, "distance_to_shore": 17939, "tippecanoe_feature_density": 0}, "geometry": {"type": "Point", "coordinates": [-3.621368408203125, 53.45678013237645]}}, {"type": "Feature", "properties": {"point_type": "turbine", "turbinemod": "SWT-3.6-107", "oem": "Siemens", "foundation": "Monopile", "water_dept": -20, "turbine_mw": 3.6, "distance_to_shore": 17232, "tippecanoe_feature_density": 0}, "geometry": {"type": "Point", "coordinates": [-3.615875244140625, 53.45126031700096]}}, {"type": "Feature", "properties": {"point_type": "turbine", "turbinemod": "SWT-3.6-107", "oem": "Siemens", "foundation": "Monopile", "water_dept": -20, "turbine_mw": 3.6, "distance_to_shore": 17663, "tippecanoe_feature_density": 0}, "geometry": {"type": "Point", "coordinates": [-3.6107254028320312, 53.45678013237645]}}, {"type": "Feature", "properties": {"point_type": "turbine", "turbinemod": "SWT-3.6-107", "oem": "Siemens", "foundation": "Monopile", "water_dept": -19, "turbine_mw": 3.6, "distance_to_shore": 16948, "tippecanoe_feature_density": 0}, "geometry": {"type": "Point", "coordinates": [-3.6052322387695312, 53.45126031700096]}}, {"type": "Feature", "properties": {"point_type": "turbine", "turbinemod": "SWT-3.6-107", "oem": "Siemens", "foundation": "Monopile", "water_dept": -20, "turbine_mw": 3.6, "distance_to_shore": 16772, "tippecanoe_feature_density": 0}, "geometry": {"type": "Point", "coordinates": [-3.621368408203125, 53.44553530620064]}}, {"type": "Feature", "properties": {"point_type": "turbine", "turbinemod": "SWT-3.6-107", "oem": "Siemens", "foundation": "Monopile", "water_dept": -19, "turbine_mw": 3.6, "distance_to_shore": 16063, "tippecanoe_feature_density": 0}, "geometry": {"type": "Point", "coordinates": [-3.6155319213867188, 53.44001402927506]}}, {"type": "Feature", "properties": {"point_type": "turbine", "turbinemod": "SWT-3.6-107", "oem": "Siemens", "foundation": "Monopile", "water_dept": -18, "turbine_mw": 3.6, "distance_to_shore": 16525, "tippecanoe_feature_density": 0}, "geometry": {"type": "Point", "coordinates": [-3.610382080078125, 53.44573978415903]}}, {"type": "Feature", "properties": {"point_type": "turbine", "turbinemod": "SWT-3.6-107", "oem": "Siemens", "foundation": "Monopile", "water_dept": -18, "turbine_mw": 3.6, "distance_to_shore": 15814, "tippecanoe_feature_density": 0}, "geometry": {"type": "Point", "coordinates": [-3.604888916015625, 53.44001402927506]}}, {"type": "Feature", "properties": {"point_type": "turbine", "turbinemod": "SWT-3.6-107", "oem": "Siemens", "foundation": "Monopile", "water_dept": -26, "turbine_mw": 3.6, "distance_to_shore": 20735, "tippecanoe_feature_density": 0}, "geometry": {"type": "Point", "coordinates": [-3.6004257202148438, 53.49008822461744]}}, {"type": "Feature", "properties": {"point_type": "turbine", "turbinemod": "SWT-3.6-107", "oem": "Siemens", "foundation": "Monopile", "water_dept": -25, "turbine_mw": 3.6, "distance_to_shore": 20439, "tippecanoe_feature_density": 0}, "geometry": {"type": "Point", "coordinates": [-3.5894393920898438, 53.49008822461744]}}, {"type": "Feature", "properties": {"point_type": "turbine", "turbinemod": "SWT-3.6-107", "oem": "Siemens", "foundation": "Monopile", "water_dept": -22, "turbine_mw": 3.6, "distance_to_shore": 19808, "tippecanoe_feature_density": 0}, "geometry": {"type": "Point", "coordinates": [-3.5654067993164062, 53.49070101200215]}}, {"type": "Feature", "properties": {"point_type": "turbine", "turbinemod": "SWT-3.6-107", "oem": "Siemens", "foundation": "Monopile", "water_dept": -22, "turbine_mw": 3.6, "distance_to_shore": 19513, "tippecanoe_feature_density": 0}, "geometry": {"type": "Point", "coordinates": [-3.5544204711914062, 53.49070101200215]}}, {"type": "Feature", "properties": {"point_type": "turbine", "turbinemod": "SWT-3.6-107", "oem": "Siemens", "foundation": "Monopile", "water_dept": -21, "turbine_mw": 3.6, "distance_to_shore": 19218, "tippecanoe_feature_density": 0}, "geometry": {"type": "Point", "coordinates": [-3.5437774658203125, 53.49070101200215]}}, {"type": "Feature", "properties": {"point_type": "turbine", "turbinemod": "SWT-3.6-107", "oem": "Siemens", "foundation": "Monopile", "water_dept": -21, "turbine_mw": 3.6, "distance_to_shore": 18924, "tippecanoe_feature_density": 0}, "geometry": {"type": "Point", "coordinates": [-3.5327911376953125, 53.49090527249618]}}, {"type": "Feature", "properties": {"point_type": "turbine", "turbinemod": "SWT-3.6-107", "oem": "Siemens", "foundation": "Monopile", "water_dept": -25, "turbine_mw": 3.6, "distance_to_shore": 20055, "tippecanoe_feature_density": 0}, "geometry": {"type": "Point", "coordinates": [-3.5949325561523438, 53.48498131875229]}}, {"type": "Feature", "properties": {"point_type": "turbine", "turbinemod": "SWT-3.6-107", "oem": "Siemens", "foundation": "Monopile", "water_dept": -23, "turbine_mw": 3.6, "distance_to_shore": 19636, "tippecanoe_feature_density": 0}, "geometry": {"type": "Point", "coordinates": [-3.6000823974609375, 53.479260854182655]}}, {"type": "Feature", "properties": {"point_type": "turbine", "turbinemod": "SWT-3.6-107", "oem": "Siemens", "foundation": "Monopile", "water_dept": -23, "turbine_mw": 3.6, "distance_to_shore": 19341, "tippecanoe_feature_density": 0}, "geometry": {"type": "Point", "coordinates": [-3.5894393920898438, 53.479260854182655]}}, {"type": "Feature", "properties": {"point_type": "turbine", "turbinemod": "SWT-3.6-107", "oem": "Siemens", "foundation": "Monopile", "water_dept": -20, "turbine_mw": 3.6, "distance_to_shore": 18920, "tippecanoe_feature_density": 0}, "geometry": {"type": "Point", "coordinates": [-3.5945892333984375, 53.47374396138409]}}, {"type": "Feature", "properties": {"point_type": "turbine", "turbinemod": "SWT-3.6-107", "oem": "Siemens", "foundation": "Monopile", "water_dept": -21, "turbine_mw": 3.6, "distance_to_shore": 18501, "tippecanoe_feature_density": 0}, "geometry": {"type": "Point", "coordinates": [-3.6000823974609375, 53.46802198158528]}}, {"type": "Feature", "properties": {"point_type": "turbine", "turbinemod": "SWT-3.6-107", "oem": "Siemens", "foundation": "Monopile", "water_dept": -20, "turbine_mw": 3.6, "distance_to_shore": 17787, "tippecanoe_feature_density": 0}, "geometry": {"type": "Point", "coordinates": [-3.5945892333984375, 53.46250362758556]}}, {"type": "Feature", "properties": {"point_type": "turbine", "turbinemod": "SWT-3.6-107", "oem": "Siemens", "foundation": "Monopile", "water_dept": -20, "turbine_mw": 3.6, "distance_to_shore": 18206, "tippecanoe_feature_density": 0}, "geometry": {"type": "Point", "coordinates": [-3.5890960693359375, 53.46822635129044]}}, {"type": "Feature", "properties": {"point_type": "turbine", "turbinemod": "SWT-3.6-107", "oem": "Siemens", "foundation": "Monopile", "water_dept": -22, "turbine_mw": 3.6, "distance_to_shore": 19389, "tippecanoe_feature_density": 0}, "geometry": {"type": "Point", "coordinates": [-3.570556640625, 53.48498131875229]}}, {"type": "Feature", "properties": {"point_type": "turbine", "turbinemod": "SWT-3.6-107", "oem": "Siemens", "foundation": "Monopile", "water_dept": -21, "turbine_mw": 3.6, "distance_to_shore": 19094, "tippecanoe_feature_density": 0}, "geometry": {"type": "Point", "coordinates": [-3.5599136352539062, 53.48498131875229]}}, {"type": "Feature", "properties": {"point_type": "turbine", "turbinemod": "SWT-3.6-107", "oem": "Siemens", "foundation": "Monopile", "water_dept": -21, "turbine_mw": 3.6, "distance_to_shore": 18675, "tippecanoe_feature_density": 0}, "geometry": {"type": "Point", "coordinates": [-3.5650634765625, 53.47946516977089]}}, {"type": "Feature", "properties": {"point_type": "turbine", "turbinemod": "SWT-3.6-107", "oem": "Siemens", "foundation": "Monopile", "water_dept": -20, "turbine_mw": 3.6, "distance_to_shore": 18256, "tippecanoe_feature_density": 0}, "geometry": {"type": "Point", "coordinates": [-3.570556640625, 53.47374396138409]}}, {"type": "Feature", "properties": {"point_type": "turbine", "turbinemod": "SWT-3.6-107", "oem": "Siemens", "foundation": "Monopile", "water_dept": -19, "turbine_mw": 3.6, "distance_to_shore": 17960, "tippecanoe_feature_density": 0}, "geometry": {"type": "Point", "coordinates": [-3.5595703125, 53.47394830353804]}}, {"type": "Feature", "properties": {"point_type": "turbine", "turbinemod": "SWT-3.6-107", "oem": "Siemens", "foundation": "Monopile", "water_dept": -19, "turbine_mw": 3.6, "distance_to_shore": 17122, "tippecanoe_feature_density": 0}, "geometry": {"type": "Point", "coordinates": [-3.5702133178710938, 53.46270802385956]}}, {"type": "Feature", "properties": {"point_type": "turbine", "turbinemod": "SWT-3.6-107", "oem": "Siemens", "foundation": "Monopile", "water_dept": -19, "turbine_mw": 3.6, "distance_to_shore": 17541, "tippecanoe_feature_density": 0}, "geometry": {"type": "Point", "coordinates": [-3.5650634765625, 53.46822635129044]}}, {"type": "Feature", "properties": {"point_type": "turbine", "turbinemod": "SWT-3.6-107", "oem": "Siemens", "foundation": "Monopile", "water_dept": -19, "turbine_mw": 3.6, "distance_to_shore": 17367, "tippecanoe_feature_density": 0}, "geometry": {"type": "Point", "coordinates": [-3.5997390747070312, 53.45698455620496]}}, {"type": "Feature", "properties": {"point_type": "turbine", "turbinemod": "SWT-3.6-107", "oem": "Siemens", "foundation": "Monopile", "water_dept": -19, "turbine_mw": 3.6, "distance_to_shore": 16653, "tippecanoe_feature_density": 0}, "geometry": {"type": "Point", "coordinates": [-3.5942459106445312, 53.45146476740152]}}, {"type": "Feature", "properties": {"point_type": "turbine", "turbinemod": "SWT-3.6-107", "oem": "Siemens", "foundation": "Monopile", "water_dept": -18, "turbine_mw": 3.6, "distance_to_shore": 17072, "tippecanoe_feature_density": 0}, "geometry": {"type": "Point", "coordinates": [-3.5890960693359375, 53.45698455620496]}}, {"type": "Feature", "properties": {"point_type": "turbine", "turbinemod": "SWT-3.6-107", "oem": "Siemens", "foundation": "Monopile", "water_dept": -18, "turbine_mw": 3.6, "distance_to_shore": 16234, "tippecanoe_feature_density": 0}, "geometry": {"type": "Point", "coordinates": [-3.5997390747070312, 53.44573978415903]}}, {"type": "Feature", "properties": {"point_type": "turbine", "turbinemod": "SWT-3.6-107", "oem": "Siemens", "foundation": "Monopile", "water_dept": -18, "turbine_mw": 3.6, "distance_to_shore": 15518, "tippecanoe_feature_density": 0}, "geometry": {"type": "Point", "coordinates": [-3.5942459106445312, 53.44021853380863]}}, {"type": "Feature", "properties": {"point_type": "turbine", "turbinemod": "SWT-3.6-107", "oem": "Siemens", "foundation": "Monopile", "water_dept": -18, "turbine_mw": 3.6, "distance_to_shore": 15939, "tippecanoe_feature_density": 0}, "geometry": {"type": "Point", "coordinates": [-3.5887527465820312, 53.44573978415903]}}, {"type": "Feature", "properties": {"point_type": "turbine", "turbinemod": "SWT-3.6-107", "oem": "Siemens", "foundation": "Monopile", "water_dept": -17, "turbine_mw": 3.6, "distance_to_shore": 16406, "tippecanoe_feature_density": 0}, "geometry": {"type": "Point", "coordinates": [-3.5647201538085938, 53.45698455620496]}}, {"type": "Feature", "properties": {"point_type": "turbine", "turbinemod": "SWT-3.6-107", "oem": "Siemens", "foundation": "Monopile", "water_dept": -17, "turbine_mw": 3.6, "distance_to_shore": 15987, "tippecanoe_feature_density": 0}, "geometry": {"type": "Point", "coordinates": [-3.5702133178710938, 53.45146476740152]}}, {"type": "Feature", "properties": {"point_type": "turbine", "turbinemod": "SWT-3.6-107", "oem": "Siemens", "foundation": "Monopile", "water_dept": -17, "turbine_mw": 3.6, "distance_to_shore": 15273, "tippecanoe_feature_density": 0}, "geometry": {"type": "Point", "coordinates": [-3.5647201538085938, 53.44594426113315]}}, {"type": "Feature", "properties": {"point_type": "turbine", "turbinemod": "SWT-3.6-107", "oem": "Siemens", "foundation": "Monopile", "water_dept": -16, "turbine_mw": 3.6, "distance_to_shore": 14855, "tippecanoe_feature_density": 0}, "geometry": {"type": "Point", "coordinates": [-3.5698699951171875, 53.44021853380863]}}, {"type": "Feature", "properties": {"point_type": "turbine", "turbinemod": "SWT-3.6-107", "oem": "Siemens", "foundation": "Monopile", "water_dept": -20, "turbine_mw": 3.6, "distance_to_shore": 18799, "tippecanoe_feature_density": 0}, "geometry": {"type": "Point", "coordinates": [-3.5489273071289062, 53.485185606792584]}}, {"type": "Feature", "properties": {"point_type": "turbine", "turbinemod": "SWT-3.6-107", "oem": "Siemens", "foundation": "Monopile", "water_dept": -20, "turbine_mw": 3.6, "distance_to_shore": 18379, "tippecanoe_feature_density": 0}, "geometry": {"type": "Point", "coordinates": [-3.5544204711914062, 53.47946516977089]}}, {"type": "Feature", "properties": {"point_type": "turbine", "turbinemod": "SWT-3.6-107", "oem": "Siemens", "foundation": "Monopile", "water_dept": -20, "turbine_mw": 3.6, "distance_to_shore": 18503, "tippecanoe_feature_density": 0}, "geometry": {"type": "Point", "coordinates": [-3.5382843017578125, 53.485185606792584]}}, {"type": "Feature", "properties": {"point_type": "turbine", "turbinemod": "SWT-3.6-107", "oem": "Siemens", "foundation": "Monopile", "water_dept": -19, "turbine_mw": 3.6, "distance_to_shore": 18084, "tippecanoe_feature_density": 0}, "geometry": {"type": "Point", "coordinates": [-3.5434341430664062, 53.47946516977089]}}, {"type": "Feature", "properties": {"point_type": "turbine", "turbinemod": "SWT-3.6-107", "oem": "Siemens", "foundation": "Monopile", "water_dept": -18, "turbine_mw": 3.6, "distance_to_shore": 17665, "tippecanoe_feature_density": 0}, "geometry": {"type": "Point", "coordinates": [-3.5489273071289062, 53.47394830353804]}}, {"type": "Feature", "properties": {"point_type": "turbine", "turbinemod": "SWT-3.6-107", "oem": "Siemens", "foundation": "Monopile", "water_dept": -18, "turbine_mw": 3.6, "distance_to_shore": 17246, "tippecanoe_feature_density": 0}, "geometry": {"type": "Point", "coordinates": [-3.5540771484375, 53.46843072001158]}}, {"type": "Feature", "properties": {"point_type": "turbine", "turbinemod": "SWT-3.6-107", "oem": "Siemens", "foundation": "Monopile", "water_dept": -18, "turbine_mw": 3.6, "distance_to_shore": 16825, "tippecanoe_feature_density": 0}, "geometry": {"type": "Point", "coordinates": [-3.5595703125, 53.46270802385956]}}, {"type": "Feature", "properties": {"point_type": "turbine", "turbinemod": "SWT-3.6-107", "oem": "Siemens", "foundation": "Monopile", "water_dept": -18, "turbine_mw": 3.6, "distance_to_shore": 16530, "tippecanoe_feature_density": 0}, "geometry": {"type": "Point", "coordinates": [-3.548583984375, 53.46270802385956]}}, {"type": "Feature", "properties": {"point_type": "turbine", "turbinemod": "SWT-3.6-107", "oem": "Siemens", "foundation": "Monopile", "water_dept": -18, "turbine_mw": 3.6, "distance_to_shore": 16951, "tippecanoe_feature_density": 0}, "geometry": {"type": "Point", "coordinates": [-3.5434341430664062, 53.46843072001158]}}, {"type": "Feature", "properties": {"point_type": "turbine", "turbinemod": "SWT-3.6-107", "oem": "Siemens", "foundation": "Monopile", "water_dept": -18, "turbine_mw": 3.6, "distance_to_shore": 17370, "tippecanoe_feature_density": 0}, "geometry": {"type": "Point", "coordinates": [-3.5379409790039062, 53.47394830353804]}}, {"type": "Feature", "properties": {"point_type": "turbine", "turbinemod": "SWT-3.6-107", "oem": "Siemens", "foundation": "Monopile", "water_dept": -17, "turbine_mw": 3.6, "distance_to_shore": 16235, "tippecanoe_feature_density": 0}, "geometry": {"type": "Point", "coordinates": [-3.5379409790039062, 53.46291241914949]}}, {"type": "Feature", "properties": {"point_type": "turbine", "turbinemod": "SWT-3.6-107", "oem": "Siemens", "foundation": "Monopile", "water_dept": -20, "turbine_mw": 3.6, "distance_to_shore": 18208, "tippecanoe_feature_density": 0}, "geometry": {"type": "Point", "coordinates": [-3.5272979736328125, 53.485185606792584]}}, {"type": "Feature", "properties": {"point_type": "turbine", "turbinemod": "SWT-3.6-107", "oem": "Siemens", "foundation": "Monopile", "water_dept": -19, "turbine_mw": 3.6, "distance_to_shore": 17789, "tippecanoe_feature_density": 0}, "geometry": {"type": "Point", "coordinates": [-3.5327911376953125, 53.47966948437525]}}, {"type": "Feature", "properties": {"point_type": "turbine", "turbinemod": "SWT-3.6-107", "oem": "Siemens", "foundation": "Monopile", "water_dept": -18, "turbine_mw": 3.6, "distance_to_shore": 17896, "tippecanoe_feature_density": 0}, "geometry": {"type": "Point", "coordinates": [-3.516998291015625, 53.48498131875229]}}, {"type": "Feature", "properties": {"point_type": "turbine", "turbinemod": "SWT-3.6-107", "oem": "Siemens", "foundation": "Monopile", "water_dept": -18, "turbine_mw": 3.6, "distance_to_shore": 17494, "tippecanoe_feature_density": 0}, "geometry": {"type": "Point", "coordinates": [-3.5218048095703125, 53.47966948437525]}}, {"type": "Feature", "properties": {"point_type": "turbine", "turbinemod": "SWT-3.6-107", "oem": "Siemens", "foundation": "Monopile", "water_dept": -18, "turbine_mw": 3.6, "distance_to_shore": 16654, "tippecanoe_feature_density": 0}, "geometry": {"type": "Point", "coordinates": [-3.5324478149414062, 53.46843072001158]}}, {"type": "Feature", "properties": {"point_type": "turbine", "turbinemod": "SWT-3.6-107", "oem": "Siemens", "foundation": "Monopile", "water_dept": -19, "turbine_mw": 3.6, "distance_to_shore": 17073, "tippecanoe_feature_density": 0}, "geometry": {"type": "Point", "coordinates": [-3.5272979736328125, 53.474152644708]}}, {"type": "Feature", "properties": {"point_type": "turbine", "turbinemod": "SWT-3.6-107", "oem": "Siemens", "foundation": "Monopile", "water_dept": -17, "turbine_mw": 3.6, "distance_to_shore": 15941, "tippecanoe_feature_density": 0}, "geometry": {"type": "Point", "coordinates": [-3.5269546508789062, 53.46291241914949]}}, {"type": "Feature", "properties": {"point_type": "turbine", "turbinemod": "SWT-3.6-107", "oem": "Siemens", "foundation": "Monopile", "water_dept": -18, "turbine_mw": 3.6, "distance_to_shore": 16359, "tippecanoe_feature_density": 0}, "geometry": {"type": "Point", "coordinates": [-3.5218048095703125, 53.46843072001158]}}, {"type": "Feature", "properties": {"point_type": "turbine", "turbinemod": "SWT-3.6-107", "oem": "Siemens", "foundation": "Monopile", "water_dept": -18, "turbine_mw": 3.6, "distance_to_shore": 16779, "tippecanoe_feature_density": 0}, "geometry": {"type": "Point", "coordinates": [-3.5163116455078125, 53.474152644708]}}, {"type": "Feature", "properties": {"point_type": "turbine", "turbinemod": "SWT-3.6-107", "oem": "Siemens", "foundation": "Monopile", "water_dept": -17, "turbine_mw": 3.6, "distance_to_shore": 15644, "tippecanoe_feature_density": 0}, "geometry": {"type": "Point", "coordinates": [-3.5163116455078125, 53.46291241914949]}}, {"type": "Feature", "properties": {"point_type": "turbine", "turbinemod": "SWT-3.6-107", "oem": "Siemens", "foundation": "Monopile", "water_dept": -17, "turbine_mw": 3.6, "distance_to_shore": 16111, "tippecanoe_feature_density": 0}, "geometry": {"type": "Point", "coordinates": [-3.5540771484375, 53.45718897904939]}}, {"type": "Feature", "properties": {"point_type": "turbine", "turbinemod": "SWT-3.6-107", "oem": "Siemens", "foundation": "Monopile", "water_dept": -17, "turbine_mw": 3.6, "distance_to_shore": 15692, "tippecanoe_feature_density": 0}, "geometry": {"type": "Point", "coordinates": [-3.5592269897460938, 53.45146476740152]}}, {"type": "Feature", "properties": {"point_type": "turbine", "turbinemod": "SWT-3.6-107", "oem": "Siemens", "foundation": "Monopile", "water_dept": -16, "turbine_mw": 3.6, "distance_to_shore": 15816, "tippecanoe_feature_density": 0}, "geometry": {"type": "Point", "coordinates": [-3.5430908203125, 53.45718897904939]}}, {"type": "Feature", "properties": {"point_type": "turbine", "turbinemod": "SWT-3.6-107", "oem": "Siemens", "foundation": "Monopile", "water_dept": -16, "turbine_mw": 3.6, "distance_to_shore": 15398, "tippecanoe_feature_density": 0}, "geometry": {"type": "Point", "coordinates": [-3.548583984375, 53.45166921681792]}}, {"type": "Feature", "properties": {"point_type": "turbine", "turbinemod": "SWT-3.6-107", "oem": "Siemens", "foundation": "Monopile", "water_dept": -16, "turbine_mw": 3.6, "distance_to_shore": 15101, "tippecanoe_feature_density": 0}, "geometry": {"type": "Point", "coordinates": [-3.53759765625, 53.45166921681792]}}, {"type": "Feature", "properties": {"point_type": "turbine", "turbinemod": "SWT-3.6-107", "oem": "Siemens", "foundation": "Monopile", "water_dept": -15, "turbine_mw": 3.6, "distance_to_shore": 14977, "tippecanoe_feature_density": 0}, "geometry": {"type": "Point", "coordinates": [-3.5537338256835938, 53.44594426113315]}}, {"type": "Feature", "properties": {"point_type": "turbine", "turbinemod": "SWT-3.6-107", "oem": "Siemens", "foundation": "Monopile", "water_dept": -15, "turbine_mw": 3.6, "distance_to_shore": 14558, "tippecanoe_feature_density": 0}, "geometry": {"type": "Point", "coordinates": [-3.5592269897460938, 53.4404230373579]}}, {"type": "Feature", "properties": {"point_type": "turbine", "turbinemod": "SWT-3.6-107", "oem": "Siemens", "foundation": "Monopile", "water_dept": -15, "turbine_mw": 3.6, "distance_to_shore": 14682, "tippecanoe_feature_density": 0}, "geometry": {"type": "Point", "coordinates": [-3.5430908203125, 53.44594426113315]}}, {"type": "Feature", "properties": {"point_type": "turbine", "turbinemod": "SWT-3.6-107", "oem": "Siemens", "foundation": "Monopile", "water_dept": -14, "turbine_mw": 3.6, "distance_to_shore": 14263, "tippecanoe_feature_density": 0}, "geometry": {"type": "Point", "coordinates": [-3.5482406616210938, 53.4404230373579]}}, {"type": "Feature", "properties": {"point_type": "turbine", "turbinemod": "SWT-3.6-107", "oem": "Siemens", "foundation": "Monopile", "water_dept": -16, "turbine_mw": 3.6, "distance_to_shore": 15520, "tippecanoe_feature_density": 0}, "geometry": {"type": "Point", "coordinates": [-3.5324478149414062, 53.45718897904939]}}, {"type": "Feature", "properties": {"point_type": "turbine", "turbinemod": "SWT-3.6-107", "oem": "Siemens", "foundation": "Monopile", "water_dept": -15, "turbine_mw": 3.6, "distance_to_shore": 14806, "tippecanoe_feature_density": 0}, "geometry": {"type": "Point", "coordinates": [-3.5269546508789062, 53.45166921681792]}}, {"type": "Feature", "properties": {"point_type": "turbine", "turbinemod": "SWT-3.6-107", "oem": "Siemens", "foundation": "Monopile", "water_dept": -16, "turbine_mw": 3.6, "distance_to_shore": 15225, "tippecanoe_feature_density": 0}, "geometry": {"type": "Point", "coordinates": [-3.5214614868164062, 53.45739340090972]}}, {"type": "Feature", "properties": {"point_type": "turbine", "turbinemod": "SWT-3.6-107", "oem": "Siemens", "foundation": "Monopile", "water_dept": -15, "turbine_mw": 3.6, "distance_to_shore": 14511, "tippecanoe_feature_density": 0}, "geometry": {"type": "Point", "coordinates": [-3.5159683227539062, 53.45187366525013]}}, {"type": "Feature", "properties": {"point_type": "turbine", "turbinemod": "SWT-3.6-107", "oem": "Siemens", "foundation": "Monopile", "water_dept": -15, "turbine_mw": 3.6, "distance_to_shore": 14387, "tippecanoe_feature_density": 0}, "geometry": {"type": "Point", "coordinates": [-3.5321044921875, 53.44614873712308]}}, {"type": "Feature", "properties": {"point_type": "turbine", "turbinemod": "SWT-3.6-107", "oem": "Siemens", "foundation": "Monopile", "water_dept": -14, "turbine_mw": 3.6, "distance_to_shore": 14092, "tippecanoe_feature_density": 0}, "geometry": {"type": "Point", "coordinates": [-3.5214614868164062, 53.44614873712308]}}, {"type": "Feature", "properties": {"point_type": "turbine", "turbinemod": "SWT-3.6-107", "oem": "Siemens", "foundation": "Monopile", "water_dept": -20, "turbine_mw": 3.6, "distance_to_shore": 14935, "tippecanoe_feature_density": 0}, "geometry": {"type": "Point", "coordinates": [-3.6532974243164062, 53.4342875027028]}}, {"type": "Feature", "properties": {"point_type": "turbine", "turbinemod": "SWT-3.6-107", "oem": "Siemens", "foundation": "Monopile", "water_dept": -20, "turbine_mw": 3.6, "distance_to_shore": 15325, "tippecanoe_feature_density": 0}, "geometry": {"type": "Point", "coordinates": [-3.6426544189453125, 53.4342875027028]}}, {"type": "Feature", "properties": {"point_type": "turbine", "turbinemod": "SWT-3.6-107", "oem": "Siemens", "foundation": "Monopile", "water_dept": -18, "turbine_mw": 3.6, "distance_to_shore": 15022, "tippecanoe_feature_density": 0}, "geometry": {"type": "Point", "coordinates": [-3.6371612548828125, 53.42876476405294]}}, {"type": "Feature", "properties": {"point_type": "turbine", "turbinemod": "SWT-3.6-107", "oem": "Siemens", "foundation": "Monopile", "water_dept": -18, "turbine_mw": 3.6, "distance_to_shore": 15736, "tippecanoe_feature_density": 0}, "geometry": {"type": "Point", "coordinates": [-3.6316680908203125, 53.4342875027028]}}, {"type": "Feature", "properties": {"point_type": "turbine", "turbinemod": "SWT-3.6-107", "oem": "Siemens", "foundation": "Monopile", "water_dept": -16, "turbine_mw": 3.6, "distance_to_shore": 14681, "tippecanoe_feature_density": 0}, "geometry": {"type": "Point", "coordinates": [-3.6316680908203125, 53.423241307765636]}}, {"type": "Feature", "properties": {"point_type": "turbine", "turbinemod": "SWT-3.6-107", "oem": "Siemens", "foundation": "Monopile", "water_dept": -17, "turbine_mw": 3.6, "distance_to_shore": 15143, "tippecanoe_feature_density": 0}, "geometry": {"type": "Point", "coordinates": [-3.6261749267578125, 53.42876476405294]}}, {"type": "Feature", "properties": {"point_type": "turbine", "turbinemod": "SWT-3.6-107", "oem": "Siemens", "foundation": "Monopile", "water_dept": -18, "turbine_mw": 3.6, "distance_to_shore": 15603, "tippecanoe_feature_density": 0}, "geometry": {"type": "Point", "coordinates": [-3.6210250854492188, 53.4344920347975]}}, {"type": "Feature", "properties": {"point_type": "turbine", "turbinemod": "SWT-3.6-107", "oem": "Siemens", "foundation": "Monopile", "water_dept": -16, "turbine_mw": 3.6, "distance_to_shore": 14434, "tippecanoe_feature_density": 0}, "geometry": {"type": "Point", "coordinates": [-3.6206817626953125, 53.423241307765636]}}, {"type": "Feature", "properties": {"point_type": "turbine", "turbinemod": "SWT-3.6-107", "oem": "Siemens", "foundation": "Monopile", "water_dept": -16, "turbine_mw": 3.6, "distance_to_shore": 14896, "tippecanoe_feature_density": 0}, "geometry": {"type": "Point", "coordinates": [-3.6155319213867188, 53.428969322725976]}}, {"type": "Feature", "properties": {"point_type": "turbine", "turbinemod": "SWT-3.6-107", "oem": "Siemens", "foundation": "Monopile", "water_dept": -18, "turbine_mw": 3.6, "distance_to_shore": 15356, "tippecanoe_feature_density": 0}, "geometry": {"type": "Point", "coordinates": [-3.6100387573242188, 53.4344920347975]}}, {"type": "Feature", "properties": {"point_type": "turbine", "turbinemod": "SWT-3.6-107", "oem": "Siemens", "foundation": "Monopile", "water_dept": -14, "turbine_mw": 3.6, "distance_to_shore": 14187, "tippecanoe_feature_density": 0}, "geometry": {"type": "Point", "coordinates": [-3.6100387573242188, 53.423241307765636]}}, {"type": "Feature", "properties": {"point_type": "turbine", "turbinemod": "SWT-3.6-107", "oem": "Siemens", "foundation": "Monopile", "water_dept": -17, "turbine_mw": 3.6, "distance_to_shore": 14649, "tippecanoe_feature_density": 0}, "geometry": {"type": "Point", "coordinates": [-3.6045455932617188, 53.428969322725976]}}, {"type": "Feature", "properties": {"point_type": "turbine", "turbinemod": "SWT-3.6-107", "oem": "Siemens", "foundation": "Monopile", "water_dept": -14, "turbine_mw": 3.6, "distance_to_shore": 13769, "tippecanoe_feature_density": 0}, "geometry": {"type": "Point", "coordinates": [-3.6151885986328125, 53.4181263564833]}}, {"type": "Feature", "properties": {"point_type": "turbine", "turbinemod": "SWT-3.6-107", "oem": "Siemens", "foundation": "Monopile", "water_dept": -18, "turbine_mw": 3.6, "distance_to_shore": 15100, "tippecanoe_feature_density": 0}, "geometry": {"type": "Point", "coordinates": [-3.599395751953125, 53.4344920347975]}}, {"type": "Feature", "properties": {"point_type": "turbine", "turbinemod": "SWT-3.6-107", "oem": "Siemens", "foundation": "Monopile", "water_dept": -14, "turbine_mw": 3.6, "distance_to_shore": 13940, "tippecanoe_feature_density": 0}, "geometry": {"type": "Point", "coordinates": [-3.5990524291992188, 53.42344589301857]}}, {"type": "Feature", "properties": {"point_type": "turbine", "turbinemod": "SWT-3.6-107", "oem": "Siemens", "foundation": "Monopile", "water_dept": -17, "turbine_mw": 3.6, "distance_to_shore": 14386, "tippecanoe_feature_density": 0}, "geometry": {"type": "Point", "coordinates": [-3.593902587890625, 53.428969322725976]}}, {"type": "Feature", "properties": {"point_type": "turbine", "turbinemod": "SWT-3.6-107", "oem": "Siemens", "foundation": "Monopile", "water_dept": -17, "turbine_mw": 3.6, "distance_to_shore": 14804, "tippecanoe_feature_density": 0}, "geometry": {"type": "Point", "coordinates": [-3.588409423828125, 53.434696565907814]}}, {"type": "Feature", "properties": {"point_type": "turbine", "turbinemod": "SWT-3.6-107", "oem": "Siemens", "foundation": "Monopile", "water_dept": -15, "turbine_mw": 3.6, "distance_to_shore": 14139, "tippecanoe_feature_density": 0}, "geometry": {"type": "Point", "coordinates": [-3.5643768310546875, 53.434696565907814]}}, {"type": "Feature", "properties": {"point_type": "turbine", "turbinemod": "SWT-3.6-107", "oem": "Siemens", "foundation": "Monopile", "water_dept": -16, "turbine_mw": 3.6, "distance_to_shore": 17224, "tippecanoe_feature_density": 0}, "geometry": {"type": "Point", "coordinates": [-3.5118484497070312, 53.47987379799574]}}, {"type": "Feature", "properties": {"point_type": "turbine", "turbinemod": "SWT-3.6-107", "oem": "Siemens", "foundation": "Monopile", "water_dept": -18, "turbine_mw": 3.6, "distance_to_shore": 16063, "tippecanoe_feature_density": 0}, "geometry": {"type": "Point", "coordinates": [-3.5108184814453125, 53.468635087748765]}}, {"type": "Feature", "properties": {"point_type": "turbine", "turbinemod": "SWT-3.6-107", "oem": "Siemens", "foundation": "Monopile", "water_dept": -18, "turbine_mw": 3.6, "distance_to_shore": 16484, "tippecanoe_feature_density": 0}, "geometry": {"type": "Point", "coordinates": [-3.5056686401367188, 53.474152644708]}}, {"type": "Feature", "properties": {"point_type": "turbine", "turbinemod": "SWT-3.6-107", "oem": "Siemens", "foundation": "Monopile", "water_dept": -18, "turbine_mw": 3.6, "distance_to_shore": 15349, "tippecanoe_feature_density": 0}, "geometry": {"type": "Point", "coordinates": [-3.5053253173828125, 53.4631168134554]}}, {"type": "Feature", "properties": {"point_type": "turbine", "turbinemod": "SWT-3.6-107", "oem": "Siemens", "foundation": "Monopile", "water_dept": -18, "turbine_mw": 3.6, "distance_to_shore": 15769, "tippecanoe_feature_density": 0}, "geometry": {"type": "Point", "coordinates": [-3.5001754760742188, 53.468635087748765]}}, {"type": "Feature", "properties": {"point_type": "turbine", "turbinemod": "SWT-3.6-107", "oem": "Siemens", "foundation": "Monopile", "water_dept": -17, "turbine_mw": 3.6, "distance_to_shore": 15053, "tippecanoe_feature_density": 0}, "geometry": {"type": "Point", "coordinates": [-3.4946823120117188, 53.4631168134554]}}, {"type": "Feature", "properties": {"point_type": "turbine", "turbinemod": "SWT-3.6-107", "oem": "Siemens", "foundation": "Monopile", "water_dept": -17, "turbine_mw": 3.6, "distance_to_shore": 15473, "tippecanoe_feature_density": 0}, "geometry": {"type": "Point", "coordinates": [-3.4891891479492188, 53.468635087748765]}}, {"type": "Feature", "properties": {"point_type": "turbine", "turbinemod": "SWT-3.6-107", "oem": "Siemens", "foundation": "Monopile", "water_dept": -17, "turbine_mw": 3.6, "distance_to_shore": 14759, "tippecanoe_feature_density": 0}, "geometry": {"type": "Point", "coordinates": [-3.4836959838867188, 53.4631168134554]}}, {"type": "Feature", "properties": {"point_type": "turbine", "turbinemod": "SWT-3.6-107", "oem": "Siemens", "foundation": "Monopile", "water_dept": -16, "turbine_mw": 3.6, "distance_to_shore": 14930, "tippecanoe_feature_density": 0}, "geometry": {"type": "Point", "coordinates": [-3.5108184814453125, 53.45739340090972]}}, {"type": "Feature", "properties": {"point_type": "turbine", "turbinemod": "SWT-3.6-107", "oem": "Siemens", "foundation": "Monopile", "water_dept": -15, "turbine_mw": 3.6, "distance_to_shore": 14215, "tippecanoe_feature_density": 0}, "geometry": {"type": "Point", "coordinates": [-3.5053253173828125, 53.45187366525013]}}, {"type": "Feature", "properties": {"point_type": "turbine", "turbinemod": "SWT-3.6-107", "oem": "Siemens", "foundation": "Monopile", "water_dept": -16, "turbine_mw": 3.6, "distance_to_shore": 14634, "tippecanoe_feature_density": 0}, "geometry": {"type": "Point", "coordinates": [-3.4998321533203125, 53.45739340090972]}}, {"type": "Feature", "properties": {"point_type": "turbine", "turbinemod": "SWT-3.6-107", "oem": "Siemens", "foundation": "Monopile", "water_dept": -15, "turbine_mw": 3.6, "distance_to_shore": 13920, "tippecanoe_feature_density": 0}, "geometry": {"type": "Point", "coordinates": [-3.4943389892578125, 53.45187366525013]}}, {"type": "Feature", "properties": {"point_type": "turbine", "turbinemod": "SWT-3.6-107", "oem": "Siemens", "foundation": "Monopile", "water_dept": -14, "turbine_mw": 3.6, "distance_to_shore": 13796, "tippecanoe_feature_density": 0}, "geometry": {"type": "Point", "coordinates": [-3.5104751586914062, 53.44614873712308]}}, {"type": "Feature", "properties": {"point_type": "turbine", "turbinemod": "SWT-3.6-107", "oem": "Siemens", "foundation": "Monopile", "water_dept": -14, "turbine_mw": 3.6, "distance_to_shore": 13516, "tippecanoe_feature_density": 0}, "geometry": {"type": "Point", "coordinates": [-3.4998321533203125, 53.44635321212877]}}, {"type": "Feature", "properties": {"point_type": "turbine", "turbinemod": "SWT-3.6-107", "oem": "Siemens", "foundation": "Monopile", "water_dept": -16, "turbine_mw": 3.6, "distance_to_shore": 14340, "tippecanoe_feature_density": 0}, "geometry": {"type": "Point", "coordinates": [-3.4891891479492188, 53.457597821785896]}}, {"type": "Feature", "properties": {"point_type": "turbine", "turbinemod": "SWT-3.6-107", "oem": "Siemens", "foundation": "Monopile", "water_dept": -15, "turbine_mw": 3.6, "distance_to_shore": 13624, "tippecanoe_feature_density": 0}, "geometry": {"type": "Point", "coordinates": [-3.4836959838867188, 53.45187366525013]}}, {"type": "Feature", "properties": {"point_type": "turbine", "turbinemod": "SWT-3.6-107", "oem": "Siemens", "foundation": "Monopile", "water_dept": -16, "turbine_mw": 3.6, "distance_to_shore": 14043, "tippecanoe_feature_density": 0}, "geometry": {"type": "Point", "coordinates": [-3.4782028198242188, 53.457597821785896]}}, {"type": "Feature", "properties": {"point_type": "turbine", "turbinemod": "SWT-3.6-107", "oem": "Siemens", "foundation": "Monopile", "water_dept": -14, "turbine_mw": 3.6, "distance_to_shore": 13328, "tippecanoe_feature_density": 0}, "geometry": {"type": "Point", "coordinates": [-3.4727096557617188, 53.45207811269816]}}, {"type": "Feature", "properties": {"point_type": "turbine", "turbinemod": "SWT-3.6-107", "oem": "Siemens", "foundation": "Monopile", "water_dept": -14, "turbine_mw": 3.6, "distance_to_shore": 13034, "tippecanoe_feature_density": 0}, "geometry": {"type": "Point", "coordinates": [-3.462066650390625, 53.45207811269816]}}]}