{"type": "FeatureCollection", "features": [{"type": "Feature", "properties": {"wf_develop": "Bluefloat Energy", "turbine_mo": "TBA", "fou_type": "Floating", "cod": "2032-12-31T00:00:00", "wf_name": "Bellrock", "status": "Early Planning", "country": "United Kingdom", "capacity_m": 1200, "wf_owners": "Bluefloat Energy, Flack Renewables", "tippecanoe_feature_density": 0}, "geometry": {"type": "Polygon", "coordinates": [[[0.325469970703125, 56.87899917413543], [0.3240966796875, 56.85008726651702], [0.3240966796875, 56.82192689027258], [0.32276162470022246, 56.82198034233381], [0.322723388671875, 56.821175358898614], [0.1144490423824533, 56.83032062570085], [0.10013628631561862, 56.83089367049744], [0.09514044984282735, 56.828683274853894], [0.05469665536901011, 56.810789016785186], [0.054696655368942484, 56.81078901678516], [0.0, 56.78583637507538], [-0.0274658203125, 56.77379848097408], [-0.02871559321474259, 56.773853261207606], [-0.028839111328125, 56.77379848097408], [-0.03007380334843983, 56.77385370465372], [-0.03021240234375, 56.77379848097408], [-0.164794921875, 56.779817910776046], [-0.164794921875, 56.84066083171709], [-0.166168212890625, 56.90150375265813], [-0.164794921875, 56.90144176902051], [-0.164794921875, 56.90150375265813], [-0.10986328125, 56.89900374594066], [-0.10986328125, 56.899253904728255], [0.0, 56.89400373250572], [0.325469970703125, 56.87899917413543]]]}}]}