{"type": "FeatureCollection", "features": [{"type": "Feature", "properties": {"wf_develop": "Orsted, Simply Blue Group, Subsea7", "turbine_mo": "TBA", "fou_type": "Floating", "wf_name": "Salamander Floating Wind", "status": "Consent Application Submitted", "country": "United Kingdom", "capacity_m": 100, "wf_owners": "Orsted, Simply Blue Group, Subsea7", "tippecanoe_feature_density": 0}, "geometry": {"type": "Polygon", "coordinates": [[[-1.1970668353549339, 57.646678964837776], [-1.196136474609375, 57.64687049186358], [-1.1384833478134628, 57.62134693880957], [-1.1260986328125, 57.61599167684204], [-1.1262368142357404, 57.61592528925004], [-1.124725341796875, 57.615256146930676], [-1.20574951171875, 57.57772437630945], [-1.2689208984375, 57.632169568654916], [-1.197509765625, 57.64687049186358], [-1.1970668353549339, 57.646678964837776]]]}}]}