{"type": "FeatureCollection", "features": [{"type": "Feature", "properties": {"wf_develop": "\u00d8rsted", "turbine_mo": "SG 11.0-200 DD", "fou_type": "Monopile (TP Less)", "wtg_oem": "Siemens Gamesa", "cod": "2024-03-15T00:00:00", "wf_name": "South Fork Wind", "status": "Fully Commissioned", "no_turbine": 12, "country": "United States", "capacity_m": 132, "wf_owners": "\u00d8rsted, Skyborn Renewables", "cod_status": "Expected", "tippecanoe_feature_density": 0}, "geometry": {"type": "Polygon", "coordinates": [[[-71.0708999633789, 41.064598077718074], [-71.17080688476562, 41.06278606873303], [-71.17115020751953, 41.07365737372555], [-71.19964599609375, 41.072880911548936], [-71.20101928710938, 41.11091677281064], [-71.07261657714844, 41.11324478360737], [-71.0708999633789, 41.064598077718074]]]}}]}