{"type": "FeatureCollection", "features": [{"type": "Feature", "properties": {"point_type": "turbine", "turbinemod": "SG 11.0-200 DD", "foundation": "Monopile (TP Less)", "water_dept": -34, "turbine_mw": 11, "distance_to_shore": 30527, "tippecanoe_feature_density": 0}, "geometry": {"type": "Point", "coordinates": [-71.19003295898438, 41.108847360577926]}}, {"type": "Feature", "properties": {"point_type": "turbine", "turbinemod": "SG 11.0-200 DD", "foundation": "Monopile (TP Less)", "water_dept": -32, "turbine_mw": 11, "distance_to_shore": 30837, "tippecanoe_feature_density": 0}, "geometry": {"type": "Point", "coordinates": [-71.19037628173828, 41.09203096833332]}}, {"type": "Feature", "properties": {"point_type": "turbine", "turbinemod": "SG 11.0-200 DD", "foundation": "Monopile (TP Less)", "water_dept": -32, "turbine_mw": 11, "distance_to_shore": 32263, "tippecanoe_feature_density": 0}, "geometry": {"type": "Point", "coordinates": [-71.1690902709961, 41.10910604067402]}}, {"type": "Feature", "properties": {"point_type": "turbine", "turbinemod": "SG 11.0-200 DD", "foundation": "Monopile (TP Less)", "water_dept": -35, "turbine_mw": 11, "distance_to_shore": 32716, "tippecanoe_feature_density": 0}, "geometry": {"type": "Point", "coordinates": [-71.16771697998047, 41.09203096833332]}}, {"type": "Feature", "properties": {"point_type": "turbine", "turbinemod": "SG 11.0-200 DD", "foundation": "Monopile (TP Less)", "water_dept": -33, "turbine_mw": 11, "distance_to_shore": 31337, "tippecanoe_feature_density": 0}, "geometry": {"type": "Point", "coordinates": [-71.19003295898438, 41.075469083140405]}}, {"type": "Feature", "properties": {"point_type": "turbine", "turbinemod": "SG 11.0-200 DD", "foundation": "Monopile (TP Less)", "water_dept": -37, "turbine_mw": 11, "distance_to_shore": 31394, "tippecanoe_feature_density": 0}, "geometry": {"type": "Point", "coordinates": [-71.14677429199219, 41.109623397808775]}}, {"type": "Feature", "properties": {"point_type": "turbine", "turbinemod": "SG 11.0-200 DD", "foundation": "Monopile (TP Less)", "water_dept": -37, "turbine_mw": 11, "distance_to_shore": 29867, "tippecanoe_feature_density": 0}, "geometry": {"type": "Point", "coordinates": [-71.12480163574219, 41.10910604067402]}}, {"type": "Feature", "properties": {"point_type": "turbine", "turbinemod": "SG 11.0-200 DD", "foundation": "Monopile (TP Less)", "water_dept": -32, "turbine_mw": 11, "distance_to_shore": 30790, "tippecanoe_feature_density": 0}, "geometry": {"type": "Point", "coordinates": [-71.12342834472656, 41.093324689830695]}}, {"type": "Feature", "properties": {"point_type": "turbine", "turbinemod": "SG 11.0-200 DD", "foundation": "Monopile (TP Less)", "water_dept": -34, "turbine_mw": 11, "distance_to_shore": 33448, "tippecanoe_feature_density": 0}, "geometry": {"type": "Point", "coordinates": [-71.14574432373047, 41.07624551474785]}}, {"type": "Feature", "properties": {"point_type": "turbine", "turbinemod": "SG 11.0-200 DD", "foundation": "Monopile (TP Less)", "water_dept": -35, "turbine_mw": 11, "distance_to_shore": 31976, "tippecanoe_feature_density": 0}, "geometry": {"type": "Point", "coordinates": [-71.12377166748047, 41.0767631307246]}}, {"type": "Feature", "properties": {"point_type": "turbine", "turbinemod": "SG 11.0-200 DD", "foundation": "Monopile (TP Less)", "water_dept": -33, "turbine_mw": 11, "distance_to_shore": 29376, "tippecanoe_feature_density": 0}, "geometry": {"type": "Point", "coordinates": [-71.10248565673828, 41.09358343107297]}}, {"type": "Feature", "properties": {"point_type": "turbine", "turbinemod": "SG 11.0-200 DD", "foundation": "Monopile (TP Less)", "water_dept": -31, "turbine_mw": 11, "distance_to_shore": 30515, "tippecanoe_feature_density": 0}, "geometry": {"type": "Point", "coordinates": [-71.10179901123047, 41.07753954704728]}}]}