{"type": "FeatureCollection", "features": [{"type": "Feature", "properties": {"wf_develop": "\u00d8rsted", "cod": "2032-12-31T00:00:00", "wf_name": "Mooir Vannin", "status": "Consent Application Submitted", "country": "United Kingdom", "capacity_m": 1400, "wf_owners": "\u00d8rsted", "tippecanoe_feature_density": 0}, "geometry": {"type": "Polygon", "coordinates": [[[-4.059104919433594, 54.14011564152918], [-4.06494140625, 54.12925372624278], [-4.0724945068359375, 54.118187736338115], [-4.21875, 54.14614880824067], [-4.2345428466796875, 54.149165061977925], [-4.228363037109375, 54.15680525469165], [-4.225959777832031, 54.1624339680678], [-4.2259207925318805, 54.162524164862816], [-4.219093322753906, 54.17851178818131], [-4.219010543740235, 54.17851178818131], [-4.21875, 54.179114584882626], [-4.215660095214844, 54.18835636742321], [-4.203300476074219, 54.20241598641741], [-4.19403076171875, 54.21084946221194], [-4.1912841796875, 54.21446328198277], [-4.1912841796875, 54.214367438875215], [-4.186820983886719, 54.22008415095303], [-4.163475036621094, 54.24155685295372], [-4.146308898925781, 54.263820469578775], [-4.1363525390625, 54.28947891127501], [-4.0848541259765625, 54.35055379357328], [-3.9681243896484375, 54.30911285820068], [-3.9677810668945312, 54.288276528711066], [-3.9712142944335938, 54.265825610702166], [-3.9780807495117188, 54.24677283201862], [-3.9873504638671875, 54.229116087639966], [-3.997650146484375, 54.213459474873645], [-4.008293151855469, 54.200608589046624], [-4.024085998535156, 54.18433845491563], [-4.047088623046875, 54.1624339680678], [-4.052238464355469, 54.157006293352026], [-4.059104919433594, 54.14011564152918]]]}}]}