{"type": "FeatureCollection", "features": [{"type": "Feature", "properties": {"point_type": "substation", "distance_to_shore": 36715, "foundation": "Jacket", "item": "Substation", "jacket_weight": 995, "seabed_soil": "Mud/Muddy Sand", "sub_name": "SUBSTATION 02", "topside_manufacture": "CS Wind/Semco Maritime", "topside_weight": 1030, "water_dept": -24, "wf_name": "Walney Phase 2", "tippecanoe_feature_density": 0}, "geometry": {"type": "Point", "coordinates": [-3.5750198364257812, 54.07953420368011]}}]}