{"type": "FeatureCollection", "features": [{"type": "Feature", "properties": {"point_type": "turbine", "turbinemod": "SWT-3.6-120", "oem": "Siemens", "foundation": "Monopile", "water_dept": -28, "turbine_mw": 3.6, "distance_to_shore": 21658, "tippecanoe_feature_density": 0}, "geometry": {"type": "Point", "coordinates": [-3.6313247680664062, 54.12523007182281]}}, {"type": "Feature", "properties": {"point_type": "turbine", "turbinemod": "SWT-3.6-120", "oem": "Siemens", "foundation": "Monopile", "water_dept": -29, "turbine_mw": 3.6, "distance_to_shore": 22775, "tippecanoe_feature_density": 0}, "geometry": {"type": "Point", "coordinates": [-3.6416244506835938, 54.11657789162393]}}, {"type": "Feature", "properties": {"point_type": "turbine", "turbinemod": "SWT-3.6-120", "oem": "Siemens", "foundation": "Monopile", "water_dept": -27, "turbine_mw": 3.6, "distance_to_shore": 21459, "tippecanoe_feature_density": 0}, "geometry": {"type": "Point", "coordinates": [-3.6217117309570312, 54.12040117072911]}}, {"type": "Feature", "properties": {"point_type": "turbine", "turbinemod": "SWT-3.6-120", "oem": "Siemens", "foundation": "Monopile", "water_dept": -27, "turbine_mw": 3.6, "distance_to_shore": 21272, "tippecanoe_feature_density": 0}, "geometry": {"type": "Point", "coordinates": [-3.6127853393554688, 54.11577294581963]}}, {"type": "Feature", "properties": {"point_type": "turbine", "turbinemod": "SWT-3.6-120", "oem": "Siemens", "foundation": "Monopile", "water_dept": -26, "turbine_mw": 3.6, "distance_to_shore": 21084, "tippecanoe_feature_density": 0}, "geometry": {"type": "Point", "coordinates": [-3.6038589477539062, 54.11114420408893]}}, {"type": "Feature", "properties": {"point_type": "turbine", "turbinemod": "SWT-3.6-120", "oem": "Siemens", "foundation": "Monopile", "water_dept": -29, "turbine_mw": 3.6, "distance_to_shore": 23526, "tippecanoe_feature_density": 0}, "geometry": {"type": "Point", "coordinates": [-3.6481475830078125, 54.110137887495455]}}, {"type": "Feature", "properties": {"point_type": "turbine", "turbinemod": "SWT-3.6-120", "oem": "Siemens", "foundation": "Monopile", "water_dept": -30, "turbine_mw": 3.6, "distance_to_shore": 24278, "tippecanoe_feature_density": 0}, "geometry": {"type": "Point", "coordinates": [-3.6546707153320312, 54.10369688287696]}}, {"type": "Feature", "properties": {"point_type": "turbine", "turbinemod": "SWT-3.6-120", "oem": "Siemens", "foundation": "Monopile", "water_dept": -30, "turbine_mw": 3.6, "distance_to_shore": 24724, "tippecanoe_feature_density": 0}, "geometry": {"type": "Point", "coordinates": [-3.6532974243164062, 54.09584555567747]}}, {"type": "Feature", "properties": {"point_type": "turbine", "turbinemod": "SWT-3.6-120", "oem": "Siemens", "foundation": "Monopile", "water_dept": -30, "turbine_mw": 3.6, "distance_to_shore": 25170, "tippecanoe_feature_density": 0}, "geometry": {"type": "Point", "coordinates": [-3.6522674560546875, 54.08779136841656]}}, {"type": "Feature", "properties": {"point_type": "turbine", "turbinemod": "SWT-3.6-120", "oem": "Siemens", "foundation": "Monopile", "water_dept": -29, "turbine_mw": 3.6, "distance_to_shore": 23967, "tippecanoe_feature_density": 0}, "geometry": {"type": "Point", "coordinates": [-3.64471435546875, 54.100274692210405]}}, {"type": "Feature", "properties": {"point_type": "turbine", "turbinemod": "SWT-3.6-120", "oem": "Siemens", "foundation": "Monopile", "water_dept": -28, "turbine_mw": 3.6, "distance_to_shore": 22437, "tippecanoe_feature_density": 0}, "geometry": {"type": "Point", "coordinates": [-3.6275482177734375, 54.109735354018795]}}, {"type": "Feature", "properties": {"point_type": "turbine", "turbinemod": "SWT-3.6-120", "oem": "Siemens", "foundation": "Monopile", "water_dept": -28, "turbine_mw": 3.6, "distance_to_shore": 22947, "tippecanoe_feature_density": 0}, "geometry": {"type": "Point", "coordinates": [-3.6261749267578125, 54.10067731753415]}}, {"type": "Feature", "properties": {"point_type": "turbine", "turbinemod": "SWT-3.6-120", "oem": "Siemens", "foundation": "Monopile", "water_dept": -29, "turbine_mw": 3.6, "distance_to_shore": 24433, "tippecanoe_feature_density": 0}, "geometry": {"type": "Point", "coordinates": [-3.6436843872070312, 54.0920200116891]}}, {"type": "Feature", "properties": {"point_type": "turbine", "turbinemod": "SWT-3.6-120", "oem": "Siemens", "foundation": "Monopile", "water_dept": -28, "turbine_mw": 3.6, "distance_to_shore": 23697, "tippecanoe_feature_density": 0}, "geometry": {"type": "Point", "coordinates": [-3.6347579956054688, 54.09624822399687]}}, {"type": "Feature", "properties": {"point_type": "turbine", "turbinemod": "SWT-3.6-120", "oem": "Siemens", "foundation": "Monopile", "water_dept": -27, "turbine_mw": 3.6, "distance_to_shore": 22201, "tippecanoe_feature_density": 0}, "geometry": {"type": "Point", "coordinates": [-3.6175918579101562, 54.10510593813214]}}, {"type": "Feature", "properties": {"point_type": "turbine", "turbinemod": "SWT-3.6-120", "oem": "Siemens", "foundation": "Monopile", "water_dept": -29, "turbine_mw": 3.6, "distance_to_shore": 26314, "tippecanoe_feature_density": 0}, "geometry": {"type": "Point", "coordinates": [-3.6464309692382812, 54.06462686942743]}}, {"type": "Feature", "properties": {"point_type": "turbine", "turbinemod": "SWT-3.6-120", "oem": "Siemens", "foundation": "Monopile", "water_dept": -28, "turbine_mw": 3.6, "distance_to_shore": 26197, "tippecanoe_feature_density": 0}, "geometry": {"type": "Point", "coordinates": [-3.6385345458984375, 54.05979090876292]}}, {"type": "Feature", "properties": {"point_type": "turbine", "turbinemod": "SWT-3.6-120", "oem": "Siemens", "foundation": "Monopile", "water_dept": -27, "turbine_mw": 3.6, "distance_to_shore": 25573, "tippecanoe_feature_density": 0}, "geometry": {"type": "Point", "coordinates": [-3.6357879638671875, 54.067447586451266]}}, {"type": "Feature", "properties": {"point_type": "turbine", "turbinemod": "SWT-3.6-120", "oem": "Siemens", "foundation": "Monopile", "water_dept": -27, "turbine_mw": 3.6, "distance_to_shore": 23791, "tippecanoe_feature_density": 0}, "geometry": {"type": "Point", "coordinates": [-3.6134719848632812, 54.07651287925904]}}, {"type": "Feature", "properties": {"point_type": "turbine", "turbinemod": "SWT-3.6-120", "oem": "Siemens", "foundation": "Monopile", "water_dept": -27, "turbine_mw": 3.6, "distance_to_shore": 24935, "tippecanoe_feature_density": 0}, "geometry": {"type": "Point", "coordinates": [-3.6223983764648438, 54.06603725188896]}}, {"type": "Feature", "properties": {"point_type": "turbine", "turbinemod": "SWT-3.6-120", "oem": "Siemens", "foundation": "Monopile", "water_dept": -27, "turbine_mw": 3.6, "distance_to_shore": 24302, "tippecanoe_feature_density": 0}, "geometry": {"type": "Point", "coordinates": [-3.6086654663085938, 54.064425382308485]}}, {"type": "Feature", "properties": {"point_type": "turbine", "turbinemod": "SWT-3.6-120", "oem": "Siemens", "foundation": "Monopile", "water_dept": -25, "turbine_mw": 3.6, "distance_to_shore": 21424, "tippecanoe_feature_density": 0}, "geometry": {"type": "Point", "coordinates": [-3.5849761962890625, 54.0898050618199]}}, {"type": "Feature", "properties": {"point_type": "turbine", "turbinemod": "SWT-3.6-120", "oem": "Siemens", "foundation": "Monopile", "water_dept": -24, "turbine_mw": 3.6, "distance_to_shore": 20523, "tippecanoe_feature_density": 0}, "geometry": {"type": "Point", "coordinates": [-3.5770797729492188, 54.09745620550237]}}, {"type": "Feature", "properties": {"point_type": "turbine", "turbinemod": "SWT-3.6-120", "oem": "Siemens", "foundation": "Monopile", "water_dept": -24, "turbine_mw": 3.6, "distance_to_shore": 20336, "tippecanoe_feature_density": 0}, "geometry": {"type": "Point", "coordinates": [-3.5684967041015625, 54.09282541868765]}}, {"type": "Feature", "properties": {"point_type": "turbine", "turbinemod": "SWT-3.6-120", "oem": "Siemens", "foundation": "Monopile", "water_dept": -26, "turbine_mw": 3.6, "distance_to_shore": 22722, "tippecanoe_feature_density": 0}, "geometry": {"type": "Point", "coordinates": [-3.6017990112304688, 54.08356229415844]}}, {"type": "Feature", "properties": {"point_type": "turbine", "turbinemod": "SWT-3.6-120", "oem": "Siemens", "foundation": "Monopile", "water_dept": -26, "turbine_mw": 3.6, "distance_to_shore": 23343, "tippecanoe_feature_density": 0}, "geometry": {"type": "Point", "coordinates": [-3.60076904296875, 54.07288699965997]}}, {"type": "Feature", "properties": {"point_type": "turbine", "turbinemod": "SWT-3.6-120", "oem": "Siemens", "foundation": "Monopile", "water_dept": -25, "turbine_mw": 3.6, "distance_to_shore": 22427, "tippecanoe_feature_density": 0}, "geometry": {"type": "Point", "coordinates": [-3.5918426513671875, 54.079735617489035]}}, {"type": "Feature", "properties": {"point_type": "turbine", "turbinemod": "SWT-3.6-120", "oem": "Siemens", "foundation": "Monopile", "water_dept": -25, "turbine_mw": 3.6, "distance_to_shore": 22140, "tippecanoe_feature_density": 0}, "geometry": {"type": "Point", "coordinates": [-3.5818862915039062, 54.0759085879848]}}, {"type": "Feature", "properties": {"point_type": "turbine", "turbinemod": "SWT-3.6-120", "oem": "Siemens", "foundation": "Monopile", "water_dept": -26, "turbine_mw": 3.6, "distance_to_shore": 23686, "tippecanoe_feature_density": 0}, "geometry": {"type": "Point", "coordinates": [-3.5949325561523438, 54.06301494510407]}}, {"type": "Feature", "properties": {"point_type": "turbine", "turbinemod": "SWT-3.6-120", "oem": "Siemens", "foundation": "Monopile", "water_dept": -25, "turbine_mw": 3.6, "distance_to_shore": 22910, "tippecanoe_feature_density": 0}, "geometry": {"type": "Point", "coordinates": [-3.588409423828125, 54.06926080336436]}}, {"type": "Feature", "properties": {"point_type": "turbine", "turbinemod": "SWT-3.6-120", "oem": "Siemens", "foundation": "Monopile", "water_dept": -25, "turbine_mw": 3.6, "distance_to_shore": 23159, "tippecanoe_feature_density": 0}, "geometry": {"type": "Point", "coordinates": [-3.5832595825195312, 54.059589398182055]}}, {"type": "Feature", "properties": {"point_type": "turbine", "turbinemod": "SWT-3.6-120", "oem": "Siemens", "foundation": "Monopile", "water_dept": -24, "turbine_mw": 3.6, "distance_to_shore": 21176, "tippecanoe_feature_density": 0}, "geometry": {"type": "Point", "coordinates": [-3.574676513671875, 54.08477064506869]}}, {"type": "Feature", "properties": {"point_type": "turbine", "turbinemod": "SWT-3.6-120", "oem": "Siemens", "foundation": "Monopile", "water_dept": -24, "turbine_mw": 3.6, "distance_to_shore": 20964, "tippecanoe_feature_density": 0}, "geometry": {"type": "Point", "coordinates": [-3.5654067993164062, 54.080541262950874]}}, {"type": "Feature", "properties": {"point_type": "turbine", "turbinemod": "SWT-3.6-120", "oem": "Siemens", "foundation": "Monopile", "water_dept": -24, "turbine_mw": 3.6, "distance_to_shore": 21872, "tippecanoe_feature_density": 0}, "geometry": {"type": "Point", "coordinates": [-3.571929931640625, 54.07208120563024]}}, {"type": "Feature", "properties": {"point_type": "turbine", "turbinemod": "SWT-3.6-120", "oem": "Siemens", "foundation": "Monopile", "water_dept": -24, "turbine_mw": 3.6, "distance_to_shore": 22590, "tippecanoe_feature_density": 0}, "geometry": {"type": "Point", "coordinates": [-3.577423095703125, 54.0658357716128]}}, {"type": "Feature", "properties": {"point_type": "turbine", "turbinemod": "SWT-3.6-120", "oem": "Siemens", "foundation": "Monopile", "water_dept": -23, "turbine_mw": 3.6, "distance_to_shore": 21579, "tippecanoe_feature_density": 0}, "geometry": {"type": "Point", "coordinates": [-3.56231689453125, 54.06825347040996]}}, {"type": "Feature", "properties": {"point_type": "turbine", "turbinemod": "SWT-3.6-120", "oem": "Siemens", "foundation": "Monopile", "water_dept": -24, "turbine_mw": 3.6, "distance_to_shore": 22103, "tippecanoe_feature_density": 0}, "geometry": {"type": "Point", "coordinates": [-3.5674667358398438, 54.06160445999876]}}, {"type": "Feature", "properties": {"point_type": "turbine", "turbinemod": "SWT-3.6-120", "oem": "Siemens", "foundation": "Monopile", "water_dept": -24, "turbine_mw": 3.6, "distance_to_shore": 20148, "tippecanoe_feature_density": 0}, "geometry": {"type": "Point", "coordinates": [-3.5595703125, 54.08819411491547]}}, {"type": "Feature", "properties": {"point_type": "turbine", "turbinemod": "SWT-3.6-120", "oem": "Siemens", "foundation": "Monopile", "water_dept": -23, "turbine_mw": 3.6, "distance_to_shore": 19981, "tippecanoe_feature_density": 0}, "geometry": {"type": "Point", "coordinates": [-3.5506439208984375, 54.08356229415844]}}, {"type": "Feature", "properties": {"point_type": "turbine", "turbinemod": "SWT-3.6-120", "oem": "Siemens", "foundation": "Monopile", "water_dept": -23, "turbine_mw": 3.6, "distance_to_shore": 20780, "tippecanoe_feature_density": 0}, "geometry": {"type": "Point", "coordinates": [-3.5561370849609375, 54.07611001938696]}}, {"type": "Feature", "properties": {"point_type": "turbine", "turbinemod": "SWT-3.6-120", "oem": "Siemens", "foundation": "Monopile", "water_dept": -23, "turbine_mw": 3.6, "distance_to_shore": 19842, "tippecanoe_feature_density": 0}, "geometry": {"type": "Point", "coordinates": [-3.541717529296875, 54.07892995638906]}}, {"type": "Feature", "properties": {"point_type": "turbine", "turbinemod": "SWT-3.6-120", "oem": "Siemens", "foundation": "Monopile", "water_dept": -23, "turbine_mw": 3.6, "distance_to_shore": 20525, "tippecanoe_feature_density": 0}, "geometry": {"type": "Point", "coordinates": [-3.5468673706054688, 54.07167830275057]}}, {"type": "Feature", "properties": {"point_type": "turbine", "turbinemod": "SWT-3.6-120", "oem": "Siemens", "foundation": "Monopile", "water_dept": -27, "turbine_mw": 3.6, "distance_to_shore": 25642, "tippecanoe_feature_density": 0}, "geometry": {"type": "Point", "coordinates": [-3.6261749267578125, 54.05817879674285]}}, {"type": "Feature", "properties": {"point_type": "turbine", "turbinemod": "SWT-3.6-120", "oem": "Siemens", "foundation": "Monopile", "water_dept": -27, "turbine_mw": 3.6, "distance_to_shore": 25149, "tippecanoe_feature_density": 0}, "geometry": {"type": "Point", "coordinates": [-3.6138153076171875, 54.05576051139769]}}, {"type": "Feature", "properties": {"point_type": "turbine", "turbinemod": "SWT-3.6-120", "oem": "Siemens", "foundation": "Monopile", "water_dept": -26, "turbine_mw": 3.6, "distance_to_shore": 24531, "tippecanoe_feature_density": 0}, "geometry": {"type": "Point", "coordinates": [-3.602142333984375, 54.052939000562475]}}, {"type": "Feature", "properties": {"point_type": "turbine", "turbinemod": "SWT-3.6-120", "oem": "Siemens", "foundation": "Monopile", "water_dept": -25, "turbine_mw": 3.6, "distance_to_shore": 23911, "tippecanoe_feature_density": 0}, "geometry": {"type": "Point", "coordinates": [-3.5904693603515625, 54.049714182106925]}}, {"type": "Feature", "properties": {"point_type": "turbine", "turbinemod": "SWT-3.6-120", "oem": "Siemens", "foundation": "Monopile", "water_dept": -24, "turbine_mw": 3.6, "distance_to_shore": 22646, "tippecanoe_feature_density": 0}, "geometry": {"type": "Point", "coordinates": [-3.5729598999023438, 54.054752850953975]}}, {"type": "Feature", "properties": {"point_type": "turbine", "turbinemod": "SWT-3.6-120", "oem": "Siemens", "foundation": "Monopile", "water_dept": -24, "turbine_mw": 3.6, "distance_to_shore": 22171, "tippecanoe_feature_density": 0}, "geometry": {"type": "Point", "coordinates": [-3.5626602172851562, 54.050117298101725]}}, {"type": "Feature", "properties": {"point_type": "turbine", "turbinemod": "SWT-3.6-120", "oem": "Siemens", "foundation": "Monopile", "water_dept": -25, "turbine_mw": 3.6, "distance_to_shore": 23347, "tippecanoe_feature_density": 0}, "geometry": {"type": "Point", "coordinates": [-3.5794830322265625, 54.045884385099214]}}, {"type": "Feature", "properties": {"point_type": "turbine", "turbinemod": "SWT-3.6-120", "oem": "Siemens", "foundation": "Monopile", "water_dept": -24, "turbine_mw": 3.6, "distance_to_shore": 22849, "tippecanoe_feature_density": 0}, "geometry": {"type": "Point", "coordinates": [-3.5688400268554688, 54.04165104090458]}}, {"type": "Feature", "properties": {"point_type": "turbine", "turbinemod": "SWT-3.6-120", "oem": "Siemens", "foundation": "Monopile", "water_dept": -23, "turbine_mw": 3.6, "distance_to_shore": 21600, "tippecanoe_feature_density": 0}, "geometry": {"type": "Point", "coordinates": [-3.5575103759765625, 54.05737271726997]}}]}