{"type": "FeatureCollection", "features": [{"type": "Feature", "properties": {"wf_develop": "Ocean Winds", "turbine_mo": "SG 14.0-222 DD", "fou_type": "Monopile", "wtg_oem": "Siemens Gamesa", "cod": "2025-04-24T00:00:00", "wf_name": "Moray West", "status": "Fully Commissioned", "no_turbine": 60, "country": "United Kingdom", "capacity_m": 882, "wf_owners": "EDP Renovaveis/Three Gorges/Engie", "tippecanoe_feature_density": 0}, "geometry": {"type": "Polygon", "coordinates": [[[-2.8690048127888224, 58.20607251361743], [-2.8619384765625, 58.2011084128722], [-2.850303004623114, 58.18833185152276], [-2.845458984375, 58.183736781054705], [-2.8437444140435146, 58.17939586126832], [-2.83447265625, 58.15983691852708], [-2.8337453006568927, 58.15408027732917], [-2.83172607421875, 58.14896803443219], [-2.833099365234375, 58.143892944670924], [-2.833099365234375, 58.13882074746283], [-2.837218063883416, 58.1286720154537], [-2.8399658203125, 58.11851749586461], [-2.851674036497419, 58.10511559270769], [-2.8564453125, 58.098928399489154], [-2.8688017882230725, 58.09021983113834], [-2.88116455078125, 58.08078074869218], [-2.8923100614179686, 58.07586900892939], [-2.912750244140625, 58.065529587363926], [-3.21624755859375, 58.00373211428936], [-3.218994140625, 58.0430040585876], [-3.2154658502404585, 58.04518214487659], [-3.187408447265625, 58.06407675599556], [-3.169797523480837, 58.07765725759743], [-3.1365966796875, 58.10691044176497], [-3.0735589976716016, 58.12043704853839], [-3.0487060546875, 58.126495153322224], [-3.0300237926351454, 58.13187545326796], [-3.0080082758870454, 58.139070247273445], [-2.99102783203125, 58.145344335373835], [-2.9765790879853102, 58.151516339584546], [-2.933349609375, 58.17215097473493], [-2.88665771484375, 58.204002859266296], [-2.874298095703125, 58.20979104452482], [-2.87365267500792, 58.209337636527884], [-2.8729248046875, 58.20979104452482], [-2.8690048127888224, 58.20607251361743]]]}}]}