{"type": "FeatureCollection", "features": [{"type": "Feature", "properties": {"point_type": "substation", "distance_to_shore": 51980, "foundation": "Monopile", "item": "Substation", "seabed_soil": "Coarse-grained sediment", "sub_name": "MW-OSP2", "topside_manufacture": "Siemens Energy/Smulders", "water_dept": -38, "wf_name": "Moray West", "tippecanoe_feature_density": 0}, "geometry": {"type": "Point", "coordinates": [-2.933349609375, 58.11126352996695]}}, {"type": "Feature", "properties": {"point_type": "substation", "distance_to_shore": 49548, "foundation": "Monopile", "item": "Substation", "seabed_soil": "Sand", "sub_name": "MW-OSP1", "topside_manufacture": "Siemens Energy/Smulders", "water_dept": -45, "wf_name": "Moray West", "tippecanoe_feature_density": 0}, "geometry": {"type": "Point", "coordinates": [-3.11187744140625, 58.061897398122284]}}, {"type": "Feature", "properties": {"point_type": "substation", "distance_to_shore": 51980, "foundation": "Monopile", "item": "Substation", "seabed_soil": "Coarse-grained sediment", "sub_name": "MW-OSP2", "topside_manufacture": "Siemens Energy/Smulders", "water_dept": -38, "wf_name": "Moray West", "tippecanoe_feature_density": 0}, "geometry": {"type": "Point", "coordinates": [-2.934722900390625, 58.11126352996695]}}, {"type": "Feature", "properties": {"point_type": "substation", "distance_to_shore": 49548, "foundation": "Monopile", "item": "Substation", "seabed_soil": "Sand", "sub_name": "MW-OSP1", "topside_manufacture": "Siemens Energy/Smulders", "water_dept": -45, "wf_name": "Moray West", "tippecanoe_feature_density": 0}, "geometry": {"type": "Point", "coordinates": [-3.113250732421875, 58.061170915944984]}}]}