{"type": "FeatureCollection", "features": [{"type": "Feature", "properties": {"point_type": "turbine", "turbinemod": "SG 14.0-222 DD", "oem": "Siemens Gamesa", "foundation": "Monopile", "water_dept": -48, "turbine_mw": 14, "distance_to_shore": 22651, "tippecanoe_feature_density": 0}, "geometry": {"type": "Point", "coordinates": [-3.16131591796875, 58.08078074869218]}}, {"type": "Feature", "properties": {"point_type": "turbine", "turbinemod": "SG 14.0-222 DD", "oem": "Siemens Gamesa", "foundation": "Monopile", "water_dept": -47, "turbine_mw": 14, "distance_to_shore": 23139, "tippecanoe_feature_density": 0}, "geometry": {"type": "Point", "coordinates": [-3.1365966796875, 58.09094457038259]}}, {"type": "Feature", "properties": {"point_type": "turbine", "turbinemod": "SG 14.0-222 DD", "oem": "Siemens Gamesa", "foundation": "Monopile", "water_dept": -46, "turbine_mw": 14, "distance_to_shore": 23785, "tippecanoe_feature_density": 1}, "geometry": {"type": "Point", "coordinates": [-3.1365966796875, 58.08078074869218]}}, {"type": "Feature", "properties": {"point_type": "turbine", "turbinemod": "SG 14.0-222 DD", "oem": "Siemens Gamesa", "foundation": "Monopile", "water_dept": -44, "turbine_mw": 14, "distance_to_shore": 24918, "tippecanoe_feature_density": 0}, "geometry": {"type": "Point", "coordinates": [-3.11187744140625, 58.08078074869218]}}, {"type": "Feature", "properties": {"point_type": "turbine", "turbinemod": "SG 14.0-222 DD", "oem": "Siemens Gamesa", "foundation": "Monopile", "water_dept": -43, "turbine_mw": 14, "distance_to_shore": 24890, "tippecanoe_feature_density": 0}, "geometry": {"type": "Point", "coordinates": [-3.08990478515625, 58.09094457038259]}}, {"type": "Feature", "properties": {"point_type": "turbine", "turbinemod": "SG 14.0-222 DD", "oem": "Siemens Gamesa", "foundation": "Monopile", "water_dept": -43, "turbine_mw": 14, "distance_to_shore": 23490, "tippecanoe_feature_density": 0}, "geometry": {"type": "Point", "coordinates": [-3.065185546875, 58.11126352996695]}}, {"type": "Feature", "properties": {"point_type": "turbine", "turbinemod": "SG 14.0-222 DD", "oem": "Siemens Gamesa", "foundation": "Monopile", "water_dept": -42, "turbine_mw": 14, "distance_to_shore": 24487, "tippecanoe_feature_density": 0}, "geometry": {"type": "Point", "coordinates": [-3.065185546875, 58.101105497305866]}}, {"type": "Feature", "properties": {"point_type": "turbine", "turbinemod": "SG 14.0-222 DD", "oem": "Siemens Gamesa", "foundation": "Monopile", "water_dept": -44, "turbine_mw": 14, "distance_to_shore": 26481, "tippecanoe_feature_density": 0}, "geometry": {"type": "Point", "coordinates": [-3.065185546875, 58.08078074869218]}}, {"type": "Feature", "properties": {"point_type": "turbine", "turbinemod": "SG 14.0-222 DD", "oem": "Siemens Gamesa", "foundation": "Monopile", "water_dept": -45, "turbine_mw": 14, "distance_to_shore": 24124, "tippecanoe_feature_density": 0}, "geometry": {"type": "Point", "coordinates": [-3.0047607421875, 58.12141866887109]}}, {"type": "Feature", "properties": {"point_type": "turbine", "turbinemod": "SG 14.0-222 DD", "oem": "Siemens Gamesa", "foundation": "Monopile", "water_dept": -45, "turbine_mw": 14, "distance_to_shore": 26028, "tippecanoe_feature_density": 0}, "geometry": {"type": "Point", "coordinates": [-3.0047607421875, 58.101105497305866]}}, {"type": "Feature", "properties": {"point_type": "turbine", "turbinemod": "SG 14.0-222 DD", "oem": "Siemens Gamesa", "foundation": "Monopile", "water_dept": -45, "turbine_mw": 14, "distance_to_shore": 27370, "tippecanoe_feature_density": 1}, "geometry": {"type": "Point", "coordinates": [-3.02947998046875, 58.08078074869218]}}, {"type": "Feature", "properties": {"point_type": "turbine", "turbinemod": "SG 14.0-222 DD", "oem": "Siemens Gamesa", "foundation": "Monopile", "water_dept": -46, "turbine_mw": 14, "distance_to_shore": 26997, "tippecanoe_feature_density": 1}, "geometry": {"type": "Point", "coordinates": [-3.0047607421875, 58.09094457038259]}}, {"type": "Feature", "properties": {"point_type": "turbine", "turbinemod": "SG 14.0-222 DD", "oem": "Siemens Gamesa", "foundation": "Monopile", "water_dept": -39, "turbine_mw": 14, "distance_to_shore": 24051, "tippecanoe_feature_density": 0}, "geometry": {"type": "Point", "coordinates": [-2.88665771484375, 58.17939254609411]}}, {"type": "Feature", "properties": {"point_type": "turbine", "turbinemod": "SG 14.0-222 DD", "oem": "Siemens Gamesa", "foundation": "Monopile", "water_dept": -36, "turbine_mw": 14, "distance_to_shore": 23095, "tippecanoe_feature_density": 0}, "geometry": {"type": "Point", "coordinates": [-2.9827880859375, 58.14027053696]}}, {"type": "Feature", "properties": {"point_type": "turbine", "turbinemod": "SG 14.0-222 DD", "oem": "Siemens Gamesa", "foundation": "Monopile", "water_dept": -36, "turbine_mw": 14, "distance_to_shore": 23980, "tippecanoe_feature_density": 0}, "geometry": {"type": "Point", "coordinates": [-2.9827880859375, 58.13012077083488]}}, {"type": "Feature", "properties": {"point_type": "turbine", "turbinemod": "SG 14.0-222 DD", "oem": "Siemens Gamesa", "foundation": "Monopile", "water_dept": -37, "turbine_mw": 14, "distance_to_shore": 23968, "tippecanoe_feature_density": 1}, "geometry": {"type": "Point", "coordinates": [-2.95806884765625, 58.14027053696]}}, {"type": "Feature", "properties": {"point_type": "turbine", "turbinemod": "SG 14.0-222 DD", "oem": "Siemens Gamesa", "foundation": "Monopile", "water_dept": -37, "turbine_mw": 14, "distance_to_shore": 24822, "tippecanoe_feature_density": 1}, "geometry": {"type": "Point", "coordinates": [-2.95806884765625, 58.13012077083488]}}, {"type": "Feature", "properties": {"point_type": "turbine", "turbinemod": "SG 14.0-222 DD", "oem": "Siemens Gamesa", "foundation": "Monopile", "water_dept": -38, "turbine_mw": 14, "distance_to_shore": 24088, "tippecanoe_feature_density": 1}, "geometry": {"type": "Point", "coordinates": [-2.933349609375, 58.15041741077286]}}, {"type": "Feature", "properties": {"point_type": "turbine", "turbinemod": "SG 14.0-222 DD", "oem": "Siemens Gamesa", "foundation": "Monopile", "water_dept": -39, "turbine_mw": 14, "distance_to_shore": 24338, "tippecanoe_feature_density": 1}, "geometry": {"type": "Point", "coordinates": [-2.911376953125, 58.16056139277947]}}, {"type": "Feature", "properties": {"point_type": "turbine", "turbinemod": "SG 14.0-222 DD", "oem": "Siemens Gamesa", "foundation": "Monopile", "water_dept": -39, "turbine_mw": 14, "distance_to_shore": 25083, "tippecanoe_feature_density": 1}, "geometry": {"type": "Point", "coordinates": [-2.911376953125, 58.15041741077286]}}, {"type": "Feature", "properties": {"point_type": "turbine", "turbinemod": "SG 14.0-222 DD", "oem": "Siemens Gamesa", "foundation": "Monopile", "water_dept": -39, "turbine_mw": 14, "distance_to_shore": 24889, "tippecanoe_feature_density": 1}, "geometry": {"type": "Point", "coordinates": [-2.933349609375, 58.14027053696]}}, {"type": "Feature", "properties": {"point_type": "turbine", "turbinemod": "SG 14.0-222 DD", "oem": "Siemens Gamesa", "foundation": "Monopile", "water_dept": -39, "turbine_mw": 14, "distance_to_shore": 26648, "tippecanoe_feature_density": 1}, "geometry": {"type": "Point", "coordinates": [-2.911376953125, 58.13012077083488]}}, {"type": "Feature", "properties": {"point_type": "turbine", "turbinemod": "SG 14.0-222 DD", "oem": "Siemens Gamesa", "foundation": "Monopile", "water_dept": -39, "turbine_mw": 14, "distance_to_shore": 24883, "tippecanoe_feature_density": 1}, "geometry": {"type": "Point", "coordinates": [-2.9827880859375, 58.12141866887109]}}, {"type": "Feature", "properties": {"point_type": "turbine", "turbinemod": "SG 14.0-222 DD", "oem": "Siemens Gamesa", "foundation": "Monopile", "water_dept": -36, "turbine_mw": 14, "distance_to_shore": 25695, "tippecanoe_feature_density": 1}, "geometry": {"type": "Point", "coordinates": [-2.95806884765625, 58.12141866887109]}}, {"type": "Feature", "properties": {"point_type": "turbine", "turbinemod": "SG 14.0-222 DD", "oem": "Siemens Gamesa", "foundation": "Monopile", "water_dept": -38, "turbine_mw": 14, "distance_to_shore": 26585, "tippecanoe_feature_density": 1}, "geometry": {"type": "Point", "coordinates": [-2.95806884765625, 58.11126352996695]}}, {"type": "Feature", "properties": {"point_type": "turbine", "turbinemod": "SG 14.0-222 DD", "oem": "Siemens Gamesa", "foundation": "Monopile", "water_dept": -43, "turbine_mw": 14, "distance_to_shore": 27490, "tippecanoe_feature_density": 3}, "geometry": {"type": "Point", "coordinates": [-2.95806884765625, 58.101105497305866]}}, {"type": "Feature", "properties": {"point_type": "turbine", "turbinemod": "SG 14.0-222 DD", "oem": "Siemens Gamesa", "foundation": "Monopile", "water_dept": -48, "turbine_mw": 14, "distance_to_shore": 28632, "tippecanoe_feature_density": 3}, "geometry": {"type": "Point", "coordinates": [-2.9827880859375, 58.08078074869218]}}, {"type": "Feature", "properties": {"point_type": "turbine", "turbinemod": "SG 14.0-222 DD", "oem": "Siemens Gamesa", "foundation": "Monopile", "water_dept": -47, "turbine_mw": 14, "distance_to_shore": 28409, "tippecanoe_feature_density": 1}, "geometry": {"type": "Point", "coordinates": [-2.95806884765625, 58.09094457038259]}}, {"type": "Feature", "properties": {"point_type": "turbine", "turbinemod": "SG 14.0-222 DD", "oem": "Siemens Gamesa", "foundation": "Monopile", "water_dept": -47, "turbine_mw": 14, "distance_to_shore": 29341, "tippecanoe_feature_density": 1}, "geometry": {"type": "Point", "coordinates": [-2.95806884765625, 58.08078074869218]}}, {"type": "Feature", "properties": {"point_type": "turbine", "turbinemod": "SG 14.0-222 DD", "oem": "Siemens Gamesa", "foundation": "Monopile", "water_dept": -38, "turbine_mw": 14, "distance_to_shore": 27463, "tippecanoe_feature_density": 0}, "geometry": {"type": "Point", "coordinates": [-2.911376953125, 58.12141866887109]}}, {"type": "Feature", "properties": {"point_type": "turbine", "turbinemod": "SG 14.0-222 DD", "oem": "Siemens Gamesa", "foundation": "Monopile", "water_dept": -44, "turbine_mw": 14, "distance_to_shore": 29191, "tippecanoe_feature_density": 0}, "geometry": {"type": "Point", "coordinates": [-2.93609619140625, 58.09094457038259]}}, {"type": "Feature", "properties": {"point_type": "turbine", "turbinemod": "SG 14.0-222 DD", "oem": "Siemens Gamesa", "foundation": "Monopile", "water_dept": -41, "turbine_mw": 14, "distance_to_shore": 30018, "tippecanoe_feature_density": 0}, "geometry": {"type": "Point", "coordinates": [-2.911376953125, 58.09094457038259]}}, {"type": "Feature", "properties": {"point_type": "turbine", "turbinemod": "SG 14.0-222 DD", "oem": "Siemens Gamesa", "foundation": "Monopile", "water_dept": -44, "turbine_mw": 14, "distance_to_shore": 30901, "tippecanoe_feature_density": 0}, "geometry": {"type": "Point", "coordinates": [-2.911376953125, 58.08078074869218]}}, {"type": "Feature", "properties": {"point_type": "turbine", "turbinemod": "SG 14.0-222 DD", "oem": "Siemens Gamesa", "foundation": "Monopile", "water_dept": -38, "turbine_mw": 14, "distance_to_shore": 26857, "tippecanoe_feature_density": 0}, "geometry": {"type": "Point", "coordinates": [-2.88665771484375, 58.14027053696]}}, {"type": "Feature", "properties": {"point_type": "turbine", "turbinemod": "SG 14.0-222 DD", "oem": "Siemens Gamesa", "foundation": "Monopile", "water_dept": -38, "turbine_mw": 14, "distance_to_shore": 27622, "tippecanoe_feature_density": 0}, "geometry": {"type": "Point", "coordinates": [-2.88665771484375, 58.13012077083488]}}, {"type": "Feature", "properties": {"point_type": "turbine", "turbinemod": "SG 14.0-222 DD", "oem": "Siemens Gamesa", "foundation": "Monopile", "water_dept": -38, "turbine_mw": 14, "distance_to_shore": 28409, "tippecanoe_feature_density": 2}, "geometry": {"type": "Point", "coordinates": [-2.88665771484375, 58.12141866887109]}}, {"type": "Feature", "properties": {"point_type": "turbine", "turbinemod": "SG 14.0-222 DD", "oem": "Siemens Gamesa", "foundation": "Monopile", "water_dept": -39, "turbine_mw": 14, "distance_to_shore": 29217, "tippecanoe_feature_density": 2}, "geometry": {"type": "Point", "coordinates": [-2.88665771484375, 58.11126352996695]}}, {"type": "Feature", "properties": {"point_type": "turbine", "turbinemod": "MHI V164-9.5", "oem": "MHI Vestas", "foundation": "Jacket", "water_dept": -41, "turbine_mw": 9.5, "distance_to_shore": 30649, "tippecanoe_feature_density": 0}, "geometry": {"type": "Point", "coordinates": [-2.84271240234375, 58.115616086662584]}}, {"type": "Feature", "properties": {"point_type": "turbine", "turbinemod": "SG 14.0-222 DD", "oem": "Siemens Gamesa", "foundation": "Monopile", "water_dept": -48, "turbine_mw": 14, "distance_to_shore": 22808, "tippecanoe_feature_density": 0}, "geometry": {"type": "Point", "coordinates": [-3.18328857421875, 58.061897398122284]}}, {"type": "Feature", "properties": {"point_type": "turbine", "turbinemod": "SG 14.0-222 DD", "oem": "Siemens Gamesa", "foundation": "Monopile", "water_dept": -47, "turbine_mw": 14, "distance_to_shore": 24765, "tippecanoe_feature_density": 0}, "geometry": {"type": "Point", "coordinates": [-3.18328857421875, 58.031372421776354]}}, {"type": "Feature", "properties": {"point_type": "turbine", "turbinemod": "SG 14.0-222 DD", "oem": "Siemens Gamesa", "foundation": "Monopile", "water_dept": -48, "turbine_mw": 14, "distance_to_shore": 25460, "tippecanoe_feature_density": 0}, "geometry": {"type": "Point", "coordinates": [-3.18328857421875, 58.022646210448585]}}, {"type": "Feature", "properties": {"point_type": "turbine", "turbinemod": "SG 14.0-222 DD", "oem": "Siemens Gamesa", "foundation": "Monopile", "water_dept": -49, "turbine_mw": 14, "distance_to_shore": 26183, "tippecanoe_feature_density": 0}, "geometry": {"type": "Point", "coordinates": [-3.18328857421875, 58.012462939402695]}}, {"type": "Feature", "properties": {"point_type": "turbine", "turbinemod": "SG 14.0-222 DD", "oem": "Siemens Gamesa", "foundation": "Monopile", "water_dept": -44, "turbine_mw": 14, "distance_to_shore": 25076, "tippecanoe_feature_density": 0}, "geometry": {"type": "Point", "coordinates": [-3.1365966796875, 58.061897398122284]}}, {"type": "Feature", "properties": {"point_type": "turbine", "turbinemod": "SG 14.0-222 DD", "oem": "Siemens Gamesa", "foundation": "Monopile", "water_dept": -46, "turbine_mw": 14, "distance_to_shore": 25234, "tippecanoe_feature_density": 0}, "geometry": {"type": "Point", "coordinates": [-3.16131591796875, 58.04155031094055]}}, {"type": "Feature", "properties": {"point_type": "turbine", "turbinemod": "SG 14.0-222 DD", "oem": "Siemens Gamesa", "foundation": "Monopile", "water_dept": -47, "turbine_mw": 14, "distance_to_shore": 25880, "tippecanoe_feature_density": 1}, "geometry": {"type": "Point", "coordinates": [-3.16131591796875, 58.031372421776354]}}, {"type": "Feature", "properties": {"point_type": "turbine", "turbinemod": "SG 14.0-222 DD", "oem": "Siemens Gamesa", "foundation": "Monopile", "water_dept": -45, "turbine_mw": 14, "distance_to_shore": 25722, "tippecanoe_feature_density": 1}, "geometry": {"type": "Point", "coordinates": [-3.1365966796875, 58.05172530288789]}}, {"type": "Feature", "properties": {"point_type": "turbine", "turbinemod": "SG 14.0-222 DD", "oem": "Siemens Gamesa", "foundation": "Monopile", "water_dept": -46, "turbine_mw": 14, "distance_to_shore": 26368, "tippecanoe_feature_density": 2}, "geometry": {"type": "Point", "coordinates": [-3.1365966796875, 58.04155031094055]}}, {"type": "Feature", "properties": {"point_type": "turbine", "turbinemod": "SG 14.0-222 DD", "oem": "Siemens Gamesa", "foundation": "Monopile", "water_dept": -47, "turbine_mw": 14, "distance_to_shore": 27014, "tippecanoe_feature_density": 2}, "geometry": {"type": "Point", "coordinates": [-3.1365966796875, 58.031372421776354]}}, {"type": "Feature", "properties": {"point_type": "turbine", "turbinemod": "SG 14.0-222 DD", "oem": "Siemens Gamesa", "foundation": "Monopile", "water_dept": -44, "turbine_mw": 14, "distance_to_shore": 26698, "tippecanoe_feature_density": 1}, "geometry": {"type": "Point", "coordinates": [-3.08990478515625, 58.07206659714794]}}, {"type": "Feature", "properties": {"point_type": "turbine", "turbinemod": "SG 14.0-222 DD", "oem": "Siemens Gamesa", "foundation": "Monopile", "water_dept": -46, "turbine_mw": 14, "distance_to_shore": 27344, "tippecanoe_feature_density": 1}, "geometry": {"type": "Point", "coordinates": [-3.08990478515625, 58.061897398122284]}}, {"type": "Feature", "properties": {"point_type": "turbine", "turbinemod": "SG 14.0-222 DD", "oem": "Siemens Gamesa", "foundation": "Monopile", "water_dept": -47, "turbine_mw": 14, "distance_to_shore": 28148, "tippecanoe_feature_density": 1}, "geometry": {"type": "Point", "coordinates": [-3.11187744140625, 58.031372421776354]}}, {"type": "Feature", "properties": {"point_type": "turbine", "turbinemod": "SG 14.0-222 DD", "oem": "Siemens Gamesa", "foundation": "Monopile", "water_dept": -47, "turbine_mw": 14, "distance_to_shore": 27990, "tippecanoe_feature_density": 1}, "geometry": {"type": "Point", "coordinates": [-3.08990478515625, 58.05172530288789]}}, {"type": "Feature", "properties": {"point_type": "turbine", "turbinemod": "SG 14.0-222 DD", "oem": "Siemens Gamesa", "foundation": "Monopile", "water_dept": -48, "turbine_mw": 14, "distance_to_shore": 28636, "tippecanoe_feature_density": 2}, "geometry": {"type": "Point", "coordinates": [-3.08990478515625, 58.04155031094055]}}, {"type": "Feature", "properties": {"point_type": "turbine", "turbinemod": "SG 14.0-222 DD", "oem": "Siemens Gamesa", "foundation": "Monopile", "water_dept": -48, "turbine_mw": 14, "distance_to_shore": 29282, "tippecanoe_feature_density": 2}, "geometry": {"type": "Point", "coordinates": [-3.08990478515625, 58.031372421776354]}}, {"type": "Feature", "properties": {"point_type": "turbine", "turbinemod": "SG 14.0-222 DD", "oem": "Siemens Gamesa", "foundation": "Monopile", "water_dept": -48, "turbine_mw": 14, "distance_to_shore": 26546, "tippecanoe_feature_density": 3}, "geometry": {"type": "Point", "coordinates": [-3.16131591796875, 58.022646210448585]}}, {"type": "Feature", "properties": {"point_type": "turbine", "turbinemod": "SG 14.0-222 DD", "oem": "Siemens Gamesa", "foundation": "Monopile", "water_dept": -48, "turbine_mw": 14, "distance_to_shore": 27660, "tippecanoe_feature_density": 3}, "geometry": {"type": "Point", "coordinates": [-3.1365966796875, 58.022646210448585]}}, {"type": "Feature", "properties": {"point_type": "turbine", "turbinemod": "SG 14.0-222 DD", "oem": "Siemens Gamesa", "foundation": "Monopile", "water_dept": -45, "turbine_mw": 14, "distance_to_shore": 27477, "tippecanoe_feature_density": 0}, "geometry": {"type": "Point", "coordinates": [-3.065185546875, 58.07206659714794]}}, {"type": "Feature", "properties": {"point_type": "turbine", "turbinemod": "SG 14.0-222 DD", "oem": "Siemens Gamesa", "foundation": "Monopile", "water_dept": -48, "turbine_mw": 14, "distance_to_shore": 29124, "tippecanoe_feature_density": 0}, "geometry": {"type": "Point", "coordinates": [-3.065185546875, 58.05172530288789]}}, {"type": "Feature", "properties": {"point_type": "turbine", "turbinemod": "SG 14.0-222 DD", "oem": "Siemens Gamesa", "foundation": "Monopile", "water_dept": -48, "turbine_mw": 14, "distance_to_shore": 29364, "tippecanoe_feature_density": 0}, "geometry": {"type": "Point", "coordinates": [-3.02947998046875, 58.061897398122284]}}, {"type": "Feature", "properties": {"point_type": "turbine", "turbinemod": "SG 14.0-222 DD", "oem": "Siemens Gamesa", "foundation": "Monopile", "water_dept": -48, "turbine_mw": 14, "distance_to_shore": 30954, "tippecanoe_feature_density": 0}, "geometry": {"type": "Point", "coordinates": [-3.0047607421875, 58.05172530288789]}}, {"type": "Feature", "properties": {"point_type": "turbine", "turbinemod": "SG 14.0-222 DD", "oem": "Siemens Gamesa", "foundation": "Monopile", "water_dept": -49, "turbine_mw": 14, "distance_to_shore": 29597, "tippecanoe_feature_density": 0}, "geometry": {"type": "Point", "coordinates": [-2.9827880859375, 58.07206659714794]}}, {"type": "Feature", "properties": {"point_type": "turbine", "turbinemod": "SG 14.0-222 DD", "oem": "Siemens Gamesa", "foundation": "Monopile", "water_dept": -48, "turbine_mw": 14, "distance_to_shore": 22651, "tippecanoe_feature_density": 0}, "geometry": {"type": "Point", "coordinates": [-3.159942626953125, 58.081506831966436]}}, {"type": "Feature", "properties": {"point_type": "turbine", "turbinemod": "SG 14.0-222 DD", "oem": "Siemens Gamesa", "foundation": "Monopile", "water_dept": -46, "turbine_mw": 14, "distance_to_shore": 23785, "tippecanoe_feature_density": 0}, "geometry": {"type": "Point", "coordinates": [-3.1365966796875, 58.081506831966436]}}, {"type": "Feature", "properties": {"point_type": "turbine", "turbinemod": "SG 14.0-222 DD", "oem": "Siemens Gamesa", "foundation": "Monopile", "water_dept": -44, "turbine_mw": 14, "distance_to_shore": 24918, "tippecanoe_feature_density": 0}, "geometry": {"type": "Point", "coordinates": [-3.113250732421875, 58.081506831966436]}}, {"type": "Feature", "properties": {"point_type": "turbine", "turbinemod": "SG 14.0-222 DD", "oem": "Siemens Gamesa", "foundation": "Monopile", "water_dept": -43, "turbine_mw": 14, "distance_to_shore": 24890, "tippecanoe_feature_density": 0}, "geometry": {"type": "Point", "coordinates": [-3.088531494140625, 58.09094457038259]}}, {"type": "Feature", "properties": {"point_type": "turbine", "turbinemod": "SG 14.0-222 DD", "oem": "Siemens Gamesa", "foundation": "Monopile", "water_dept": -44, "turbine_mw": 14, "distance_to_shore": 26481, "tippecanoe_feature_density": 0}, "geometry": {"type": "Point", "coordinates": [-3.065185546875, 58.081506831966436]}}, {"type": "Feature", "properties": {"point_type": "turbine", "turbinemod": "SG 14.0-222 DD", "oem": "Siemens Gamesa", "foundation": "Monopile", "water_dept": -45, "turbine_mw": 14, "distance_to_shore": 24124, "tippecanoe_feature_density": 0}, "geometry": {"type": "Point", "coordinates": [-3.006134033203125, 58.12069339776218]}}, {"type": "Feature", "properties": {"point_type": "turbine", "turbinemod": "SG 14.0-222 DD", "oem": "Siemens Gamesa", "foundation": "Monopile", "water_dept": -45, "turbine_mw": 14, "distance_to_shore": 26028, "tippecanoe_feature_density": 0}, "geometry": {"type": "Point", "coordinates": [-3.006134033203125, 58.101105497305866]}}, {"type": "Feature", "properties": {"point_type": "turbine", "turbinemod": "SG 14.0-222 DD", "oem": "Siemens Gamesa", "foundation": "Monopile", "water_dept": -45, "turbine_mw": 14, "distance_to_shore": 27370, "tippecanoe_feature_density": 0}, "geometry": {"type": "Point", "coordinates": [-3.02947998046875, 58.081506831966436]}}, {"type": "Feature", "properties": {"point_type": "turbine", "turbinemod": "SG 14.0-222 DD", "oem": "Siemens Gamesa", "foundation": "Monopile", "water_dept": -46, "turbine_mw": 14, "distance_to_shore": 26997, "tippecanoe_feature_density": 0}, "geometry": {"type": "Point", "coordinates": [-3.006134033203125, 58.09094457038259]}}, {"type": "Feature", "properties": {"point_type": "turbine", "turbinemod": "SG 14.0-222 DD", "oem": "Siemens Gamesa", "foundation": "Monopile", "water_dept": -39, "turbine_mw": 14, "distance_to_shore": 24051, "tippecanoe_feature_density": 0}, "geometry": {"type": "Point", "coordinates": [-2.88665771484375, 58.180116622119954]}}, {"type": "Feature", "properties": {"point_type": "turbine", "turbinemod": "SG 14.0-222 DD", "oem": "Siemens Gamesa", "foundation": "Monopile", "water_dept": -36, "turbine_mw": 14, "distance_to_shore": 23980, "tippecanoe_feature_density": 0}, "geometry": {"type": "Point", "coordinates": [-2.9827880859375, 58.13084585005882]}}, {"type": "Feature", "properties": {"point_type": "turbine", "turbinemod": "SG 14.0-222 DD", "oem": "Siemens Gamesa", "foundation": "Monopile", "water_dept": -37, "turbine_mw": 14, "distance_to_shore": 24822, "tippecanoe_feature_density": 0}, "geometry": {"type": "Point", "coordinates": [-2.95806884765625, 58.13084585005882]}}, {"type": "Feature", "properties": {"point_type": "turbine", "turbinemod": "SG 14.0-222 DD", "oem": "Siemens Gamesa", "foundation": "Monopile", "water_dept": -38, "turbine_mw": 14, "distance_to_shore": 24088, "tippecanoe_feature_density": 0}, "geometry": {"type": "Point", "coordinates": [-2.934722900390625, 58.15041741077286]}}, {"type": "Feature", "properties": {"point_type": "turbine", "turbinemod": "SG 14.0-222 DD", "oem": "Siemens Gamesa", "foundation": "Monopile", "water_dept": -39, "turbine_mw": 14, "distance_to_shore": 24889, "tippecanoe_feature_density": 0}, "geometry": {"type": "Point", "coordinates": [-2.934722900390625, 58.14027053696]}}, {"type": "Feature", "properties": {"point_type": "turbine", "turbinemod": "SG 14.0-222 DD", "oem": "Siemens Gamesa", "foundation": "Monopile", "water_dept": -39, "turbine_mw": 14, "distance_to_shore": 26648, "tippecanoe_feature_density": 0}, "geometry": {"type": "Point", "coordinates": [-2.911376953125, 58.13084585005882]}}, {"type": "Feature", "properties": {"point_type": "turbine", "turbinemod": "SG 14.0-222 DD", "oem": "Siemens Gamesa", "foundation": "Monopile", "water_dept": -39, "turbine_mw": 14, "distance_to_shore": 24883, "tippecanoe_feature_density": 0}, "geometry": {"type": "Point", "coordinates": [-2.9827880859375, 58.12069339776218]}}, {"type": "Feature", "properties": {"point_type": "turbine", "turbinemod": "SG 14.0-222 DD", "oem": "Siemens Gamesa", "foundation": "Monopile", "water_dept": -36, "turbine_mw": 14, "distance_to_shore": 25695, "tippecanoe_feature_density": 0}, "geometry": {"type": "Point", "coordinates": [-2.95806884765625, 58.12069339776218]}}, {"type": "Feature", "properties": {"point_type": "turbine", "turbinemod": "SG 14.0-222 DD", "oem": "Siemens Gamesa", "foundation": "Monopile", "water_dept": -48, "turbine_mw": 14, "distance_to_shore": 28632, "tippecanoe_feature_density": 0}, "geometry": {"type": "Point", "coordinates": [-2.9827880859375, 58.081506831966436]}}, {"type": "Feature", "properties": {"point_type": "turbine", "turbinemod": "SG 14.0-222 DD", "oem": "Siemens Gamesa", "foundation": "Monopile", "water_dept": -47, "turbine_mw": 14, "distance_to_shore": 29341, "tippecanoe_feature_density": 0}, "geometry": {"type": "Point", "coordinates": [-2.95806884765625, 58.081506831966436]}}, {"type": "Feature", "properties": {"point_type": "turbine", "turbinemod": "SG 14.0-222 DD", "oem": "Siemens Gamesa", "foundation": "Monopile", "water_dept": -38, "turbine_mw": 14, "distance_to_shore": 27463, "tippecanoe_feature_density": 0}, "geometry": {"type": "Point", "coordinates": [-2.911376953125, 58.12069339776218]}}, {"type": "Feature", "properties": {"point_type": "turbine", "turbinemod": "SG 14.0-222 DD", "oem": "Siemens Gamesa", "foundation": "Monopile", "water_dept": -44, "turbine_mw": 14, "distance_to_shore": 29191, "tippecanoe_feature_density": 0}, "geometry": {"type": "Point", "coordinates": [-2.934722900390625, 58.09094457038259]}}, {"type": "Feature", "properties": {"point_type": "turbine", "turbinemod": "SG 14.0-222 DD", "oem": "Siemens Gamesa", "foundation": "Monopile", "water_dept": -44, "turbine_mw": 14, "distance_to_shore": 30901, "tippecanoe_feature_density": 0}, "geometry": {"type": "Point", "coordinates": [-2.911376953125, 58.081506831966436]}}, {"type": "Feature", "properties": {"point_type": "turbine", "turbinemod": "SG 14.0-222 DD", "oem": "Siemens Gamesa", "foundation": "Monopile", "water_dept": -38, "turbine_mw": 14, "distance_to_shore": 27622, "tippecanoe_feature_density": 0}, "geometry": {"type": "Point", "coordinates": [-2.88665771484375, 58.13084585005882]}}, {"type": "Feature", "properties": {"point_type": "turbine", "turbinemod": "SG 14.0-222 DD", "oem": "Siemens Gamesa", "foundation": "Monopile", "water_dept": -38, "turbine_mw": 14, "distance_to_shore": 28409, "tippecanoe_feature_density": 0}, "geometry": {"type": "Point", "coordinates": [-2.88665771484375, 58.12069339776218]}}, {"type": "Feature", "properties": {"point_type": "turbine", "turbinemod": "MHI V164-9.5", "oem": "MHI Vestas", "foundation": "Jacket", "water_dept": -41, "turbine_mw": 9.5, "distance_to_shore": 30649, "tippecanoe_feature_density": 0}, "geometry": {"type": "Point", "coordinates": [-2.84271240234375, 58.11634146110708]}}, {"type": "Feature", "properties": {"point_type": "turbine", "turbinemod": "SG 14.0-222 DD", "oem": "Siemens Gamesa", "foundation": "Monopile", "water_dept": -48, "turbine_mw": 14, "distance_to_shore": 22808, "tippecanoe_feature_density": 0}, "geometry": {"type": "Point", "coordinates": [-3.18328857421875, 58.061170915944984]}}, {"type": "Feature", "properties": {"point_type": "turbine", "turbinemod": "SG 14.0-222 DD", "oem": "Siemens Gamesa", "foundation": "Monopile", "water_dept": -47, "turbine_mw": 14, "distance_to_shore": 24765, "tippecanoe_feature_density": 0}, "geometry": {"type": "Point", "coordinates": [-3.18328857421875, 58.03209950995145]}}, {"type": "Feature", "properties": {"point_type": "turbine", "turbinemod": "SG 14.0-222 DD", "oem": "Siemens Gamesa", "foundation": "Monopile", "water_dept": -48, "turbine_mw": 14, "distance_to_shore": 25460, "tippecanoe_feature_density": 0}, "geometry": {"type": "Point", "coordinates": [-3.18328857421875, 58.021918930063464]}}, {"type": "Feature", "properties": {"point_type": "turbine", "turbinemod": "SG 14.0-222 DD", "oem": "Siemens Gamesa", "foundation": "Monopile", "water_dept": -49, "turbine_mw": 14, "distance_to_shore": 26183, "tippecanoe_feature_density": 0}, "geometry": {"type": "Point", "coordinates": [-3.18328857421875, 58.01173545198742]}}, {"type": "Feature", "properties": {"point_type": "turbine", "turbinemod": "SG 14.0-222 DD", "oem": "Siemens Gamesa", "foundation": "Monopile", "water_dept": -44, "turbine_mw": 14, "distance_to_shore": 25076, "tippecanoe_feature_density": 0}, "geometry": {"type": "Point", "coordinates": [-3.1365966796875, 58.061170915944984]}}, {"type": "Feature", "properties": {"point_type": "turbine", "turbinemod": "SG 14.0-222 DD", "oem": "Siemens Gamesa", "foundation": "Monopile", "water_dept": -46, "turbine_mw": 14, "distance_to_shore": 25234, "tippecanoe_feature_density": 0}, "geometry": {"type": "Point", "coordinates": [-3.159942626953125, 58.04155031094055]}}, {"type": "Feature", "properties": {"point_type": "turbine", "turbinemod": "SG 14.0-222 DD", "oem": "Siemens Gamesa", "foundation": "Monopile", "water_dept": -47, "turbine_mw": 14, "distance_to_shore": 25880, "tippecanoe_feature_density": 0}, "geometry": {"type": "Point", "coordinates": [-3.159942626953125, 58.03209950995145]}}, {"type": "Feature", "properties": {"point_type": "turbine", "turbinemod": "SG 14.0-222 DD", "oem": "Siemens Gamesa", "foundation": "Monopile", "water_dept": -47, "turbine_mw": 14, "distance_to_shore": 27014, "tippecanoe_feature_density": 0}, "geometry": {"type": "Point", "coordinates": [-3.1365966796875, 58.03209950995145]}}, {"type": "Feature", "properties": {"point_type": "turbine", "turbinemod": "SG 14.0-222 DD", "oem": "Siemens Gamesa", "foundation": "Monopile", "water_dept": -44, "turbine_mw": 14, "distance_to_shore": 26698, "tippecanoe_feature_density": 0}, "geometry": {"type": "Point", "coordinates": [-3.088531494140625, 58.07134032182594]}}, {"type": "Feature", "properties": {"point_type": "turbine", "turbinemod": "SG 14.0-222 DD", "oem": "Siemens Gamesa", "foundation": "Monopile", "water_dept": -46, "turbine_mw": 14, "distance_to_shore": 27344, "tippecanoe_feature_density": 0}, "geometry": {"type": "Point", "coordinates": [-3.088531494140625, 58.061897398122284]}}, {"type": "Feature", "properties": {"point_type": "turbine", "turbinemod": "SG 14.0-222 DD", "oem": "Siemens Gamesa", "foundation": "Monopile", "water_dept": -47, "turbine_mw": 14, "distance_to_shore": 28148, "tippecanoe_feature_density": 0}, "geometry": {"type": "Point", "coordinates": [-3.113250732421875, 58.03209950995145]}}, {"type": "Feature", "properties": {"point_type": "turbine", "turbinemod": "SG 14.0-222 DD", "oem": "Siemens Gamesa", "foundation": "Monopile", "water_dept": -47, "turbine_mw": 14, "distance_to_shore": 27990, "tippecanoe_feature_density": 0}, "geometry": {"type": "Point", "coordinates": [-3.088531494140625, 58.05172530288789]}}, {"type": "Feature", "properties": {"point_type": "turbine", "turbinemod": "SG 14.0-222 DD", "oem": "Siemens Gamesa", "foundation": "Monopile", "water_dept": -48, "turbine_mw": 14, "distance_to_shore": 28636, "tippecanoe_feature_density": 0}, "geometry": {"type": "Point", "coordinates": [-3.088531494140625, 58.04155031094055]}}, {"type": "Feature", "properties": {"point_type": "turbine", "turbinemod": "SG 14.0-222 DD", "oem": "Siemens Gamesa", "foundation": "Monopile", "water_dept": -48, "turbine_mw": 14, "distance_to_shore": 29282, "tippecanoe_feature_density": 0}, "geometry": {"type": "Point", "coordinates": [-3.088531494140625, 58.03209950995145]}}, {"type": "Feature", "properties": {"point_type": "turbine", "turbinemod": "SG 14.0-222 DD", "oem": "Siemens Gamesa", "foundation": "Monopile", "water_dept": -48, "turbine_mw": 14, "distance_to_shore": 26546, "tippecanoe_feature_density": 0}, "geometry": {"type": "Point", "coordinates": [-3.159942626953125, 58.021918930063464]}}, {"type": "Feature", "properties": {"point_type": "turbine", "turbinemod": "SG 14.0-222 DD", "oem": "Siemens Gamesa", "foundation": "Monopile", "water_dept": -48, "turbine_mw": 14, "distance_to_shore": 27660, "tippecanoe_feature_density": 0}, "geometry": {"type": "Point", "coordinates": [-3.1365966796875, 58.021918930063464]}}, {"type": "Feature", "properties": {"point_type": "turbine", "turbinemod": "SG 14.0-222 DD", "oem": "Siemens Gamesa", "foundation": "Monopile", "water_dept": -45, "turbine_mw": 14, "distance_to_shore": 27477, "tippecanoe_feature_density": 0}, "geometry": {"type": "Point", "coordinates": [-3.065185546875, 58.07134032182594]}}, {"type": "Feature", "properties": {"point_type": "turbine", "turbinemod": "SG 14.0-222 DD", "oem": "Siemens Gamesa", "foundation": "Monopile", "water_dept": -48, "turbine_mw": 14, "distance_to_shore": 30954, "tippecanoe_feature_density": 0}, "geometry": {"type": "Point", "coordinates": [-3.006134033203125, 58.05172530288789]}}, {"type": "Feature", "properties": {"point_type": "turbine", "turbinemod": "SG 14.0-222 DD", "oem": "Siemens Gamesa", "foundation": "Monopile", "water_dept": -49, "turbine_mw": 14, "distance_to_shore": 29597, "tippecanoe_feature_density": 0}, "geometry": {"type": "Point", "coordinates": [-2.9827880859375, 58.07134032182594]}}]}