{"type": "FeatureCollection", "features": [{"type": "Feature", "properties": {"wf_develop": "SSE Renewables", "turbine_mo": "14-24 MW", "fou_type": "Jacket (Piled or Suction Bucket)", "cod": "2031-12-31T00:00:00", "wf_name": "Berwick Bank Wind Farm", "status": "Consent Application Submitted", "country": "United Kingdom", "capacity_m": 4100, "wf_owners": "SSE Renewables", "tippecanoe_feature_density": 0}, "geometry": {"type": "Polygon", "coordinates": [[[-1.35955810546875, 56.33861769463613], [-1.29913330078125, 56.15013946621394], [-1.583404541015625, 56.15013946621394], [-1.58477783203125, 56.15013946621394], [-1.58477783203125, 56.15166933290848], [-1.6369434149418483, 56.15092429139322], [-1.69189453125, 56.14937451002638], [-1.69189453125, 56.15013946621394], [-1.69189453125, 56.20059291588373], [-1.7866897845242289, 56.20209955354886], [-1.789398193359375, 56.202120773375015], [-1.789398193359375, 56.254794595477364], [-1.88690185546875, 56.2555574519306], [-1.902008056640625, 56.27081138841456], [-1.904754638671875, 56.337095279000295], [-1.9057836718229348, 56.33785568951856], [-1.922607421875, 56.34851191574353], [-1.93084716796875, 56.368292660394275], [-1.9281387066413609, 56.41926104806449], [-1.9281005859375, 56.4207379725527], [-1.78253173828125, 56.44807207450347], [-1.7137984195858065, 56.40782737453447], [-1.6094970703125, 56.41390137600675], [-1.564178466796875, 56.481453738519775], [-1.5632747919929915, 56.48152501860575], [-1.56280517578125, 56.48221207168959], [-1.45843505859375, 56.48979456997316], [-1.35955810546875, 56.33861769463613]]]}}]}