{"type": "FeatureCollection", "features": [{"type": "Feature", "properties": {"wf_develop": "Bluefloat Energy, Falck Renewables, \u00d8rsted", "turbine_mo": "TBA", "fou_type": "Floating", "wf_name": "Stromar Wind", "status": "Early Planning", "country": "United Kingdom", "capacity_m": 1000, "wf_owners": "Bluefloat Energy, Falck Renewables, \u00d8rsted", "tippecanoe_feature_density": 0}, "geometry": {"type": "Polygon", "coordinates": [[[-2.033843994140625, 58.484362852318526], [-2.03521728515625, 58.48390128465135], [-2.03521728515625, 58.48364498285858], [-2.0420804013367895, 58.48159456853003], [-2.042080401336805, 58.48159456853002], [-2.072296142578125, 58.47143895763759], [-2.0580293742453115, 58.454765926604736], [-2.02972412109375, 58.42329156394649], [-2.0269775390625, 58.397394102026624], [-2.028426656448478, 58.39740928918101], [-2.028350830078125, 58.396674456346744], [-2.098390774466569, 58.3981425326521], [-2.164306640625, 58.39883334931457], [-2.164805932206444, 58.39953463140726], [-2.1648059322064452, 58.39953463140726], [-2.165679931640625, 58.39955295092295], [-2.296142578125, 58.58400407034719], [-2.11212158203125, 58.63693504810121], [-2.03521728515625, 58.51091371223444], [-2.03521728515625, 58.49727961884423], [-2.033843994140625, 58.484362852318526]]]}}]}