{"type": "FeatureCollection", "features": [{"type": "Feature", "properties": {"wf_develop": "Vineyard Northeast, LLC", "turbine_mo": "TBA", "wf_name": "Vineyard Northeast (OCS-A 0522)", "status": "Consent Application Submitted", "no_turbine": 160, "country": "United States", "capacity_m": 2600, "wf_owners": "Copenhagen Infrastructure Partners", "tippecanoe_feature_density": 0}, "geometry": {"type": "Polygon", "coordinates": [[[-70.30460357666016, 40.60013811627229], [-70.31902313232422, 40.60013811627229], [-70.31867980957031, 40.58918888747158], [-70.32169689595393, 40.589155601500245], [-70.3399658203125, 40.58892816969373], [-70.3399658203125, 40.588954049799305], [-70.4604721069336, 40.58762456555789], [-70.50304412841797, 40.58684239087907], [-70.50338745117188, 40.597792003905454], [-70.48896789550781, 40.59805268712333], [-70.48931121826172, 40.608739823837], [-70.47523498535156, 40.60900046436083], [-70.47523498535156, 40.61968585056769], [-70.4611587524414, 40.619946448394955], [-70.46150207519531, 40.630630083991804], [-70.44708251953125, 40.630890639120025], [-70.44742584228516, 40.64183303643057], [-70.433349609375, 40.64183303643057], [-70.433349609375, 40.652773640221426], [-70.41927337646484, 40.652773640221426], [-70.41961669921875, 40.66371245038769], [-70.40519714355469, 40.66397287638688], [-70.4055404663086, 40.67464946682483], [-70.39146423339844, 40.67490985011489], [-70.39146423339844, 40.68558468942848], [-70.37738800048828, 40.68584503000696], [-70.37773132324219, 40.696518118094616], [-70.36331176757812, 40.69677841595902], [-70.36365509033203, 40.70771000786732], [-70.34957885742188, 40.70771000786732], [-70.34957885742188, 40.71863980562836], [-70.3399658203125, 40.71863980562836], [-70.33550262451172, 40.71863980562836], [-70.33584594726562, 40.729567809138985], [-70.32176971435547, 40.72982797782922], [-70.32176971435547, 40.740494018296204], [-70.3125, 40.740754144262496], [-70.3073501586914, 40.740754144262496], [-70.30769348144531, 40.75141843299744], [-70.29361724853516, 40.75167851623735], [-70.29361724853516, 40.76234105314029], [-70.2850341796875, 40.76260109365134], [-70.2850341796875, 40.76249961442752], [-70.279541015625, 40.76260109365134], [-70.279541015625, 40.77352187640244], [-70.26546478271484, 40.77352187640244], [-70.26580810546875, 40.78444086438884], [-70.25138854980469, 40.78444086438884], [-70.2517318725586, 40.79535805750899], [-70.23731231689453, 40.79561796880145], [-70.23765563964844, 40.806273455661625], [-70.22357940673828, 40.806533324215565], [-70.22357940673828, 40.817187058745816], [-70.20950317382812, 40.81744688455879], [-70.20950317382812, 40.82809886666084], [-70.19542694091797, 40.82835864973049], [-70.19405364990234, 40.75271883902363], [-70.02342224121094, 40.75427929268312], [-70.0213623046875, 40.62463703544361], [-70.30529022216797, 40.621770604720695], [-70.30460357666016, 40.60013811627229]]]}}]}