{"type": "FeatureCollection", "features": [{"type": "Feature", "properties": {"wf_develop": "Kincardine Offshore Windfarm Ltd", "turbine_mo": "V164-9.5", "fou_type": "Floating: Semi-Submersible Platform", "wtg_hubhei": 105, "wtg_oem": "Vestas", "cod": "2021-09-01T00:00:00", "wf_name": "Kincardine", "status": "Fully Commissioned", "no_turbine": 5, "country": "United Kingdom", "capacity_m": 48, "wf_owners": "Cobra Wind International ltd.", "tippecanoe_feature_density": 0}, "geometry": {"type": "Polygon", "coordinates": [[[-1.8110560485679625, 57.00617812860687], [-1.8402099609375, 56.97342735690836], [-1.8413256652696102, 56.97370370592592], [-1.841583251953125, 56.97342735690836], [-1.902008056640625, 56.98839398823807], [-1.856689453125, 57.037741202282064], [-1.7962646484375, 57.02279441538971], [-1.796805096120359, 57.022187290059435], [-1.7962646484375, 57.02204691824548], [-1.8110560485679625, 57.00617812860687]]]}}]}