{"type": "FeatureCollection", "features": [{"type": "Feature", "properties": {"point_type": "turbine", "turbinemod": "V236-15.0", "oem": "Vestas", "foundation": "Jacket", "water_dept": -51, "turbine_mw": 15, "distance_to_shore": 15418, "tippecanoe_feature_density": 0}, "geometry": {"type": "Point", "coordinates": [-2.2467041015625, 56.57612799919377]}}, {"type": "Feature", "properties": {"point_type": "turbine", "turbinemod": "V236-15.0", "oem": "Vestas", "foundation": "Monopile", "water_dept": -42, "turbine_mw": 15, "distance_to_shore": 15466, "tippecanoe_feature_density": 0}, "geometry": {"type": "Point", "coordinates": [-2.252197265625, 56.56704953519849]}}, {"type": "Feature", "properties": {"point_type": "turbine", "turbinemod": "V236-15.0", "oem": "Vestas", "foundation": "Monopile", "water_dept": -44, "turbine_mw": 15, "distance_to_shore": 17356, "tippecanoe_feature_density": 0}, "geometry": {"type": "Point", "coordinates": [-2.208251953125, 56.58520428412791]}}, {"type": "Feature", "properties": {"point_type": "turbine", "turbinemod": "V236-15.0", "oem": "Vestas", "foundation": "Jacket", "water_dept": -51, "turbine_mw": 15, "distance_to_shore": 16368, "tippecanoe_feature_density": 0}, "geometry": {"type": "Point", "coordinates": [-2.22747802734375, 56.58066641402502]}}, {"type": "Feature", "properties": {"point_type": "turbine", "turbinemod": "V236-15.0", "oem": "Vestas", "foundation": "Monopile", "water_dept": -47, "turbine_mw": 15, "distance_to_shore": 18378, "tippecanoe_feature_density": 0}, "geometry": {"type": "Point", "coordinates": [-2.18902587890625, 56.588229228254505]}}, {"type": "Feature", "properties": {"point_type": "turbine", "turbinemod": "V236-15.0", "oem": "Vestas", "foundation": "Monopile", "water_dept": -52, "turbine_mw": 15, "distance_to_shore": 19428, "tippecanoe_feature_density": 0}, "geometry": {"type": "Point", "coordinates": [-2.1697998046875, 56.59276619055882]}}, {"type": "Feature", "properties": {"point_type": "turbine", "turbinemod": "V236-15.0", "oem": "Vestas", "foundation": "Monopile", "water_dept": -44, "turbine_mw": 15, "distance_to_shore": 20194, "tippecanoe_feature_density": 0}, "geometry": {"type": "Point", "coordinates": [-2.16156005859375, 56.58369172128337]}}, {"type": "Feature", "properties": {"point_type": "turbine", "turbinemod": "V236-15.0", "oem": "Vestas", "foundation": "Monopile", "water_dept": -51, "turbine_mw": 15, "distance_to_shore": 20793, "tippecanoe_feature_density": 0}, "geometry": {"type": "Point", "coordinates": [-2.16156005859375, 56.5625094859607]}}, {"type": "Feature", "properties": {"point_type": "turbine", "turbinemod": "V236-15.0", "oem": "Vestas", "foundation": "Monopile", "water_dept": -58, "turbine_mw": 15, "distance_to_shore": 15721, "tippecanoe_feature_density": 0}, "geometry": {"type": "Point", "coordinates": [-2.26593017578125, 56.54888606884407]}}, {"type": "Feature", "properties": {"point_type": "turbine", "turbinemod": "V236-15.0", "oem": "Vestas", "foundation": "Monopile", "water_dept": -56, "turbine_mw": 15, "distance_to_shore": 15859, "tippecanoe_feature_density": 0}, "geometry": {"type": "Point", "coordinates": [-2.27142333984375, 56.5413153844508]}}, {"type": "Feature", "properties": {"point_type": "turbine", "turbinemod": "V236-15.0", "oem": "Vestas", "foundation": "Monopile", "water_dept": -55, "turbine_mw": 15, "distance_to_shore": 15583, "tippecanoe_feature_density": 3}, "geometry": {"type": "Point", "coordinates": [-2.2576904296875, 56.55796889184694]}}, {"type": "Feature", "properties": {"point_type": "turbine", "turbinemod": "V236-15.0", "oem": "Vestas", "foundation": "Monopile", "water_dept": -54, "turbine_mw": 15, "distance_to_shore": 15997, "tippecanoe_feature_density": 3}, "geometry": {"type": "Point", "coordinates": [-2.27691650390625, 56.5322285646547]}}, {"type": "Feature", "properties": {"point_type": "turbine", "turbinemod": "V236-15.0", "oem": "Vestas", "foundation": "Jacket", "water_dept": -52, "turbine_mw": 15, "distance_to_shore": 16135, "tippecanoe_feature_density": 1}, "geometry": {"type": "Point", "coordinates": [-2.28240966796875, 56.5231395643722]}}, {"type": "Feature", "properties": {"point_type": "turbine", "turbinemod": "V236-15.0", "oem": "Vestas", "foundation": "Monopile", "water_dept": -51, "turbine_mw": 15, "distance_to_shore": 17795, "tippecanoe_feature_density": 0}, "geometry": {"type": "Point", "coordinates": [-2.230224609375, 56.54434383988121]}}, {"type": "Feature", "properties": {"point_type": "turbine", "turbinemod": "V236-15.0", "oem": "Vestas", "foundation": "Monopile", "water_dept": -47, "turbine_mw": 15, "distance_to_shore": 18192, "tippecanoe_feature_density": 0}, "geometry": {"type": "Point", "coordinates": [-2.2137451171875, 56.55645523938577]}}, {"type": "Feature", "properties": {"point_type": "turbine", "turbinemod": "V236-15.0", "oem": "Vestas", "foundation": "Monopile", "water_dept": -48, "turbine_mw": 15, "distance_to_shore": 18835, "tippecanoe_feature_density": 2}, "geometry": {"type": "Point", "coordinates": [-2.21099853515625, 56.5458579767585]}}, {"type": "Feature", "properties": {"point_type": "turbine", "turbinemod": "V236-15.0", "oem": "Vestas", "foundation": "Monopile", "water_dept": -50, "turbine_mw": 15, "distance_to_shore": 18462, "tippecanoe_feature_density": 2}, "geometry": {"type": "Point", "coordinates": [-2.230224609375, 56.53374318603545]}}, {"type": "Feature", "properties": {"point_type": "turbine", "turbinemod": "V236-15.0", "oem": "Vestas", "foundation": "Monopile", "water_dept": -51, "turbine_mw": 15, "distance_to_shore": 19796, "tippecanoe_feature_density": 1}, "geometry": {"type": "Point", "coordinates": [-2.22747802734375, 56.51101750495212]}}, {"type": "Feature", "properties": {"point_type": "turbine", "turbinemod": "V236-15.0", "oem": "Vestas", "foundation": "Monopile", "water_dept": -49, "turbine_mw": 15, "distance_to_shore": 19504, "tippecanoe_feature_density": 1}, "geometry": {"type": "Point", "coordinates": [-2.21099853515625, 56.53525774684849]}}, {"type": "Feature", "properties": {"point_type": "turbine", "turbinemod": "V236-15.0", "oem": "Vestas", "foundation": "Monopile", "water_dept": -49, "turbine_mw": 15, "distance_to_shore": 20170, "tippecanoe_feature_density": 6}, "geometry": {"type": "Point", "coordinates": [-2.208251953125, 56.5231395643722]}}, {"type": "Feature", "properties": {"point_type": "turbine", "turbinemod": "V236-15.0", "oem": "Vestas", "foundation": "Jacket", "water_dept": -47, "turbine_mw": 15, "distance_to_shore": 20838, "tippecanoe_feature_density": 6}, "geometry": {"type": "Point", "coordinates": [-2.20550537109375, 56.51253297442386]}}, {"type": "Feature", "properties": {"point_type": "turbine", "turbinemod": "V236-15.0", "oem": "Vestas", "foundation": "Monopile", "water_dept": -55, "turbine_mw": 15, "distance_to_shore": 17180, "tippecanoe_feature_density": 2}, "geometry": {"type": "Point", "coordinates": [-2.28240966796875, 56.50495502117016]}}, {"type": "Feature", "properties": {"point_type": "turbine", "turbinemod": "V236-15.0", "oem": "Vestas", "foundation": "Monopile", "water_dept": -46, "turbine_mw": 15, "distance_to_shore": 17785, "tippecanoe_feature_density": 2}, "geometry": {"type": "Point", "coordinates": [-2.28515625, 56.49434334164599]}}, {"type": "Feature", "properties": {"point_type": "turbine", "turbinemod": "V236-15.0", "oem": "Vestas", "foundation": "Monopile", "water_dept": -48, "turbine_mw": 15, "distance_to_shore": 18756, "tippecanoe_feature_density": 1}, "geometry": {"type": "Point", "coordinates": [-2.2467041015625, 56.51101750495212]}}, {"type": "Feature", "properties": {"point_type": "turbine", "turbinemod": "V236-15.0", "oem": "Vestas", "foundation": "Monopile", "water_dept": -45, "turbine_mw": 15, "distance_to_shore": 19458, "tippecanoe_feature_density": 1}, "geometry": {"type": "Point", "coordinates": [-2.24395751953125, 56.500407522105775]}}, {"type": "Feature", "properties": {"point_type": "turbine", "turbinemod": "V236-15.0", "oem": "Vestas", "foundation": "Monopile", "water_dept": -47, "turbine_mw": 15, "distance_to_shore": 20213, "tippecanoe_feature_density": 2}, "geometry": {"type": "Point", "coordinates": [-2.24395751953125, 56.488278191536295]}}, {"type": "Feature", "properties": {"point_type": "turbine", "turbinemod": "V236-15.0", "oem": "Vestas", "foundation": "Monopile", "water_dept": -49, "turbine_mw": 15, "distance_to_shore": 18415, "tippecanoe_feature_density": 2}, "geometry": {"type": "Point", "coordinates": [-2.28515625, 56.48524525283548]}}, {"type": "Feature", "properties": {"point_type": "turbine", "turbinemod": "V236-15.0", "oem": "Vestas", "foundation": "Jacket", "water_dept": -49, "turbine_mw": 15, "distance_to_shore": 19189, "tippecanoe_feature_density": 10}, "geometry": {"type": "Point", "coordinates": [-2.28240966796875, 56.47614498201881]}}, {"type": "Feature", "properties": {"point_type": "turbine", "turbinemod": "V236-15.0", "oem": "Vestas", "foundation": "Monopile", "water_dept": -51, "turbine_mw": 15, "distance_to_shore": 20189, "tippecanoe_feature_density": 10}, "geometry": {"type": "Point", "coordinates": [-2.274169921875, 56.46855975598277]}}, {"type": "Feature", "properties": {"point_type": "turbine", "turbinemod": "V236-15.0", "oem": "Vestas", "foundation": "Monopile", "water_dept": -46, "turbine_mw": 15, "distance_to_shore": 20471, "tippecanoe_feature_density": 0}, "geometry": {"type": "Point", "coordinates": [-2.2247314453125, 56.500407522105775]}}, {"type": "Feature", "properties": {"point_type": "turbine", "turbinemod": "V236-15.0", "oem": "Vestas", "foundation": "Monopile", "water_dept": -46, "turbine_mw": 15, "distance_to_shore": 21188, "tippecanoe_feature_density": 0}, "geometry": {"type": "Point", "coordinates": [-2.2247314453125, 56.48979456997316]}}, {"type": "Feature", "properties": {"point_type": "turbine", "turbinemod": "V236-15.0", "oem": "Vestas", "foundation": "Monopile", "water_dept": -46, "turbine_mw": 15, "distance_to_shore": 22191, "tippecanoe_feature_density": 1}, "geometry": {"type": "Point", "coordinates": [-2.2027587890625, 56.48979456997316]}}, {"type": "Feature", "properties": {"point_type": "turbine", "turbinemod": "V236-15.0", "oem": "Vestas", "foundation": "Monopile", "water_dept": -49, "turbine_mw": 15, "distance_to_shore": 22758, "tippecanoe_feature_density": 1}, "geometry": {"type": "Point", "coordinates": [-2.22198486328125, 56.46704252890228]}}, {"type": "Feature", "properties": {"point_type": "turbine", "turbinemod": "V236-15.0", "oem": "Vestas", "foundation": "Monopile", "water_dept": -49, "turbine_mw": 15, "distance_to_shore": 22869, "tippecanoe_feature_density": 1}, "geometry": {"type": "Point", "coordinates": [-2.2027587890625, 56.47917864808764]}}, {"type": "Feature", "properties": {"point_type": "turbine", "turbinemod": "V236-15.0", "oem": "Vestas", "foundation": "Monopile", "water_dept": -49, "turbine_mw": 15, "distance_to_shore": 23694, "tippecanoe_feature_density": 1}, "geometry": {"type": "Point", "coordinates": [-2.20001220703125, 56.46855975598277]}}, {"type": "Feature", "properties": {"point_type": "turbine", "turbinemod": "V236-15.0", "oem": "Vestas", "foundation": "Monopile", "water_dept": -50, "turbine_mw": 15, "distance_to_shore": 21185, "tippecanoe_feature_density": 1}, "geometry": {"type": "Point", "coordinates": [-2.164306640625, 56.55191391871338]}}, {"type": "Feature", "properties": {"point_type": "turbine", "turbinemod": "V236-15.0", "oem": "Vestas", "foundation": "Monopile", "water_dept": -49, "turbine_mw": 15, "distance_to_shore": 21634, "tippecanoe_feature_density": 1}, "geometry": {"type": "Point", "coordinates": [-2.164306640625, 56.5413153844508]}}, {"type": "Feature", "properties": {"point_type": "turbine", "turbinemod": "V236-15.0", "oem": "Vestas", "foundation": "Jacket", "water_dept": -54, "turbine_mw": 15, "distance_to_shore": 22137, "tippecanoe_feature_density": 1}, "geometry": {"type": "Point", "coordinates": [-2.164306640625, 56.53071388270493]}}, {"type": "Feature", "properties": {"point_type": "turbine", "turbinemod": "V236-15.0", "oem": "Vestas", "foundation": "Monopile", "water_dept": -55, "turbine_mw": 15, "distance_to_shore": 22654, "tippecanoe_feature_density": 1}, "geometry": {"type": "Point", "coordinates": [-2.16705322265625, 56.52010941300796]}}, {"type": "Feature", "properties": {"point_type": "turbine", "turbinemod": "V236-15.0", "oem": "Vestas", "foundation": "Jacket", "water_dept": -52, "turbine_mw": 15, "distance_to_shore": 23170, "tippecanoe_feature_density": 0}, "geometry": {"type": "Point", "coordinates": [-2.16705322265625, 56.50950197489229]}}, {"type": "Feature", "properties": {"point_type": "turbine", "turbinemod": "V236-15.0", "oem": "Vestas", "foundation": "Monopile", "water_dept": -46, "turbine_mw": 15, "distance_to_shore": 24203, "tippecanoe_feature_density": 0}, "geometry": {"type": "Point", "coordinates": [-2.1697998046875, 56.488278191536295]}}, {"type": "Feature", "properties": {"point_type": "turbine", "turbinemod": "V236-15.0", "oem": "Vestas", "foundation": "Jacket", "water_dept": -52, "turbine_mw": 15, "distance_to_shore": 24757, "tippecanoe_feature_density": 0}, "geometry": {"type": "Point", "coordinates": [-2.1697998046875, 56.47766184536229]}}, {"type": "Feature", "properties": {"point_type": "turbine", "turbinemod": "V236-15.0", "oem": "Vestas", "foundation": "Monopile", "water_dept": -55, "turbine_mw": 15, "distance_to_shore": 25783, "tippecanoe_feature_density": 0}, "geometry": {"type": "Point", "coordinates": [-2.1533203125, 56.47462805805594]}}, {"type": "Feature", "properties": {"point_type": "turbine", "turbinemod": "V236-15.0", "oem": "Vestas", "foundation": "Jacket", "water_dept": -51, "turbine_mw": 15, "distance_to_shore": 27732, "tippecanoe_feature_density": 0}, "geometry": {"type": "Point", "coordinates": [-2.120361328125, 56.470076922437016]}}, {"type": "Feature", "properties": {"point_type": "turbine", "turbinemod": "V236-15.0", "oem": "Vestas", "foundation": "Monopile", "water_dept": -49, "turbine_mw": 15, "distance_to_shore": 21193, "tippecanoe_feature_density": 0}, "geometry": {"type": "Point", "coordinates": [-2.26593017578125, 56.459455484058736]}}, {"type": "Feature", "properties": {"point_type": "turbine", "turbinemod": "V236-15.0", "oem": "Vestas", "foundation": "Monopile", "water_dept": -46, "turbine_mw": 15, "distance_to_shore": 22203, "tippecanoe_feature_density": 1}, "geometry": {"type": "Point", "coordinates": [-2.2576904296875, 56.45186692335551]}}, {"type": "Feature", "properties": {"point_type": "turbine", "turbinemod": "V236-15.0", "oem": "Vestas", "foundation": "Jacket", "water_dept": -52, "turbine_mw": 15, "distance_to_shore": 23215, "tippecanoe_feature_density": 1}, "geometry": {"type": "Point", "coordinates": [-2.24945068359375, 56.4442768466229]}}, {"type": "Feature", "properties": {"point_type": "turbine", "turbinemod": "V236-15.0", "oem": "Vestas", "foundation": "Jacket", "water_dept": -49, "turbine_mw": 15, "distance_to_shore": 23601, "tippecanoe_feature_density": 0}, "geometry": {"type": "Point", "coordinates": [-2.21923828125, 56.4564202416901]}}, {"type": "Feature", "properties": {"point_type": "turbine", "turbinemod": "V236-15.0", "oem": "Vestas", "foundation": "Monopile", "water_dept": -48, "turbine_mw": 15, "distance_to_shore": 24504, "tippecanoe_feature_density": 0}, "geometry": {"type": "Point", "coordinates": [-2.20001220703125, 56.4564202416901]}}, {"type": "Feature", "properties": {"point_type": "turbine", "turbinemod": "V236-15.0", "oem": "Vestas", "foundation": "Monopile", "water_dept": -50, "turbine_mw": 15, "distance_to_shore": 24232, "tippecanoe_feature_density": 1}, "geometry": {"type": "Point", "coordinates": [-2.23846435546875, 56.43516675314612]}}, {"type": "Feature", "properties": {"point_type": "turbine", "turbinemod": "V236-15.0", "oem": "Vestas", "foundation": "Jacket", "water_dept": -53, "turbine_mw": 15, "distance_to_shore": 25250, "tippecanoe_feature_density": 1}, "geometry": {"type": "Point", "coordinates": [-2.230224609375, 56.42757334055182]}}, {"type": "Feature", "properties": {"point_type": "turbine", "turbinemod": "V236-15.0", "oem": "Vestas", "foundation": "Monopile", "water_dept": -50, "turbine_mw": 15, "distance_to_shore": 26175, "tippecanoe_feature_density": 1}, "geometry": {"type": "Point", "coordinates": [-2.21649169921875, 56.424535550883405]}}, {"type": "Feature", "properties": {"point_type": "turbine", "turbinemod": "V236-15.0", "oem": "Vestas", "foundation": "Jacket", "water_dept": -52, "turbine_mw": 15, "distance_to_shore": 26913, "tippecanoe_feature_density": 1}, "geometry": {"type": "Point", "coordinates": [-2.20001220703125, 56.424535550883405]}}, {"type": "Feature", "properties": {"point_type": "turbine", "turbinemod": "V236-15.0", "oem": "Vestas", "foundation": "Jacket", "water_dept": -52, "turbine_mw": 15, "distance_to_shore": 25436, "tippecanoe_feature_density": 0}, "geometry": {"type": "Point", "coordinates": [-2.17803955078125, 56.45793789319228]}}, {"type": "Feature", "properties": {"point_type": "turbine", "turbinemod": "V236-15.0", "oem": "Vestas", "foundation": "Monopile", "water_dept": -51, "turbine_mw": 15, "distance_to_shore": 26251, "tippecanoe_feature_density": 0}, "geometry": {"type": "Point", "coordinates": [-2.17803955078125, 56.44731305925035]}}, {"type": "Feature", "properties": {"point_type": "turbine", "turbinemod": "V236-15.0", "oem": "Vestas", "foundation": "Monopile", "water_dept": -51, "turbine_mw": 15, "distance_to_shore": 27179, "tippecanoe_feature_density": 1}, "geometry": {"type": "Point", "coordinates": [-2.1588134765625, 56.44731305925035]}}, {"type": "Feature", "properties": {"point_type": "turbine", "turbinemod": "V236-15.0", "oem": "Vestas", "foundation": "Jacket", "water_dept": -52, "turbine_mw": 15, "distance_to_shore": 27669, "tippecanoe_feature_density": 1}, "geometry": {"type": "Point", "coordinates": [-2.1807861328125, 56.424535550883405]}}, {"type": "Feature", "properties": {"point_type": "turbine", "turbinemod": "V236-15.0", "oem": "Vestas", "foundation": "Monopile", "water_dept": -52, "turbine_mw": 15, "distance_to_shore": 28442, "tippecanoe_feature_density": 1}, "geometry": {"type": "Point", "coordinates": [-2.164306640625, 56.424535550883405]}}, {"type": "Feature", "properties": {"point_type": "turbine", "turbinemod": "V236-15.0", "oem": "Vestas", "foundation": "Monopile", "water_dept": -48, "turbine_mw": 15, "distance_to_shore": 28131, "tippecanoe_feature_density": 1}, "geometry": {"type": "Point", "coordinates": [-2.1368408203125, 56.44883107459549]}}, {"type": "Feature", "properties": {"point_type": "turbine", "turbinemod": "V236-15.0", "oem": "Vestas", "foundation": "Monopile", "water_dept": -53, "turbine_mw": 15, "distance_to_shore": 29105, "tippecanoe_feature_density": 0}, "geometry": {"type": "Point", "coordinates": [-2.11761474609375, 56.44883107459549]}}, {"type": "Feature", "properties": {"point_type": "turbine", "turbinemod": "V236-15.0", "oem": "Vestas", "foundation": "Monopile", "water_dept": -53, "turbine_mw": 15, "distance_to_shore": 29231, "tippecanoe_feature_density": 0}, "geometry": {"type": "Point", "coordinates": [-2.1478271484375, 56.424535550883405]}}, {"type": "Feature", "properties": {"point_type": "turbine", "turbinemod": "V236-15.0", "oem": "Vestas", "foundation": "Monopile", "water_dept": -51, "turbine_mw": 15, "distance_to_shore": 30034, "tippecanoe_feature_density": 1}, "geometry": {"type": "Point", "coordinates": [-2.13134765625, 56.424535550883405]}}, {"type": "Feature", "properties": {"point_type": "turbine", "turbinemod": "V236-15.0", "oem": "Vestas", "foundation": "Monopile", "water_dept": -56, "turbine_mw": 15, "distance_to_shore": 30579, "tippecanoe_feature_density": 1}, "geometry": {"type": "Point", "coordinates": [-2.11761474609375, 56.42757334055182]}}, {"type": "Feature", "properties": {"point_type": "turbine", "turbinemod": "V236-15.0", "oem": "Vestas", "foundation": "Monopile", "water_dept": -55, "turbine_mw": 15, "distance_to_shore": 28713, "tippecanoe_feature_density": 0}, "geometry": {"type": "Point", "coordinates": [-2.1038818359375, 56.46855975598277]}}, {"type": "Feature", "properties": {"point_type": "turbine", "turbinemod": "V236-15.0", "oem": "Vestas", "foundation": "Monopile", "water_dept": -49, "turbine_mw": 15, "distance_to_shore": 29695, "tippecanoe_feature_density": 0}, "geometry": {"type": "Point", "coordinates": [-2.08740234375, 56.46704252890228]}}, {"type": "Feature", "properties": {"point_type": "turbine", "turbinemod": "V236-15.0", "oem": "Vestas", "foundation": "Monopile", "water_dept": -54, "turbine_mw": 15, "distance_to_shore": 30678, "tippecanoe_feature_density": 1}, "geometry": {"type": "Point", "coordinates": [-2.0709228515625, 56.464007892857154]}}, {"type": "Feature", "properties": {"point_type": "turbine", "turbinemod": "V236-15.0", "oem": "Vestas", "foundation": "Jacket", "water_dept": -52, "turbine_mw": 15, "distance_to_shore": 31661, "tippecanoe_feature_density": 0}, "geometry": {"type": "Point", "coordinates": [-2.054443359375, 56.46249048388978]}}, {"type": "Feature", "properties": {"point_type": "turbine", "turbinemod": "V236-15.0", "oem": "Vestas", "foundation": "Monopile", "water_dept": -50, "turbine_mw": 15, "distance_to_shore": 31895, "tippecanoe_feature_density": 0}, "geometry": {"type": "Point", "coordinates": [-2.07366943359375, 56.441240391403625]}}, {"type": "Feature", "properties": {"point_type": "turbine", "turbinemod": "V236-15.0", "oem": "Vestas", "foundation": "Jacket", "water_dept": -57, "turbine_mw": 15, "distance_to_shore": 30986, "tippecanoe_feature_density": 0}, "geometry": {"type": "Point", "coordinates": [-2.10113525390625, 56.432129570086204]}}, {"type": "Feature", "properties": {"point_type": "turbine", "turbinemod": "V236-15.0", "oem": "Vestas", "foundation": "Jacket", "water_dept": -52, "turbine_mw": 15, "distance_to_shore": 31432, "tippecanoe_feature_density": 4}, "geometry": {"type": "Point", "coordinates": [-2.08740234375, 56.43668525369128]}}, {"type": "Feature", "properties": {"point_type": "turbine", "turbinemod": "V236-15.0", "oem": "Vestas", "foundation": "Monopile", "water_dept": -49, "turbine_mw": 15, "distance_to_shore": 32441, "tippecanoe_feature_density": 0}, "geometry": {"type": "Point", "coordinates": [-2.0489501953125, 56.45338475677309]}}, {"type": "Feature", "properties": {"point_type": "turbine", "turbinemod": "V236-15.0", "oem": "Vestas", "foundation": "Monopile", "water_dept": -50, "turbine_mw": 15, "distance_to_shore": 32383, "tippecanoe_feature_density": 0}, "geometry": {"type": "Point", "coordinates": [-2.0599365234375, 56.4457949832599]}}, {"type": "Feature", "properties": {"point_type": "turbine", "turbinemod": "V236-15.0", "oem": "Vestas", "foundation": "Monopile", "water_dept": -44, "turbine_mw": 15, "distance_to_shore": 17356, "tippecanoe_feature_density": 0}, "geometry": {"type": "Point", "coordinates": [-2.208251953125, 56.584448010270876]}}, {"type": "Feature", "properties": {"point_type": "turbine", "turbinemod": "V236-15.0", "oem": "Vestas", "foundation": "Monopile", "water_dept": -44, "turbine_mw": 15, "distance_to_shore": 20194, "tippecanoe_feature_density": 0}, "geometry": {"type": "Point", "coordinates": [-2.16156005859375, 56.5829354171652]}}, {"type": "Feature", "properties": {"point_type": "turbine", "turbinemod": "V236-15.0", "oem": "Vestas", "foundation": "Monopile", "water_dept": -51, "turbine_mw": 15, "distance_to_shore": 20793, "tippecanoe_feature_density": 0}, "geometry": {"type": "Point", "coordinates": [-2.162933349609375, 56.561752758114665]}}, {"type": "Feature", "properties": {"point_type": "turbine", "turbinemod": "V236-15.0", "oem": "Vestas", "foundation": "Monopile", "water_dept": -58, "turbine_mw": 15, "distance_to_shore": 15721, "tippecanoe_feature_density": 0}, "geometry": {"type": "Point", "coordinates": [-2.264556884765625, 56.54964305401873]}}, {"type": "Feature", "properties": {"point_type": "turbine", "turbinemod": "V236-15.0", "oem": "Vestas", "foundation": "Monopile", "water_dept": -56, "turbine_mw": 15, "distance_to_shore": 15859, "tippecanoe_feature_density": 0}, "geometry": {"type": "Point", "coordinates": [-2.27142333984375, 56.54055823274308]}}, {"type": "Feature", "properties": {"point_type": "turbine", "turbinemod": "V236-15.0", "oem": "Vestas", "foundation": "Monopile", "water_dept": -55, "turbine_mw": 15, "distance_to_shore": 15583, "tippecanoe_feature_density": 0}, "geometry": {"type": "Point", "coordinates": [-2.259063720703125, 56.55872569537274]}}, {"type": "Feature", "properties": {"point_type": "turbine", "turbinemod": "V236-15.0", "oem": "Vestas", "foundation": "Monopile", "water_dept": -51, "turbine_mw": 15, "distance_to_shore": 17795, "tippecanoe_feature_density": 0}, "geometry": {"type": "Point", "coordinates": [-2.231597900390625, 56.54510091588952]}}, {"type": "Feature", "properties": {"point_type": "turbine", "turbinemod": "V236-15.0", "oem": "Vestas", "foundation": "Monopile", "water_dept": -47, "turbine_mw": 15, "distance_to_shore": 18192, "tippecanoe_feature_density": 0}, "geometry": {"type": "Point", "coordinates": [-2.212371826171875, 56.55645523938577]}}, {"type": "Feature", "properties": {"point_type": "turbine", "turbinemod": "V236-15.0", "oem": "Vestas", "foundation": "Monopile", "water_dept": -51, "turbine_mw": 15, "distance_to_shore": 19796, "tippecanoe_feature_density": 0}, "geometry": {"type": "Point", "coordinates": [-2.226104736328125, 56.511775247261426]}}, {"type": "Feature", "properties": {"point_type": "turbine", "turbinemod": "V236-15.0", "oem": "Vestas", "foundation": "Monopile", "water_dept": -49, "turbine_mw": 15, "distance_to_shore": 19504, "tippecanoe_feature_density": 0}, "geometry": {"type": "Point", "coordinates": [-2.209625244140625, 56.534500474012816]}}, {"type": "Feature", "properties": {"point_type": "turbine", "turbinemod": "V236-15.0", "oem": "Vestas", "foundation": "Jacket", "water_dept": -47, "turbine_mw": 15, "distance_to_shore": 20838, "tippecanoe_feature_density": 0}, "geometry": {"type": "Point", "coordinates": [-2.206878662109375, 56.51253297442386]}}, {"type": "Feature", "properties": {"point_type": "turbine", "turbinemod": "V236-15.0", "oem": "Vestas", "foundation": "Monopile", "water_dept": -55, "turbine_mw": 15, "distance_to_shore": 17180, "tippecanoe_feature_density": 0}, "geometry": {"type": "Point", "coordinates": [-2.283782958984375, 56.50419714253141]}}, {"type": "Feature", "properties": {"point_type": "turbine", "turbinemod": "V236-15.0", "oem": "Vestas", "foundation": "Monopile", "water_dept": -46, "turbine_mw": 15, "distance_to_shore": 17785, "tippecanoe_feature_density": 0}, "geometry": {"type": "Point", "coordinates": [-2.283782958984375, 56.49510141722939]}}, {"type": "Feature", "properties": {"point_type": "turbine", "turbinemod": "V236-15.0", "oem": "Vestas", "foundation": "Monopile", "water_dept": -45, "turbine_mw": 15, "distance_to_shore": 19458, "tippecanoe_feature_density": 0}, "geometry": {"type": "Point", "coordinates": [-2.245330810546875, 56.499649552573004]}}, {"type": "Feature", "properties": {"point_type": "turbine", "turbinemod": "V236-15.0", "oem": "Vestas", "foundation": "Monopile", "water_dept": -49, "turbine_mw": 15, "distance_to_shore": 18415, "tippecanoe_feature_density": 0}, "geometry": {"type": "Point", "coordinates": [-2.283782958984375, 56.4860035102395]}}, {"type": "Feature", "properties": {"point_type": "turbine", "turbinemod": "V236-15.0", "oem": "Vestas", "foundation": "Jacket", "water_dept": -49, "turbine_mw": 15, "distance_to_shore": 19189, "tippecanoe_feature_density": 2}, "geometry": {"type": "Point", "coordinates": [-2.28240966796875, 56.476903421267906]}}, {"type": "Feature", "properties": {"point_type": "turbine", "turbinemod": "V236-15.0", "oem": "Vestas", "foundation": "Monopile", "water_dept": -46, "turbine_mw": 15, "distance_to_shore": 21188, "tippecanoe_feature_density": 0}, "geometry": {"type": "Point", "coordinates": [-2.223358154296875, 56.48979456997316]}}, {"type": "Feature", "properties": {"point_type": "turbine", "turbinemod": "V236-15.0", "oem": "Vestas", "foundation": "Monopile", "water_dept": -46, "turbine_mw": 15, "distance_to_shore": 22191, "tippecanoe_feature_density": 0}, "geometry": {"type": "Point", "coordinates": [-2.204132080078125, 56.490552736463826]}}, {"type": "Feature", "properties": {"point_type": "turbine", "turbinemod": "V236-15.0", "oem": "Vestas", "foundation": "Monopile", "water_dept": -49, "turbine_mw": 15, "distance_to_shore": 22758, "tippecanoe_feature_density": 0}, "geometry": {"type": "Point", "coordinates": [-2.220611572265625, 56.46704252890228]}}, {"type": "Feature", "properties": {"point_type": "turbine", "turbinemod": "V236-15.0", "oem": "Vestas", "foundation": "Monopile", "water_dept": -49, "turbine_mw": 15, "distance_to_shore": 23694, "tippecanoe_feature_density": 0}, "geometry": {"type": "Point", "coordinates": [-2.20001220703125, 56.467801150020875]}}, {"type": "Feature", "properties": {"point_type": "turbine", "turbinemod": "V236-15.0", "oem": "Vestas", "foundation": "Monopile", "water_dept": -50, "turbine_mw": 15, "distance_to_shore": 21185, "tippecanoe_feature_density": 0}, "geometry": {"type": "Point", "coordinates": [-2.164306640625, 56.5511569789532]}}, {"type": "Feature", "properties": {"point_type": "turbine", "turbinemod": "V236-15.0", "oem": "Vestas", "foundation": "Monopile", "water_dept": -49, "turbine_mw": 15, "distance_to_shore": 21634, "tippecanoe_feature_density": 0}, "geometry": {"type": "Point", "coordinates": [-2.164306640625, 56.54055823274308]}}, {"type": "Feature", "properties": {"point_type": "turbine", "turbinemod": "V236-15.0", "oem": "Vestas", "foundation": "Jacket", "water_dept": -54, "turbine_mw": 15, "distance_to_shore": 22137, "tippecanoe_feature_density": 0}, "geometry": {"type": "Point", "coordinates": [-2.165679931640625, 56.529956519016224]}}, {"type": "Feature", "properties": {"point_type": "turbine", "turbinemod": "V236-15.0", "oem": "Vestas", "foundation": "Monopile", "water_dept": -55, "turbine_mw": 15, "distance_to_shore": 22654, "tippecanoe_feature_density": 0}, "geometry": {"type": "Point", "coordinates": [-2.165679931640625, 56.51935183730478]}}, {"type": "Feature", "properties": {"point_type": "turbine", "turbinemod": "V236-15.0", "oem": "Vestas", "foundation": "Jacket", "water_dept": -52, "turbine_mw": 15, "distance_to_shore": 23170, "tippecanoe_feature_density": 0}, "geometry": {"type": "Point", "coordinates": [-2.16705322265625, 56.50874418714136]}}, {"type": "Feature", "properties": {"point_type": "turbine", "turbinemod": "V236-15.0", "oem": "Vestas", "foundation": "Monopile", "water_dept": -46, "turbine_mw": 15, "distance_to_shore": 24203, "tippecanoe_feature_density": 0}, "geometry": {"type": "Point", "coordinates": [-2.168426513671875, 56.487519979589734]}}, {"type": "Feature", "properties": {"point_type": "turbine", "turbinemod": "V236-15.0", "oem": "Vestas", "foundation": "Jacket", "water_dept": -52, "turbine_mw": 15, "distance_to_shore": 24757, "tippecanoe_feature_density": 0}, "geometry": {"type": "Point", "coordinates": [-2.1697998046875, 56.476903421267906]}}, {"type": "Feature", "properties": {"point_type": "turbine", "turbinemod": "V236-15.0", "oem": "Vestas", "foundation": "Monopile", "water_dept": -55, "turbine_mw": 15, "distance_to_shore": 25783, "tippecanoe_feature_density": 0}, "geometry": {"type": "Point", "coordinates": [-2.1533203125, 56.47386957334177]}}, {"type": "Feature", "properties": {"point_type": "turbine", "turbinemod": "V236-15.0", "oem": "Vestas", "foundation": "Monopile", "water_dept": -49, "turbine_mw": 15, "distance_to_shore": 21193, "tippecanoe_feature_density": 0}, "geometry": {"type": "Point", "coordinates": [-2.264556884765625, 56.46021425675397]}}, {"type": "Feature", "properties": {"point_type": "turbine", "turbinemod": "V236-15.0", "oem": "Vestas", "foundation": "Monopile", "water_dept": -46, "turbine_mw": 15, "distance_to_shore": 22203, "tippecanoe_feature_density": 0}, "geometry": {"type": "Point", "coordinates": [-2.256317138671875, 56.45186692335551]}}, {"type": "Feature", "properties": {"point_type": "turbine", "turbinemod": "V236-15.0", "oem": "Vestas", "foundation": "Jacket", "water_dept": -52, "turbine_mw": 15, "distance_to_shore": 23215, "tippecanoe_feature_density": 0}, "geometry": {"type": "Point", "coordinates": [-2.248077392578125, 56.44351775556149]}}, {"type": "Feature", "properties": {"point_type": "turbine", "turbinemod": "V236-15.0", "oem": "Vestas", "foundation": "Monopile", "water_dept": -48, "turbine_mw": 15, "distance_to_shore": 24504, "tippecanoe_feature_density": 0}, "geometry": {"type": "Point", "coordinates": [-2.198638916015625, 56.45717907502075]}}, {"type": "Feature", "properties": {"point_type": "turbine", "turbinemod": "V236-15.0", "oem": "Vestas", "foundation": "Monopile", "water_dept": -50, "turbine_mw": 15, "distance_to_shore": 24232, "tippecanoe_feature_density": 0}, "geometry": {"type": "Point", "coordinates": [-2.239837646484375, 56.43592601100062]}}, {"type": "Feature", "properties": {"point_type": "turbine", "turbinemod": "V236-15.0", "oem": "Vestas", "foundation": "Jacket", "water_dept": -53, "turbine_mw": 15, "distance_to_shore": 25250, "tippecanoe_feature_density": 0}, "geometry": {"type": "Point", "coordinates": [-2.231597900390625, 56.42757334055182]}}, {"type": "Feature", "properties": {"point_type": "turbine", "turbinemod": "V236-15.0", "oem": "Vestas", "foundation": "Monopile", "water_dept": -50, "turbine_mw": 15, "distance_to_shore": 26175, "tippecanoe_feature_density": 0}, "geometry": {"type": "Point", "coordinates": [-2.215118408203125, 56.424535550883405]}}, {"type": "Feature", "properties": {"point_type": "turbine", "turbinemod": "V236-15.0", "oem": "Vestas", "foundation": "Jacket", "water_dept": -52, "turbine_mw": 15, "distance_to_shore": 26913, "tippecanoe_feature_density": 0}, "geometry": {"type": "Point", "coordinates": [-2.198638916015625, 56.424535550883405]}}, {"type": "Feature", "properties": {"point_type": "turbine", "turbinemod": "V236-15.0", "oem": "Vestas", "foundation": "Jacket", "water_dept": -52, "turbine_mw": 15, "distance_to_shore": 25436, "tippecanoe_feature_density": 0}, "geometry": {"type": "Point", "coordinates": [-2.179412841796875, 56.45793789319228]}}, {"type": "Feature", "properties": {"point_type": "turbine", "turbinemod": "V236-15.0", "oem": "Vestas", "foundation": "Monopile", "water_dept": -51, "turbine_mw": 15, "distance_to_shore": 26251, "tippecanoe_feature_density": 0}, "geometry": {"type": "Point", "coordinates": [-2.17803955078125, 56.44655402883586]}}, {"type": "Feature", "properties": {"point_type": "turbine", "turbinemod": "V236-15.0", "oem": "Vestas", "foundation": "Monopile", "water_dept": -51, "turbine_mw": 15, "distance_to_shore": 27179, "tippecanoe_feature_density": 0}, "geometry": {"type": "Point", "coordinates": [-2.157440185546875, 56.44731305925035]}}, {"type": "Feature", "properties": {"point_type": "turbine", "turbinemod": "V236-15.0", "oem": "Vestas", "foundation": "Jacket", "water_dept": -52, "turbine_mw": 15, "distance_to_shore": 27669, "tippecanoe_feature_density": 0}, "geometry": {"type": "Point", "coordinates": [-2.182159423828125, 56.424535550883405]}}, {"type": "Feature", "properties": {"point_type": "turbine", "turbinemod": "V236-15.0", "oem": "Vestas", "foundation": "Monopile", "water_dept": -52, "turbine_mw": 15, "distance_to_shore": 28442, "tippecanoe_feature_density": 0}, "geometry": {"type": "Point", "coordinates": [-2.165679931640625, 56.423776065550754]}}, {"type": "Feature", "properties": {"point_type": "turbine", "turbinemod": "V236-15.0", "oem": "Vestas", "foundation": "Monopile", "water_dept": -48, "turbine_mw": 15, "distance_to_shore": 28131, "tippecanoe_feature_density": 0}, "geometry": {"type": "Point", "coordinates": [-2.138214111328125, 56.44883107459549]}}, {"type": "Feature", "properties": {"point_type": "turbine", "turbinemod": "V236-15.0", "oem": "Vestas", "foundation": "Monopile", "water_dept": -53, "turbine_mw": 15, "distance_to_shore": 29105, "tippecanoe_feature_density": 0}, "geometry": {"type": "Point", "coordinates": [-2.11761474609375, 56.44959005952654]}}, {"type": "Feature", "properties": {"point_type": "turbine", "turbinemod": "V236-15.0", "oem": "Vestas", "foundation": "Monopile", "water_dept": -53, "turbine_mw": 15, "distance_to_shore": 29231, "tippecanoe_feature_density": 0}, "geometry": {"type": "Point", "coordinates": [-2.149200439453125, 56.423776065550754]}}, {"type": "Feature", "properties": {"point_type": "turbine", "turbinemod": "V236-15.0", "oem": "Vestas", "foundation": "Monopile", "water_dept": -51, "turbine_mw": 15, "distance_to_shore": 30034, "tippecanoe_feature_density": 0}, "geometry": {"type": "Point", "coordinates": [-2.132720947265625, 56.423776065550754]}}, {"type": "Feature", "properties": {"point_type": "turbine", "turbinemod": "V236-15.0", "oem": "Vestas", "foundation": "Monopile", "water_dept": -56, "turbine_mw": 15, "distance_to_shore": 30579, "tippecanoe_feature_density": 0}, "geometry": {"type": "Point", "coordinates": [-2.116241455078125, 56.42681391588371]}}, {"type": "Feature", "properties": {"point_type": "turbine", "turbinemod": "V236-15.0", "oem": "Vestas", "foundation": "Monopile", "water_dept": -49, "turbine_mw": 15, "distance_to_shore": 29695, "tippecanoe_feature_density": 0}, "geometry": {"type": "Point", "coordinates": [-2.088775634765625, 56.46628389262676]}}, {"type": "Feature", "properties": {"point_type": "turbine", "turbinemod": "V236-15.0", "oem": "Vestas", "foundation": "Monopile", "water_dept": -54, "turbine_mw": 15, "distance_to_shore": 30678, "tippecanoe_feature_density": 0}, "geometry": {"type": "Point", "coordinates": [-2.072296142578125, 56.46476657460437]}}, {"type": "Feature", "properties": {"point_type": "turbine", "turbinemod": "V236-15.0", "oem": "Vestas", "foundation": "Jacket", "water_dept": -52, "turbine_mw": 15, "distance_to_shore": 31661, "tippecanoe_feature_density": 0}, "geometry": {"type": "Point", "coordinates": [-2.055816650390625, 56.46249048388978]}}, {"type": "Feature", "properties": {"point_type": "turbine", "turbinemod": "V236-15.0", "oem": "Vestas", "foundation": "Jacket", "water_dept": -57, "turbine_mw": 15, "distance_to_shore": 30986, "tippecanoe_feature_density": 0}, "geometry": {"type": "Point", "coordinates": [-2.102508544921875, 56.432129570086204]}}, {"type": "Feature", "properties": {"point_type": "turbine", "turbinemod": "V236-15.0", "oem": "Vestas", "foundation": "Monopile", "water_dept": -49, "turbine_mw": 15, "distance_to_shore": 32441, "tippecanoe_feature_density": 0}, "geometry": {"type": "Point", "coordinates": [-2.050323486328125, 56.45414365074183]}}, {"type": "Feature", "properties": {"point_type": "turbine", "turbinemod": "V236-15.0", "oem": "Vestas", "foundation": "Monopile", "water_dept": -50, "turbine_mw": 15, "distance_to_shore": 32383, "tippecanoe_feature_density": 0}, "geometry": {"type": "Point", "coordinates": [-2.058563232421875, 56.4457949832599]}}]}