{"type": "FeatureCollection", "features": [{"type": "Feature", "properties": {"wf_develop": "Harbour Energy", "turbine_mo": "TBA", "wf_name": "Harbour Energy 2", "status": "Early Planning", "country": "United Kingdom", "capacity_m": 15, "wf_owners": "Harbour Energy, Chryasaor Petroleum Company UK Limited", "tippecanoe_feature_density": 0}, "geometry": {"type": "Polygon", "coordinates": [[[2.274856505504107, 56.66981125153265], [2.2796630859375, 56.66981125153265], [2.2810362178504264, 56.66905669063392], [2.281036376953125, 56.66905667120702], [2.28790283203125, 56.666792839561566], [2.294769287109375, 56.66151003680079], [2.297515869140625, 56.65698133074329], [2.2955703403096357, 56.65270354688287], [2.296142578125, 56.650187251447335], [2.2911069516416283, 56.647418642380494], [2.289276123046875, 56.645657185056194], [2.2851567449575803, 56.644147193191515], [2.28240966796875, 56.64263683846531], [2.281036376953125, 56.64263683846531], [2.272796630859375, 56.64188171402478], [2.261810302734375, 56.64263683846531], [2.253570556640625, 56.64490212108382], [2.2467041015625, 56.6494322781721], [2.245330810546875, 56.65471677367725], [2.2467041015625, 56.66151003680079], [2.253570556640625, 56.666792839561566], [2.2581486058283136, 56.668302196647225], [2.26043701171875, 56.66981125153265], [2.2645569260180953, 56.66981125153265], [2.2686767578125, 56.67056581674714], [2.274856505504107, 56.66981125153265]]]}}]}