{"type": "FeatureCollection", "features": [{"type": "Feature", "properties": {"wf_develop": "\u00d8rsted", "turbine_mo": "V164-8.25", "fou_type": "Monopile", "wtg_hubhei": 105, "wtg_oem": "Vestas", "cod": "2018-09-01T00:00:00", "wf_name": "Walney Extension", "status": "Fully Commissioned", "no_turbine": 40, "country": "United Kingdom", "capacity_m": 330, "wf_owners": "Orsted/PKA/PFA", "tippecanoe_feature_density": 0}, "geometry": {"type": "Polygon", "coordinates": [[[-3.66943359375, 54.09322811632353], [-3.65570068359375, 54.07389422020432], [-3.6429977416992188, 54.05938788662357], [-3.6244583129882812, 54.05737271726997], [-3.6017990112304688, 54.05213281941329], [-3.5839462280273438, 54.04669068748575], [-3.5633468627929688, 54.03822373215439], [-3.5475540161132812, 54.029553395634764], [-3.5327911376953125, 54.01886421388184], [-3.5259246826171875, 54.01220729777353], [-3.56781005859375, 54.00373331851739], [-3.7933731079101562, 54.07429710157993], [-3.9183425903320312, 54.11295551240448], [-3.9186859130859375, 54.13609304203996], [-3.8946533203125, 54.132271210639914], [-3.8936233520507812, 54.13247236845197], [-3.85762510850201, 54.14634989865954], [-3.8579177856445312, 54.14634989865954], [-3.8263320922851562, 54.15841353663251], [-3.7871932983398438, 54.14634989865954], [-3.787199000902748, 54.14634989865954], [-3.7480545043945312, 54.13428274480515], [-3.65570068359375, 54.10550851655398], [-3.66943359375, 54.09322811632353]]]}}]}