{"type": "FeatureCollection", "features": [{"type": "Feature", "properties": {"wf_develop": "BP Alternative Energy Investments", "turbine_mo": "TBA", "fou_type": "Fixed", "wf_name": "Morven", "status": "Early Planning", "country": "United Kingdom", "capacity_m": 2907, "wf_owners": "BP/EnBW", "tippecanoe_feature_density": 0}, "geometry": {"type": "Polygon", "coordinates": [[[-1.07940673828125, 56.906003041959224], [-0.472412109375, 56.488278191536295], [-0.47325695944206436, 56.48734527665178], [-0.472412109375, 56.48676175249085], [-0.5072590549807688, 56.480839376329996], [-0.649566650390625, 56.45566139320019], [-0.703125, 56.439722072818654], [-0.72235107421875, 56.43668525369128], [-1.219482421875, 56.776808316568435], [-1.20574951171875, 56.80839701870073], [-1.094512939453125, 56.90750268460286], [-1.0932788537431422, 56.90738017282538], [-1.0931396484375, 56.90750268460286], [-1.07940673828125, 56.906003041959224]]]}}]}