{
 "features": [
  {
   "id": "6e3a1647a42a87697818b725d5e32056",
   "type": "Feature",
   "properties": {
    "fid": "6e3a1647a42a87697818b725d5e32056",
    "name": "Bay State Wind"
   },
   "geometry": {
    "coordinates": [
     [
      -70.61580587735307,
      41.1356656444267
     ],
     [
      -70.61556318744124,
      41.12623798164758
     ],
     [
      -70.64321549678223,
      41.125526147052625
     ],
     [
      -70.64294368043544,
      41.1149670231228
     ],
     [
      -70.67147422374029,
      41.114232580748144
     ],
     [
      -70.6711876847011,
      41.103101531195215
     ],
     [
      -70.77220161515416,
      41.10050119827612
     ],
     [
      -70.77140608704137,
      41.06959768554957
     ],
     [
      -70.79975534696976,
      41.0688679098296
     ],
     [
      -70.79947833114079,
      41.058106804020355
     ],
     [
      -70.81264789318772,
      41.05776778894029
     ],
     [
      -70.8123683528995,
      41.046908616630176
     ],
     [
      -70.82820920169348,
      41.04650083643193
     ],
     [
      -70.82667935128393,
      40.98707144501098
     ],
     [
      -70.86876710966264,
      40.985988008468
     ],
     [
      -70.86836866369956,
      40.9705097623904
     ],
     [
      -70.88991831140913,
      40.96995502446383
     ],
     [
      -70.88953791433983,
      40.955177915416904
     ],
     [
      -70.91089865967729,
      40.95462804027564
     ],
     [
      -70.91007183971571,
      40.92250894756911
     ],
     [
      -70.9314892352092,
      40.9219576141214
     ],
     [
      -70.93101057159996,
      40.90336319023841
     ],
     [
      -70.95097345873093,
      40.902849299210374
     ],
     [
      -70.95057448291793,
      40.88735047029859
     ],
     [
      -70.99331135763683,
      40.886250323995085
     ],
     [
      -70.99291602435196,
      40.87089299468875
     ],
     [
      -71.05014800425792,
      40.86941971074953
     ],
     [
      -71.04572552001812,
      40.69762151054648
     ],
     [
      -71.00335717928294,
      40.69871216993027
     ],
     [
      -71.00694245067525,
      40.837987549793624
     ],
     [
      -70.85058260979955,
      40.84201261484782
     ],
     [
      -70.85084945749404,
      40.852378723838925
     ],
     [
      -70.83686519574663,
      40.85273871117937
     ],
     [
      -70.83713053321421,
      40.86304615308431
     ],
     [
      -70.82233257535906,
      40.863427086850315
     ],
     [
      -70.82259814352287,
      40.8737434905045
     ],
     [
      -70.80900470581572,
      40.87409341712744
     ],
     [
      -70.80931868327353,
      40.88629035424063
     ],
     [
      -70.79410586764351,
      40.886681967408215
     ],
     [
      -70.79437023976038,
      40.89695190878054
     ],
     [
      -70.78083341953436,
      40.897300377938166
     ],
     [
      -70.78108352602666,
      40.90701614918941
     ],
     [
      -70.76624538974964,
      40.90739811724121
     ],
     [
      -70.76654223713929,
      40.91892961051767
     ],
     [
      -70.75176872197667,
      40.91930991507206
     ],
     [
      -70.752017367776,
      40.928968943459076
     ],
     [
      -70.7386314501812,
      40.929313528032885
     ],
     [
      -70.73890160727954,
      40.939808195904945
     ],
     [
      -70.72388937987569,
      40.94019464546623
     ],
     [
      -70.72415350044658,
      40.95045481514838
     ],
     [
      -70.70956396749672,
      40.95083038357379
     ],
     [
      -70.70986681853064,
      40.9625950976431
     ],
     [
      -70.69617848528391,
      40.962947467097386
     ],
     [
      -70.69643251541163,
      40.97281565799979
     ],
     [
      -70.68363673489735,
      40.973145051076045
     ],
     [
      -70.68391922429178,
      40.98411878595198
     ],
     [
      -70.66823899084044,
      40.98452243153868
     ],
     [
      -70.66853672801267,
      40.99608848978804
     ],
     [
      -70.65375597521793,
      40.99646898065588
     ],
     [
      -70.65401012748275,
      41.006341916161325
     ],
     [
      -70.63909865496767,
      41.006725772058026
     ],
     [
      -70.63941340841012,
      41.01895285348737
     ],
     [
      -70.62617869317177,
      41.01929354576174
     ],
     [
      -70.62643167265915,
      41.029120922924186
     ],
     [
      -70.61075767332612,
      41.02952440803022
     ],
     [
      -70.61103039048191,
      41.04011852527056
     ],
     [
      -70.59866194416118,
      41.04043691777327
     ],
     [
      -70.59893282274864,
      41.050959612999605
     ],
     [
      -70.58421791277603,
      41.051338408920444
     ],
     [
      -70.5844513912208,
      41.06040823809821
     ],
     [
      -70.57118268104037,
      41.06074980548126
     ],
     [
      -70.57148907514987,
      41.0726521557692
     ],
     [
      -70.55577404411927,
      41.07305669712632
     ],
     [
      -70.55603111278397,
      41.08304292466931
     ],
     [
      -70.54243933776425,
      41.083392808490814
     ],
     [
      -70.54274513898028,
      41.095272126920314
     ],
     [
      -70.52828606903556,
      41.0956443369253
     ],
     [
      -70.5285355844301,
      41.10533714607498
     ],
     [
      -70.51606135676121,
      41.10565826163501
     ],
     [
      -70.51634831209081,
      41.11680548262949
     ],
     [
      -70.49998546083927,
      41.11722670038202
     ],
     [
      -70.50024058953889,
      41.1271375669987
     ],
     [
      -70.48768650958962,
      41.12746073814167
     ],
     [
      -70.48782073690026,
      41.13267500440841
     ],
     [
      -70.47789493053102,
      41.132930517691925
     ],
     [
      -70.47805662093025,
      41.13921162986109
     ],
     [
      -70.61580587735307,
      41.1356656444267
     ]
    ],
    "type": "LineString"
   },
   "name": "Bay State Wind"
  }
 ],
 "name": "line",
 "type": "FeatureCollection"
}