{
 "features": [
  {
   "id": "20d84e237dc2c318707b76abb248bcd0",
   "type": "Feature",
   "properties": {
    "fid": "20d84e237dc2c318707b76abb248bcd0",
    "name": "Beacon Wind"
   },
   "geometry": {
    "coordinates": [
     [
      -70.36943541800005,
      41.026381378401645
     ],
     [
      -70.3765723691639,
      41.02626801617772
     ],
     [
      -70.37649030862595,
      41.021101726812795
     ],
     [
      -70.38371659337386,
      41.02098694562809
     ],
     [
      -70.38354526311153,
      41.01020049779084
     ],
     [
      -70.39089105889445,
      41.009727229142726
     ],
     [
      -70.39823686916598,
      41.00971925830273
     ],
     [
      -70.39806081804049,
      40.998635598848814
     ],
     [
      -70.41151863246446,
      40.998421837014476
     ],
     [
      -70.41135368714782,
      40.98803736652032
     ],
     [
      -70.42593226649879,
      40.987805802629936
     ],
     [
      -70.42576299114316,
      40.97714872565588
     ],
     [
      -70.44058109473812,
      40.9769133571996
     ],
     [
      -70.44041367000831,
      40.96637279016746
     ],
     [
      -70.45465093815648,
      40.96614664761122
     ],
     [
      -70.45447792572011,
      40.955254295059504
     ],
     [
      -70.46764594772732,
      40.95504513624291
     ],
     [
      -70.46747422816699,
      40.94423417935192
     ],
     [
      -70.48263705081501,
      40.94399333543174
     ],
     [
      -70.48247156482186,
      40.933574825539004
     ],
     [
      -70.49627410464984,
      40.93335558813989
     ],
     [
      -70.49610233844544,
      40.922541694676255
     ],
     [
      -70.50986564734632,
      40.9223230804151
     ],
     [
      -70.50969479034886,
      40.91156642793765
     ],
     [
      -70.52438793251928,
      40.91133304434924
     ],
     [
      -70.52420664550246,
      40.89991974862501
     ],
     [
      -70.53819413435156,
      40.899697573524364
     ],
     [
      -70.53803146703302,
      40.889456519070585
     ],
     [
      -70.55272377245069,
      40.88922314877302
     ],
     [
      -70.55255151694762,
      40.87837845050821
     ],
     [
      -70.56627754479625,
      40.878160428413494
     ],
     [
      -70.56610974668791,
      40.867596354571546
     ],
     [
      -70.58070751242808,
      40.86736448592754
     ],
     [
      -70.58052041684769,
      40.85558550017826
     ],
     [
      -70.59348879525028,
      40.85537951246968
     ],
     [
      -70.59333529261623,
      40.84571543951203
     ],
     [
      -70.60785971180987,
      40.84548473589317
     ],
     [
      -70.60769467163752,
      40.83509429356351
     ],
     [
      -70.62225848729177,
      40.83486296417739
     ],
     [
      -70.62207070028909,
      40.823040448520075
     ],
     [
      -70.63614387783772,
      40.82281691235343
     ],
     [
      -70.63597549058441,
      40.81221574768141
     ],
     [
      -70.64899941444294,
      40.81200887769744
     ],
     [
      -70.6488294937948,
      40.80131117501092
     ],
     [
      -70.6642655354313,
      40.80106599132276
     ],
     [
      -70.66409778293031,
      40.79050478878421
     ],
     [
      -70.6782100944681,
      40.790280631019364
     ],
     [
      -70.67803718441205,
      40.7793947240297
     ],
     [
      -70.69170095348619,
      40.77917769084369
     ],
     [
      -70.69152997808109,
      40.768413583771064
     ],
     [
      -70.70645371215355,
      40.768176537496686
     ],
     [
      -70.7062776053445,
      40.75708937236984
     ],
     [
      -70.71973554007218,
      40.75687560862462
     ],
     [
      -70.71957835440129,
      40.74697966253425
     ],
     [
      -70.70464509345804,
      40.747216860131964
     ],
     [
      -70.70325361369719,
      40.6596133996979
     ],
     [
      -70.64649643827727,
      40.66051492185798
     ],
     [
      -70.6463225190805,
      40.64956548234701
     ],
     [
      -70.6317724989421,
      40.64979659260729
     ],
     [
      -70.63194753635453,
      40.660816431677276
     ],
     [
      -70.61787795438174,
      40.661039910732356
     ],
     [
      -70.61804747005574,
      40.67171211744157
     ],
     [
      -70.60439370058043,
      40.67192899179551
     ],
     [
      -70.60456806577295,
      40.68290650988299
     ],
     [
      -70.58994512363707,
      40.683138778424954
     ],
     [
      -70.5901120011184,
      40.69364489230786
     ],
     [
      -70.57692097894055,
      40.69385441645559
     ],
     [
      -70.57709452937841,
      40.70478063999431
     ],
     [
      -70.56232491001579,
      40.70501523833457
     ],
     [
      -70.56249296161424,
      40.71559527116707
     ],
     [
      -70.54802487441924,
      40.715825080017204
     ],
     [
      -70.54820104743462,
      40.72691641329833
     ],
     [
      -70.53480533667205,
      40.727129188687755
     ],
     [
      -70.53497257499058,
      40.737658019815576
     ],
     [
      -70.52081959271656,
      40.73788282358809
     ],
     [
      -70.52098467662556,
      40.74827601944825
     ],
     [
      -70.50651385282474,
      40.748505871766206
     ],
     [
      -70.50669659723215,
      40.76001092050245
     ],
     [
      -70.4926761313144,
      40.76023361940574
     ],
     [
      -70.49284921196747,
      40.771130266679236
     ],
     [
      -70.47798251770809,
      40.77136640694208
     ],
     [
      -70.47814968606053,
      40.781890833212834
     ],
     [
      -70.46457027975698,
      40.782106526393704
     ],
     [
      -70.46474420052974,
      40.7930560651242
     ],
     [
      -70.45098778707485,
      40.793274569859165
     ],
     [
      -70.45115327333747,
      40.803693096716074
     ],
     [
      -70.43652190669756,
      40.80392549907156
     ],
     [
      -70.43669465555226,
      40.81480125729833
     ],
     [
      -70.42304053888928,
      40.815018137166945
     ],
     [
      -70.42320925012783,
      40.82563969899338
     ],
     [
      -70.40779349006017,
      40.82588456053225
     ],
     [
      -70.40795315692348,
      40.83593671517887
     ],
     [
      -70.39402128734837,
      40.8361580068316
     ],
     [
      -70.39420038226427,
      40.84743329434962
     ],
     [
      -70.38049562746245,
      40.84765097854657
     ],
     [
      -70.38065520897453,
      40.85769775973069
     ],
     [
      -70.3672126087649,
      40.85791127990481
     ],
     [
      -70.36739630182157,
      40.869476052799456
     ],
     [
      -70.35254338843205,
      40.86971197416911
     ],
     [
      -70.35270606398649,
      40.87995354713122
     ],
     [
      -70.33848866630085,
      40.88017937406813
     ],
     [
      -70.33867478958722,
      40.89189714705483
     ],
     [
      -70.32410183317154,
      40.89212862163138
     ],
     [
      -70.32426935523954,
      40.902675316788816
     ],
     [
      -70.31071786715817,
      40.90289056652098
     ],
     [
      -70.31089112059647,
      40.91379809184224
     ],
     [
      -70.29646165406643,
      40.914027287247734
     ],
     [
      -70.29663114331468,
      40.92469783027021
     ],
     [
      -70.36780233606838,
      40.92356735809727
     ],
     [
      -70.36943541800005,
      41.026381378401645
     ]
    ],
    "type": "LineString"
   },
   "name": "Beacon Wind"
  }
 ],
 "name": "line",
 "type": "FeatureCollection"
}