{
 "features": [
  {
   "id": "93ec58fe831e3d4370c8324ab9871d90",
   "type": "Feature",
   "properties": {
    "fid": "93ec58fe831e3d4370c8324ab9871d90",
    "name": "New England Wind 2"
   },
   "geometry": {
    "coordinates": [
     [
      -70.66843876243824,
      40.983709468993446
     ],
     [
      -70.68195644879536,
      40.9832908466365
     ],
     [
      -70.681678213223,
      40.9743063737861
     ],
     [
      -70.69703950840443,
      40.97383065764469
     ],
     [
      -70.69669983592254,
      40.96286233261844
     ],
     [
      -70.71022132297436,
      40.962443592559715
     ],
     [
      -70.70987442794802,
      40.951242045181715
     ],
     [
      -70.72464833864649,
      40.95078451945175
     ],
     [
      -70.72434733221331,
      40.941064755354915
     ],
     [
      -70.73881359976842,
      40.94061675686907
     ],
     [
      -70.73848972271334,
      40.93015848015207
     ],
     [
      -70.75372257046698,
      40.92968674183376
     ],
     [
      -70.75341575938792,
      40.91977954058485
     ],
     [
      -70.76681464434174,
      40.91936459732816
     ],
     [
      -70.76644242446741,
      40.90734528819815
     ],
     [
      -70.78008758946456,
      40.906922718020006
     ],
     [
      -70.77976467760196,
      40.89649560822255
     ],
     [
      -70.79407408348955,
      40.89605246750594
     ],
     [
      -70.79374010047772,
      40.885267860502346
     ],
     [
      -70.80865902399441,
      40.884805843944136
     ],
     [
      -70.8083280983206,
      40.87411996109088
     ],
     [
      -70.82183618280459,
      40.87370163608946
     ],
     [
      -70.8215166397255,
      40.86338330729247
     ],
     [
      -70.83679158428295,
      40.86291026529964
     ],
     [
      -70.8364571616245,
      40.852111461717755
     ],
     [
      -70.85116248076181,
      40.85165606016498
     ],
     [
      -70.85081860537676,
      40.84055201967581
     ],
     [
      -70.7508597156422,
      40.84364759571693
     ],
     [
      -70.74781560743342,
      40.74535064783404
     ],
     [
      -70.71947590454155,
      40.74622828568613
     ],
     [
      -70.71978210164804,
      40.75611566121743
     ],
     [
      -70.70594796650315,
      40.75654408351602
     ],
     [
      -70.70629424182742,
      40.767725620166225
     ],
     [
      -70.69198619592218,
      40.768168718766226
     ],
     [
      -70.69229339810364,
      40.778088549058246
     ],
     [
      -70.67809748783647,
      40.77852817498668
     ],
     [
      -70.67844375871361,
      40.78970956803514
     ],
     [
      -70.66385517358869,
      40.79016135451163
     ],
     [
      -70.66420586671663,
      40.801485545951635
     ],
     [
      -70.64948198743494,
      40.80194152228408
     ],
     [
      -70.64979923292452,
      40.81218565988283
     ],
     [
      -70.63595570817503,
      40.81261437296331
     ],
     [
      -70.6362676194172,
      40.82268626299202
     ],
     [
      -70.62181544306242,
      40.82313382509465
     ],
     [
      -70.62248079067126,
      40.844618488169786
     ],
     [
      -70.66395763389015,
      40.843334012897294
     ],
     [
      -70.66601438781774,
      40.909748417301444
     ],
     [
      -70.68769631032802,
      40.90907696086544
     ],
     [
      -70.6883331606536,
      40.92964142144604
     ],
     [
      -70.68153021725082,
      40.92985209834195
     ],
     [
      -70.68253915571431,
      40.96243161416714
     ],
     [
      -70.67441529500688,
      40.96268319787954
     ],
     [
      -70.674774305305,
      40.97427595810437
     ],
     [
      -70.66815297100908,
      40.974481010840165
     ],
     [
      -70.66843876243824,
      40.983709468993446
     ]
    ],
    "type": "LineString"
   },
   "name": "New England Wind 2"
  }
 ],
 "name": "line",
 "type": "FeatureCollection"
}