{
 "features": [
  {
   "id": "c02af5d44c90484b74e2b6b6cd78b566",
   "type": "Feature",
   "properties": {
    "fid": "c02af5d44c90484b74e2b6b6cd78b566",
    "name": "New England Wind 1"
   },
   "geometry": {
    "coordinates": [
     [
      -70.62709391036115,
      41.017911159533874
     ],
     [
      -70.64065080342891,
      41.01775669904421
     ],
     [
      -70.64053007104998,
      41.00716009952161
     ],
     [
      -70.65388787200035,
      41.00700790738841
     ],
     [
      -70.65374976077567,
      40.99488597828776
     ],
     [
      -70.66816831040036,
      40.99472170051231
     ],
     [
      -70.6679393843496,
      40.97462901533779
     ],
     [
      -70.67558097818814,
      40.97454195082233
     ],
     [
      -70.6754506236624,
      40.96310082196061
     ],
     [
      -70.68214823566913,
      40.96302451270413
     ],
     [
      -70.68176986478161,
      40.929815154936925
     ],
     [
      -70.68816354989981,
      40.92974230847209
     ],
     [
      -70.68793180052374,
      40.909401821938815
     ],
     [
      -70.66571842509347,
      40.909654910078466
     ],
     [
      -70.66496954620222,
      40.84392631455273
     ],
     [
      -70.62268548811805,
      40.844408078057384
     ],
     [
      -70.62257071004859,
      40.83433408426389
     ],
     [
      -70.60765200077196,
      40.83450406060938
     ],
     [
      -70.60777004354487,
      40.844864595223946
     ],
     [
      -70.5950986633646,
      40.84500896662066
     ],
     [
      -70.59522248584092,
      40.855876781909494
     ],
     [
      -70.58052884041169,
      40.856044193989575
     ],
     [
      -70.58064671215604,
      40.86638971754344
     ],
     [
      -70.56524881068655,
      40.86656515356619
     ],
     [
      -70.56538706205431,
      40.87869938293057
     ],
     [
      -70.55171336219462,
      40.87885517425866
     ],
     [
      -70.55183136872868,
      40.8892125282149
     ],
     [
      -70.53779533492862,
      40.889372447795495
     ],
     [
      -70.53792203669033,
      40.9004929760213
     ],
     [
      -70.52492344667871,
      40.90064107548391
     ],
     [
      -70.52504136986997,
      40.910991114497435
     ],
     [
      -70.51067806157904,
      40.911154762880635
     ],
     [
      -70.510801714558,
      40.92200770149862
     ],
     [
      -70.49644134509703,
      40.922171316398256
     ],
     [
      -70.4965679830408,
      40.93328624336706
     ],
     [
      -70.48321586582912,
      40.93343837074257
     ],
     [
      -70.4833384953418,
      40.94420148041563
     ],
     [
      -70.49773733968593,
      40.94403742715233
     ],
     [
      -70.49798120652022,
      40.965441454827165
     ],
     [
      -70.5116962556286,
      40.965285192386325
     ],
     [
      -70.51182155406927,
      40.97628255207037
     ],
     [
      -70.53977737475378,
      40.97596403736865
     ],
     [
      -70.5400153713454,
      40.996852837799864
     ],
     [
      -70.58493263983868,
      40.996341072806885
     ],
     [
      -70.5850577820131,
      41.007324717106826
     ],
     [
      -70.62696785328154,
      41.00684721462174
     ],
     [
      -70.62709391036115,
      41.017911159533874
     ]
    ],
    "type": "LineString"
   },
   "name": "New England Wind 1"
  }
 ],
 "name": "line",
 "type": "FeatureCollection"
}