{
 "features": [
  {
   "id": "0746cdea9989742fdf22794b0c598d21",
   "type": "Feature",
   "properties": {
    "fid": "0746cdea9989742fdf22794b0c598d21",
    "name": "Revolution Wind + South Fork Wind"
   },
   "geometry": {
    "coordinates": [
     [
      -71.13465319885728,
      41.27907212512674
     ],
     [
      -71.13448900574325,
      41.26891055762308
     ],
     [
      -71.14903842510026,
      41.26867546451657
     ],
     [
      -71.14886733135461,
      41.25808683139237
     ],
     [
      -71.16323119133828,
      41.25785473659998
     ],
     [
      -71.16288236253541,
      41.236266453505806
     ],
     [
      -71.17699475937452,
      41.23603842191693
     ],
     [
      -71.17681670121478,
      41.22501877580869
     ],
     [
      -71.18973852601911,
      41.2248099817764
     ],
     [
      -71.18956738582678,
      41.214218474164106
     ],
     [
      -71.20413013863853,
      41.21398316561235
     ],
     [
      -71.20394276256279,
      41.202386853223864
     ],
     [
      -71.21885600437456,
      41.202145881384396
     ],
     [
      -71.21851978837172,
      41.1813381780349
     ],
     [
      -71.23179547024856,
      41.181123666292756
     ],
     [
      -71.23163404156256,
      41.17113318344164
     ],
     [
      -71.24564774811314,
      41.17090674651479
     ],
     [
      -71.24546670498343,
      41.159702366876026
     ],
     [
      -71.26137283227905,
      41.15944535174802
     ],
     [
      -71.26118810260687,
      41.14801281972647
     ],
     [
      -71.14461430851304,
      41.149896447843744
     ],
     [
      -71.14409439337953,
      41.11771999052469
     ],
     [
      -71.17410408311659,
      41.117235086556185
     ],
     [
      -71.17426446346992,
      41.12716069029634
     ],
     [
      -71.25856751993489,
      41.12579850071708
     ],
     [
      -71.25804279241237,
      41.093324214734125
     ],
     [
      -71.22962351153343,
      41.09378342048403
     ],
     [
      -71.22945272517828,
      41.083213811112465
     ],
     [
      -71.21470717873389,
      41.083452073288825
     ],
     [
      -71.21453086643216,
      41.07254047467309
     ],
     [
      -71.17102255506488,
      41.073243492699255
     ],
     [
      -71.17085730916955,
      41.06301677076728
     ],
     [
      -70.98551033231044,
      41.066011652934215
     ],
     [
      -70.98568210046649,
      41.07664202390324
     ],
     [
      -70.94290204339698,
      41.07733327461685
     ],
     [
      -70.9430831524463,
      41.08854173388248
     ],
     [
      -70.9296018828587,
      41.08875956756156
     ],
     [
      -70.92977996434963,
      41.099780657587324
     ],
     [
      -70.91523670905805,
      41.10001565109334
     ],
     [
      -70.91540533882446,
      41.110451793708826
     ],
     [
      -70.83020589691277,
      41.11182846730523
     ],
     [
      -70.83055644605082,
      41.13352321833525
     ],
     [
      -70.9448147405545,
      41.131677004631456
     ],
     [
      -70.94550978451127,
      41.17469181756609
     ],
     [
      -71.04590886869764,
      41.1730695444009
     ],
     [
      -71.04575767882062,
      41.1637127199672
     ],
     [
      -71.10248337051368,
      41.16279613224973
     ],
     [
      -71.10315519378463,
      41.20437386563443
     ],
     [
      -71.06140965253421,
      41.205048400386275
     ],
     [
      -71.06227906909245,
      41.258854767955796
     ],
     [
      -71.12028328498162,
      41.25791752152903
     ],
     [
      -71.12062876790796,
      41.27929873534107
     ],
     [
      -71.13465319885728,
      41.27907212512674
     ]
    ],
    "type": "LineString"
   },
   "name": "LineString"
  }
 ],
 "name": "line",
 "type": "FeatureCollection"
}