{
 "type": "FeatureCollection",
 "features": [
  {
   "type": "Feature",
   "properties": {
    "fid": "0Afs1omUFy5noX1zVqYhVWyvh4anNCRh",
    "name": "SouthCoast Wind"
   },
   "geometry": {
    "type": "LineString",
    "coordinates": [
     [
      -70.29458569621606,
      40.92388474179355
     ],
     [
      -70.29451863317767,
      40.91149853835526
     ],
     [
      -70.31033056637983,
      40.91141292727286
     ],
     [
      -70.31027494881225,
      40.901140644306274
     ],
     [
      -70.32438145728888,
      40.9010642669624
     ],
     [
      -70.32432020366265,
      40.88975103251837
     ],
     [
      -70.33807301904561,
      40.88967657018692
     ],
     [
      -70.33802011689323,
      40.8799058106536
     ],
     [
      -70.35040438783867,
      40.879838758078385
     ],
     [
      -70.3503473111043,
      40.869296974398274
     ],
     [
      -70.36616348889052,
      40.86921134033428
     ],
     [
      -70.36610641309132,
      40.85866972937312
     ],
     [
      -70.3795195706486,
      40.858597106062476
     ],
     [
      -70.37946245546027,
      40.84804822012989
     ],
     [
      -70.39322091613114,
      40.84797372723297
     ],
     [
      -70.39315681707947,
      40.836134957123434
     ],
     [
      -70.40726198476428,
      40.836058587039055
     ],
     [
      -70.40720485001957,
      40.82550608914275
     ],
     [
      -70.42096473414706,
      40.82543158853876
     ],
     [
      -70.42090341002239,
      40.814105333386024
     ],
     [
      -70.43603045136959,
      40.81402343053666
     ],
     [
      -70.43597333765868,
      40.8034748174766
     ],
     [
      -70.45041962259151,
      40.80339660046962
     ],
     [
      -70.45035547013632,
      40.79154796699779
     ],
     [
      -70.46480316936467,
      40.79146974233334
     ],
     [
      -70.46474319769773,
      40.7803932792749
     ],
     [
      -70.47815782500176,
      40.78032064800656
     ],
     [
      -70.47810067202795,
      40.76976478328845
     ],
     [
      -70.49357304966755,
      40.769681010673175
     ],
     [
      -70.49351167366548,
      40.758345174030275
     ],
     [
      -70.50624415198874,
      40.75827623614413
     ],
     [
      -70.50618836466852,
      40.747972600723585
     ],
     [
      -70.52165795290365,
      40.74788884321107
     ],
     [
      -70.52159516160776,
      40.73629160896814
     ],
     [
      -70.53467295876152,
      40.736220801410624
     ],
     [
      -70.53461152152663,
      40.724873655375966
     ],
     [
      -70.54905506797073,
      40.72479545319607
     ],
     [
      -70.54899642118637,
      40.713963689236934
     ],
     [
      -70.56128705776472,
      40.71389714362943
     ],
     [
      -70.56123571428452,
      40.70441426295228
     ],
     [
      -70.57615752779245,
      40.704333471274914
     ],
     [
      -70.57609934356023,
      40.69358713835441
     ],
     [
      -70.59064468181411,
      40.69350838503969
     ],
     [
      -70.59057808844824,
      40.68120892773452
     ],
     [
      -70.6043074721193,
      40.681134592270176
     ],
     [
      -70.60425343808507,
      40.671154779889896
     ],
     [
      -70.61818179760402,
      40.67107936710392
     ],
     [
      -70.61812269843774,
      40.660164050497066
     ],
     [
      -70.63124096802153,
      40.66009302380831
     ],
     [
      -70.63117352101328,
      40.64763590308032
     ],
     [
      -70.6457733865654,
      40.647556854536624
     ],
     [
      -70.64561350482387,
      40.618027506858006
     ],
     [
      -70.53214974022347,
      40.61864183753952
     ],
     [
      -70.53197740674476,
      40.5868127170832
     ],
     [
      -70.50286284546249,
      40.58697035303277
     ],
     [
      -70.50292427459661,
      40.59831600289902
     ],
     [
      -70.48838052541493,
      40.598394747609966
     ],
     [
      -70.48843797277526,
      40.609004984028196
     ],
     [
      -70.4745078840848,
      40.60908040617648
     ],
     [
      -70.47456953783717,
      40.62046754189298
     ],
     [
      -70.4616568990216,
      40.620537455228146
     ],
     [
      -70.46171601557353,
      40.63145598287697
     ],
     [
      -70.4473771257853,
      40.631533618410806
     ],
     [
      -70.44743370638768,
      40.64198376903003
     ],
     [
      -70.43329965583527,
      40.64206029549589
     ],
     [
      -70.43336124307605,
      40.6534351468606
     ],
     [
      -70.4190206970235,
      40.653512791362004
     ],
     [
      -70.4190814597573,
      40.66473536046176
     ],
     [
      -70.40535457267752,
      40.66480968240872
     ],
     [
      -70.40541028122884,
      40.67509876961052
     ],
     [
      -70.39107412265633,
      40.67517639035665
     ],
     [
      -70.3911320028742,
      40.68586657336752
     ],
     [
      -70.37761014264615,
      40.685939785230694
     ],
     [
      -70.37767002630096,
      40.696999992895364
     ],
     [
      -70.36332952020732,
      40.69707763718042
     ],
     [
      -70.36338856253158,
      40.70798245535665
     ],
     [
      -70.34966171458358,
      40.70805677709174
     ],
     [
      -70.34972158420562,
      40.71911439297798
     ],
     [
      -70.33599390896015,
      40.71918871919233
     ],
     [
      -70.33605209457848,
      40.72993530812215
     ],
     [
      -70.32130698463764,
      40.73001514306744
     ],
     [
      -70.32136680448072,
      40.741063565029535
     ],
     [
      -70.30743432104542,
      40.74113900014377
     ],
     [
      -70.30749333598396,
      40.75203876031386
     ],
     [
      -70.29315455406874,
      40.752116395263634
     ],
     [
      -70.29321519641474,
      40.76331672934702
     ],
     [
      -70.27866992370302,
      40.76339548230686
     ],
     [
      -70.27873057960745,
      40.77459832056576
     ],
     [
      -70.26520778199364,
      40.774671537504254
     ],
     [
      -70.26526591276352,
      40.78540799620509
     ],
     [
      -70.25092799680165,
      40.785485626466304
     ],
     [
      -70.25098613598124,
      40.79622363839487
     ],
     [
      -70.23766734908206,
      40.796295750751284
     ],
     [
      -70.23772546697315,
      40.80702983080385
     ],
     [
      -70.2235915109372,
      40.80710635675797
     ],
     [
      -70.22365213284768,
      40.81830291650631
     ],
     [
      -70.2095182364395,
      40.81837944213759
     ],
     [
      -70.20957466322132,
      40.82880118287641
     ],
     [
      -70.19646156773702,
      40.82887218155087
     ],
     [
      -70.1965165252503,
      40.83902255583404
     ],
     [
      -70.25358081143979,
      40.838713590747716
     ],
     [
      -70.25404314497625,
      40.92410425269398
     ],
     [
      -70.29458569621606,
      40.92388474179355
     ]
    ]
   }
  }
 ]
}