{
 "features": [
  {
   "id": "5g14gmDGogmlfQMEAKQ7lXiE1izIEqIE",
   "type": "Feature",
   "properties": {
    "fid": "5g14gmDGogmlfQMEAKQ7lXiE1izIEqIE",
    "name": "Sunrise Wind"
   },
   "geometry": {
    "coordinates": [
     [
      -71.28388167109084,
      41.03866691683966
     ],
     [
      -71.27013749351478,
      41.03898732259189
     ],
     [
      -71.27064055475043,
      41.06056671967269
     ],
     [
      -71.25676815120298,
      41.060890114642625
     ],
     [
      -71.25651792592163,
      41.050156410028904
     ],
     [
      -71.19914162912767,
      41.05149397245727
     ],
     [
      -71.1986270120479,
      41.02941887399604
     ],
     [
      -70.998647716913,
      41.03408081292501
     ],
     [
      -70.99888952032909,
      41.0444532518285
     ],
     [
      -70.95617775784669,
      41.045448953049004
     ],
     [
      -70.95642174305164,
      41.05591498232384
     ],
     [
      -70.92784024804291,
      41.05658127722272
     ],
     [
      -70.92732236211458,
      41.034365957698995
     ],
     [
      -70.82793682201385,
      41.03668284414496
     ],
     [
      -70.826794949092,
      40.98770087644309
     ],
     [
      -70.86813420946851,
      40.98673717113993
     ],
     [
      -70.86776142255782,
      40.97074604281945
     ],
     [
      -70.88936461909314,
      40.970242426768344
     ],
     [
      -70.8889861370768,
      40.954007000263644
     ],
     [
      -70.91015770218354,
      40.953513446451026
     ],
     [
      -70.90941038768887,
      40.92145652160316
     ],
     [
      -70.93120068595881,
      40.92094854381621
     ],
     [
      -70.93082741076098,
      40.904936469850625
     ],
     [
      -70.95181240960835,
      40.904447265290806
     ],
     [
      -70.95143346619939,
      40.888192046813344
     ],
     [
      -70.99394932774184,
      40.88720091245671
     ],
     [
      -70.99358595810932,
      40.871613749241405
     ],
     [
      -71.05083942345993,
      40.87027905027291
     ],
     [
      -71.0528584733427,
      40.956888544422725
     ],
     [
      -71.28185079795793,
      40.95155025061666
     ],
     [
      -71.28388167109084,
      41.03866691683966
     ]
    ],
    "type": "LineString"
   },
   "name": "Sunrise wind"
  }
 ],
 "name": "line",
 "type": "FeatureCollection"
}