{
 "features": [
  {
   "id": "fb6957d971499f6e0d632f6a7d76c64c",
   "type": "Feature",
   "properties": {
    "fid": "fb6957d971499f6e0d632f6a7d76c64c",
    "name": "Vineyard Northeast"
   },
   "geometry": {
    "coordinates": [
     [
      -70.19554762116266,
      40.82812692897781
     ],
     [
      -70.21091685390756,
      40.82771158832614
     ],
     [
      -70.20981905156884,
      40.817327226587025
     ],
     [
      -70.22354158080532,
      40.817327226587025
     ],
     [
      -70.2229926796356,
      40.80735670975284
     ],
     [
      -70.23726411004176,
      40.80652576571876
     ],
     [
      -70.23671520887208,
      40.79447590802636
     ],
     [
      -70.25043773810853,
      40.794891456774934
     ],
     [
      -70.25098663927757,
      40.783670727622194
     ],
     [
      -70.26525806968372,
      40.78408634399531
     ],
     [
      -70.26525806968372,
      40.77327947303837
     ],
     [
      -70.2784316977505,
      40.77078533006903
     ],
     [
      -70.27788279658148,
      40.76205509239384
     ],
     [
      -70.29215422698697,
      40.76163933818407
     ],
     [
      -70.2938009304954,
      40.75041299152082
     ],
     [
      -70.30477895388472,
      40.74958133487374
     ],
     [
      -70.30587675622346,
      40.74209595698497
     ],
     [
      -70.32179489013737,
      40.73835295210358
     ],
     [
      -70.31905038429021,
      40.72837057607208
     ],
     [
      -70.33606632054354,
      40.72878653830807
     ],
     [
      -70.33551741937383,
      40.718802727020574
     ],
     [
      -70.34978884978004,
      40.7167225778355
     ],
     [
      -70.34814214627157,
      40.70590475431314
     ],
     [
      -70.36351137901579,
      40.70673695698025
     ],
     [
      -70.36296247784675,
      40.69591751118401
     ],
     [
      -70.37723390825225,
      40.69633367621111
     ],
     [
      -70.37503830357483,
      40.685928770654414
     ],
     [
      -70.39150533865843,
      40.68426383499133
     ],
     [
      -70.38930973398031,
      40.673857044793124
     ],
     [
      -70.40687457140335,
      40.6742733475935
     ],
     [
      -70.40193446087805,
      40.66261588663778
     ],
     [
      -70.4200481994701,
      40.662199511057196
     ],
     [
      -70.41840149596167,
      40.65137283366863
     ],
     [
      -70.43212402519814,
      40.65178927682629
     ],
     [
      -70.43267292636715,
      40.640544399330054
     ],
     [
      -70.44584655443462,
      40.64137741819215
     ],
     [
      -70.44584655443462,
      40.62971420814202
     ],
     [
      -70.45902018250138,
      40.62971420814202
     ],
     [
      -70.46176468834855,
      40.619298906072885
     ],
     [
      -70.47438941524626,
      40.61888226020764
     ],
     [
      -70.47603611875402,
      40.607215120980015
     ],
     [
      -70.48811194448206,
      40.607215120980015
     ],
     [
      -70.48756304331303,
      40.59596273596563
     ],
     [
      -70.50238337488824,
      40.59721309450694
     ],
     [
      -70.50238337488824,
      40.586375876946505
     ],
     [
      -70.31905038429021,
      40.58929376214641
     ],
     [
      -70.31905038429021,
      40.60096402982302
     ],
     [
      -70.30587675622346,
      40.60054726962542
     ],
     [
      -70.30587675622346,
      40.62179872669236
     ],
     [
      -70.02044814810681,
      40.624715065844924
     ],
     [
      -70.02374155512365,
      40.754571118732315
     ],
     [
      -70.19390091765493,
      40.75290789905273
     ],
     [
      -70.19444981882395,
      40.82812692897781
     ],
     [
      -70.21091685390756,
      40.8272962450736
     ]
    ],
    "type": "LineString"
   },
   "name": "Vineyard Northeast "
  }
 ],
 "name": "line",
 "type": "FeatureCollection"
}