{
 "type": "FeatureCollection",
 "name": "line",
 "features": [
  {
   "id": "bc4f6fea3bb231ac858ba9082656e889",
   "type": "Feature",
   "properties": {
    "fid": "bc4f6fea3bb231ac858ba9082656e889",
    "name": "Vineyard Wind 1"
   },
   "geometry": {
    "coordinates": [
     [
      -70.47966087803009,
      41.138460515067045
     ],
     [
      -70.47957362612095,
      41.13317741075373
     ],
     [
      -70.48693379564091,
      41.13305585554603
     ],
     [
      -70.48684552981838,
      41.1277113587622
     ],
     [
      -70.50104979346175,
      41.12747677147278
     ],
     [
      -70.50086973991513,
      41.116574526716576
     ],
     [
      -70.51499857276218,
      41.11634118518734
     ],
     [
      -70.51482024128784,
      41.105543211931305
     ],
     [
      -70.52887020491495,
      41.105311172948745
     ],
     [
      -70.52869534486368,
      41.09472339440778
     ],
     [
      -70.54301604963128,
      41.09448688406142
     ],
     [
      -70.54283884467337,
      41.08375712139175
     ],
     [
      -70.55716209379115,
      41.08352056902475
     ],
     [
      -70.55698360092086,
      41.07271282324074
     ],
     [
      -70.57141041136627,
      41.07247456053017
     ],
     [
      -70.57123210000903,
      41.06167780536502
     ],
     [
      -70.58521981791048,
      41.0614467943876
     ],
     [
      -70.58503906926988,
      41.05050246168041
     ],
     [
      -70.59913409043395,
      41.05026967856033
     ],
     [
      -70.59895766304875,
      41.03958699792838
     ],
     [
      -70.61341909314605,
      41.03934816346481
     ],
     [
      -70.61324499757347,
      41.02880667412017
     ],
     [
      -70.62687142351083,
      41.02858162997811
     ],
     [
      -70.62651371858472,
      41.006922591717014
     ],
     [
      -70.58429542554939,
      41.00761983834492
     ],
     [
      -70.58411028388474,
      40.99640950797098
     ],
     [
      -70.54058894926582,
      40.997128274686155
     ],
     [
      -70.54022993102059,
      40.975389714935204
     ],
     [
      -70.51214236475947,
      40.97585358875514
     ],
     [
      -70.51196414969282,
      40.96506266398589
     ],
     [
      -70.4974024691393,
      40.965303154113094
     ],
     [
      -70.49704514762641,
      40.943667331528744
     ],
     [
      -70.46842596344602,
      40.944139985163666
     ],
     [
      -70.46860421343038,
      40.95493302420051
     ],
     [
      -70.4543828589523,
      40.95516789374973
     ],
     [
      -70.45455961972846,
      40.965870761208514
     ],
     [
      -70.4402483296223,
      40.966107116069175
     ],
     [
      -70.44042562913134,
      40.97684260381131
     ],
     [
      -70.42639116788872,
      40.97707438676777
     ],
     [
      -70.42656894535423,
      40.98783881478121
     ],
     [
      -70.4122732251924,
      40.9880749125
     ],
     [
      -70.41244740245085,
      40.99862134792681
     ],
     [
      -70.39830814138158,
      40.99885486168099
     ],
     [
      -70.39849019931478,
      41.009878472073645
     ],
     [
      -70.38434337881462,
      41.01011211067389
     ],
     [
      -70.3845189678498,
      41.020744029200266
     ],
     [
      -70.37741606547317,
      41.020861335570906
     ],
     [
      -70.37750192420624,
      41.0260600830547
     ],
     [
      -70.37041231810409,
      41.026177169833744
     ],
     [
      -70.37158084159559,
      41.096931283525805
     ],
     [
      -70.4288097621825,
      41.09598613228852
     ],
     [
      -70.42952491299926,
      41.13928852420814
     ],
     [
      -70.47966087803009,
      41.138460515067045
     ]
    ],
    "type": "LineString"
   },
   "name": "LineString"
  }
 ]
}