{"type": "FeatureCollection", "features": [{"type": "Feature", "properties": {"point_type": "turbine", "turbinemod": "SG 11.0-200 DD", "foundation": "Monopile (TP Less)", "water_dept": -46, "distance_to_shore": 29198, "tippecanoe_feature_density": 0}, "geometry": {"type": "Point", "coordinates": [-71.27517700195312, 40.99052392072625]}}, {"type": "Feature", "properties": {"point_type": "turbine", "turbinemod": "SG 11.0-200 DD", "foundation": "Monopile (TP Less)", "water_dept": -46, "distance_to_shore": 30650, "tippecanoe_feature_density": 0}, "geometry": {"type": "Point", "coordinates": [-71.25286102294922, 40.9907830664371]}}, {"type": "Feature", "properties": {"point_type": "turbine", "turbinemod": "SG 11.0-200 DD", "foundation": "Monopile (TP Less)", "water_dept": -48, "distance_to_shore": 32038, "tippecanoe_feature_density": 0}, "geometry": {"type": "Point", "coordinates": [-71.23260498046875, 40.991301354803056]}}, {"type": "Feature", "properties": {"point_type": "turbine", "turbinemod": "SG 11.0-200 DD", "foundation": "Monopile (TP Less)", "water_dept": -51, "distance_to_shore": 33660, "tippecanoe_feature_density": 0}, "geometry": {"type": "Point", "coordinates": [-71.20925903320312, 40.991819639094814]}}, {"type": "Feature", "properties": {"point_type": "turbine", "turbinemod": "SG 11.0-200 DD", "foundation": "Monopile (TP Less)", "water_dept": -50, "distance_to_shore": 35219, "tippecanoe_feature_density": 0}, "geometry": {"type": "Point", "coordinates": [-71.18728637695312, 40.99207877971284]}}, {"type": "Feature", "properties": {"point_type": "turbine", "turbinemod": "SG 11.0-200 DD", "foundation": "Monopile (TP Less)", "water_dept": -53, "distance_to_shore": 36806, "tippecanoe_feature_density": 0}, "geometry": {"type": "Point", "coordinates": [-71.16531372070312, 40.992597057893164]}}, {"type": "Feature", "properties": {"point_type": "turbine", "turbinemod": "SG 11.0-200 DD", "foundation": "Monopile (TP Less)", "water_dept": -52, "distance_to_shore": 38416, "tippecanoe_feature_density": 0}, "geometry": {"type": "Point", "coordinates": [-71.14299774169922, 40.99311533199929]}}, {"type": "Feature", "properties": {"point_type": "turbine", "turbinemod": "SG 11.0-200 DD", "foundation": "Monopile (TP Less)", "water_dept": -46, "distance_to_shore": 37231, "tippecanoe_feature_density": 0}, "geometry": {"type": "Point", "coordinates": [-71.09905242919922, 40.993892735519125]}}, {"type": "Feature", "properties": {"point_type": "turbine", "turbinemod": "SG 11.0-200 DD", "foundation": "Monopile (TP Less)", "water_dept": -45, "distance_to_shore": 36098, "tippecanoe_feature_density": 0}, "geometry": {"type": "Point", "coordinates": [-71.07707977294922, 40.99415186798862]}}, {"type": "Feature", "properties": {"point_type": "turbine", "turbinemod": "SG 11.0-200 DD", "foundation": "Monopile (TP Less)", "water_dept": -48, "distance_to_shore": 34975, "tippecanoe_feature_density": 0}, "geometry": {"type": "Point", "coordinates": [-71.0540771484375, 40.99492925928561]}}, {"type": "Feature", "properties": {"point_type": "turbine", "turbinemod": "SG 11.0-200 DD", "foundation": "Monopile (TP Less)", "water_dept": -47, "distance_to_shore": 34025, "tippecanoe_feature_density": 0}, "geometry": {"type": "Point", "coordinates": [-71.03313446044922, 40.99518838768077]}}, {"type": "Feature", "properties": {"point_type": "turbine", "turbinemod": "SG 11.0-200 DD", "foundation": "Monopile (TP Less)", "water_dept": -47, "distance_to_shore": 33094, "tippecanoe_feature_density": 0}, "geometry": {"type": "Point", "coordinates": [-71.01116180419922, 40.99544751505735]}}, {"type": "Feature", "properties": {"point_type": "turbine", "turbinemod": "SG 11.0-200 DD", "foundation": "Monopile (TP Less)", "water_dept": -46, "distance_to_shore": 32147, "tippecanoe_feature_density": 0}, "geometry": {"type": "Point", "coordinates": [-70.98918914794922, 40.99570664141535]}}, {"type": "Feature", "properties": {"point_type": "turbine", "turbinemod": "SG 11.0-200 DD", "foundation": "Monopile (TP Less)", "water_dept": -45, "distance_to_shore": 31276, "tippecanoe_feature_density": 0}, "geometry": {"type": "Point", "coordinates": [-70.9665298461914, 40.99570664141535]}}, {"type": "Feature", "properties": {"point_type": "turbine", "turbinemod": "SG 11.0-200 DD", "foundation": "Monopile (TP Less)", "water_dept": -45, "distance_to_shore": 30431, "tippecanoe_feature_density": 0}, "geometry": {"type": "Point", "coordinates": [-70.94524383544922, 40.9964840143779]}}, {"type": "Feature", "properties": {"point_type": "turbine", "turbinemod": "SG 11.0-200 DD", "foundation": "Monopile (TP Less)", "water_dept": -45, "distance_to_shore": 29709, "tippecanoe_feature_density": 0}, "geometry": {"type": "Point", "coordinates": [-70.92292785644531, 40.99700225792665]}}, {"type": "Feature", "properties": {"point_type": "turbine", "turbinemod": "SG 11.0-200 DD", "foundation": "Monopile (TP Less)", "water_dept": -49, "distance_to_shore": 31442, "tippecanoe_feature_density": 0}, "geometry": {"type": "Point", "coordinates": [-70.9225845336914, 40.980157257090696]}}, {"type": "Feature", "properties": {"point_type": "turbine", "turbinemod": "SG 11.0-200 DD", "foundation": "Monopile (TP Less)", "water_dept": -47, "distance_to_shore": 29088, "tippecanoe_feature_density": 0}, "geometry": {"type": "Point", "coordinates": [-70.90095520019531, 40.99726137817311]}}, {"type": "Feature", "properties": {"point_type": "turbine", "turbinemod": "SG 11.0-200 DD", "foundation": "Monopile (TP Less)", "water_dept": -46, "distance_to_shore": 28525, "tippecanoe_feature_density": 0}, "geometry": {"type": "Point", "coordinates": [-70.87898254394531, 40.998038732801064]}}, {"type": "Feature", "properties": {"point_type": "turbine", "turbinemod": "SG 11.0-200 DD", "foundation": "Monopile (TP Less)", "water_dept": -47, "distance_to_shore": 27895, "tippecanoe_feature_density": 0}, "geometry": {"type": "Point", "coordinates": [-70.83572387695312, 40.99829784897321]}}, {"type": "Feature", "properties": {"point_type": "turbine", "turbinemod": "SG 11.0-200 DD", "foundation": "Monopile (TP Less)", "water_dept": -48, "distance_to_shore": 30396, "tippecanoe_feature_density": 0}, "geometry": {"type": "Point", "coordinates": [-71.27449035644531, 40.97367726477833]}}, {"type": "Feature", "properties": {"point_type": "turbine", "turbinemod": "SG 11.0-200 DD", "foundation": "Monopile (TP Less)", "water_dept": -51, "distance_to_shore": 31676, "tippecanoe_feature_density": 0}, "geometry": {"type": "Point", "coordinates": [-71.2741470336914, 40.95708558389896]}}, {"type": "Feature", "properties": {"point_type": "turbine", "turbinemod": "SG 11.0-200 DD", "foundation": "Monopile (TP Less)", "water_dept": -49, "distance_to_shore": 31797, "tippecanoe_feature_density": 0}, "geometry": {"type": "Point", "coordinates": [-71.25251770019531, 40.97419568758846]}}, {"type": "Feature", "properties": {"point_type": "turbine", "turbinemod": "SG 11.0-200 DD", "foundation": "Monopile (TP Less)", "water_dept": -49, "distance_to_shore": 33018, "tippecanoe_feature_density": 0}, "geometry": {"type": "Point", "coordinates": [-71.2521743774414, 40.95734486099283]}}, {"type": "Feature", "properties": {"point_type": "turbine", "turbinemod": "SG 11.0-200 DD", "foundation": "Monopile (TP Less)", "water_dept": -51, "distance_to_shore": 33237, "tippecanoe_feature_density": 0}, "geometry": {"type": "Point", "coordinates": [-71.23054504394531, 40.97445489746579]}}, {"type": "Feature", "properties": {"point_type": "turbine", "turbinemod": "SG 11.0-200 DD", "foundation": "Monopile (TP Less)", "water_dept": -50, "distance_to_shore": 34407, "tippecanoe_feature_density": 0}, "geometry": {"type": "Point", "coordinates": [-71.2298583984375, 40.95786341212539]}}, {"type": "Feature", "properties": {"point_type": "turbine", "turbinemod": "SG 11.0-200 DD", "foundation": "Monopile (TP Less)", "water_dept": -52, "distance_to_shore": 34717, "tippecanoe_feature_density": 0}, "geometry": {"type": "Point", "coordinates": [-71.20857238769531, 40.974973314165055]}}, {"type": "Feature", "properties": {"point_type": "turbine", "turbinemod": "SG 11.0-200 DD", "foundation": "Monopile (TP Less)", "water_dept": -53, "distance_to_shore": 36230, "tippecanoe_feature_density": 0}, "geometry": {"type": "Point", "coordinates": [-71.18659973144531, 40.97549172679038]}}, {"type": "Feature", "properties": {"point_type": "turbine", "turbinemod": "SG 11.0-200 DD", "foundation": "Monopile (TP Less)", "water_dept": -49, "distance_to_shore": 37306, "tippecanoe_feature_density": 0}, "geometry": {"type": "Point", "coordinates": [-71.1859130859375, 40.958641231186306]}}, {"type": "Feature", "properties": {"point_type": "turbine", "turbinemod": "SG 11.0-200 DD", "foundation": "Monopile (TP Less)", "water_dept": -51, "distance_to_shore": 37774, "tippecanoe_feature_density": 0}, "geometry": {"type": "Point", "coordinates": [-71.16462707519531, 40.975750931575334]}}, {"type": "Feature", "properties": {"point_type": "turbine", "turbinemod": "SG 11.0-200 DD", "foundation": "Monopile (TP Less)", "water_dept": -51, "distance_to_shore": 38829, "tippecanoe_feature_density": 0}, "geometry": {"type": "Point", "coordinates": [-71.1639404296875, 40.9589005021698]}}, {"type": "Feature", "properties": {"point_type": "turbine", "turbinemod": "SG 11.0-200 DD", "foundation": "Monopile (TP Less)", "water_dept": -52, "distance_to_shore": 39345, "tippecanoe_feature_density": 0}, "geometry": {"type": "Point", "coordinates": [-71.14265441894531, 40.97626933808982]}}, {"type": "Feature", "properties": {"point_type": "turbine", "turbinemod": "SG 11.0-200 DD", "foundation": "Monopile (TP Less)", "water_dept": -50, "distance_to_shore": 40338, "tippecanoe_feature_density": 0}, "geometry": {"type": "Point", "coordinates": [-71.1419677734375, 40.95941904108162]}}, {"type": "Feature", "properties": {"point_type": "turbine", "turbinemod": "SG 11.0-200 DD", "foundation": "Monopile (TP Less)", "water_dept": -48, "distance_to_shore": 39834, "tippecanoe_feature_density": 0}, "geometry": {"type": "Point", "coordinates": [-71.12068176269531, 40.97652853981933]}}, {"type": "Feature", "properties": {"point_type": "turbine", "turbinemod": "SG 11.0-200 DD", "foundation": "Monopile (TP Less)", "water_dept": -50, "distance_to_shore": 41342, "tippecanoe_feature_density": 0}, "geometry": {"type": "Point", "coordinates": [-71.1199951171875, 40.95941904108162]}}, {"type": "Feature", "properties": {"point_type": "turbine", "turbinemod": "SG 11.0-200 DD", "foundation": "Monopile (TP Less)", "water_dept": -49, "distance_to_shore": 38695, "tippecanoe_feature_density": 0}, "geometry": {"type": "Point", "coordinates": [-71.09870910644531, 40.97704694022286]}}, {"type": "Feature", "properties": {"point_type": "turbine", "turbinemod": "SG 11.0-200 DD", "foundation": "Monopile (TP Less)", "water_dept": -52, "distance_to_shore": 40192, "tippecanoe_feature_density": 0}, "geometry": {"type": "Point", "coordinates": [-71.0980224609375, 40.96045610668443]}}, {"type": "Feature", "properties": {"point_type": "turbine", "turbinemod": "SG 11.0-200 DD", "foundation": "Monopile (TP Less)", "water_dept": -47, "distance_to_shore": 37613, "tippecanoe_feature_density": 0}, "geometry": {"type": "Point", "coordinates": [-71.07673645019531, 40.97730613889689]}}, {"type": "Feature", "properties": {"point_type": "turbine", "turbinemod": "SG 11.0-200 DD", "foundation": "Monopile (TP Less)", "water_dept": -49, "distance_to_shore": 39151, "tippecanoe_feature_density": 0}, "geometry": {"type": "Point", "coordinates": [-71.0760498046875, 40.960715370539134]}}, {"type": "Feature", "properties": {"point_type": "turbine", "turbinemod": "SG 11.0-200 DD", "foundation": "Monopile (TP Less)", "water_dept": -48, "distance_to_shore": 36593, "tippecanoe_feature_density": 0}, "geometry": {"type": "Point", "coordinates": [-71.05476379394531, 40.977824533189505]}}, {"type": "Feature", "properties": {"point_type": "turbine", "turbinemod": "SG 11.0-200 DD", "foundation": "Monopile (TP Less)", "water_dept": -47, "distance_to_shore": 38171, "tippecanoe_feature_density": 0}, "geometry": {"type": "Point", "coordinates": [-71.0540771484375, 40.96123389519332]}}, {"type": "Feature", "properties": {"point_type": "turbine", "turbinemod": "SG 11.0-200 DD", "foundation": "Monopile (TP Less)", "water_dept": -49, "distance_to_shore": 35643, "tippecanoe_feature_density": 0}, "geometry": {"type": "Point", "coordinates": [-71.0324478149414, 40.97808372880806]}}, {"type": "Feature", "properties": {"point_type": "turbine", "turbinemod": "SG 11.0-200 DD", "foundation": "Monopile (TP Less)", "water_dept": -50, "distance_to_shore": 37297, "tippecanoe_feature_density": 0}, "geometry": {"type": "Point", "coordinates": [-71.0321044921875, 40.960715370539134]}}, {"type": "Feature", "properties": {"point_type": "turbine", "turbinemod": "SG 11.0-200 DD", "foundation": "Monopile (TP Less)", "water_dept": -49, "distance_to_shore": 34686, "tippecanoe_feature_density": 0}, "geometry": {"type": "Point", "coordinates": [-71.0104751586914, 40.97860211698972]}}, {"type": "Feature", "properties": {"point_type": "turbine", "turbinemod": "SG 11.0-200 DD", "foundation": "Monopile (TP Less)", "water_dept": -44, "distance_to_shore": 26997, "tippecanoe_feature_density": 0}, "geometry": {"type": "Point", "coordinates": [-71.27620697021484, 41.023686292432586]}}, {"type": "Feature", "properties": {"point_type": "turbine", "turbinemod": "SG 11.0-200 DD", "foundation": "Monopile (TP Less)", "water_dept": -45, "distance_to_shore": 28547, "tippecanoe_feature_density": 0}, "geometry": {"type": "Point", "coordinates": [-71.25457763671875, 41.02394530775749]}}, {"type": "Feature", "properties": {"point_type": "turbine", "turbinemod": "SG 11.0-200 DD", "foundation": "Monopile (TP Less)", "water_dept": -45, "distance_to_shore": 28054, "tippecanoe_feature_density": 0}, "geometry": {"type": "Point", "coordinates": [-71.27552032470703, 41.007107192752756]}}, {"type": "Feature", "properties": {"point_type": "turbine", "turbinemod": "SG 11.0-200 DD", "foundation": "Monopile (TP Less)", "water_dept": -46, "distance_to_shore": 29198, "tippecanoe_feature_density": 0}, "geometry": {"type": "Point", "coordinates": [-71.27517700195312, 40.99026477399687]}}, {"type": "Feature", "properties": {"point_type": "turbine", "turbinemod": "SG 11.0-200 DD", "foundation": "Monopile (TP Less)", "water_dept": -44, "distance_to_shore": 29545, "tippecanoe_feature_density": 0}, "geometry": {"type": "Point", "coordinates": [-71.25389099121094, 41.00736627327328]}}, {"type": "Feature", "properties": {"point_type": "turbine", "turbinemod": "SG 11.0-200 DD", "foundation": "Monopile (TP Less)", "water_dept": -50, "distance_to_shore": 30169, "tippecanoe_feature_density": 0}, "geometry": {"type": "Point", "coordinates": [-71.23191833496094, 41.02446333535116]}}, {"type": "Feature", "properties": {"point_type": "turbine", "turbinemod": "SG 11.0-200 DD", "foundation": "Monopile (TP Less)", "water_dept": -47, "distance_to_shore": 31795, "tippecanoe_feature_density": 0}, "geometry": {"type": "Point", "coordinates": [-71.20994567871094, 41.02472234761987]}}, {"type": "Feature", "properties": {"point_type": "turbine", "turbinemod": "SG 11.0-200 DD", "foundation": "Monopile (TP Less)", "water_dept": -48, "distance_to_shore": 32674, "tippecanoe_feature_density": 0}, "geometry": {"type": "Point", "coordinates": [-71.20960235595703, 41.00840258516891]}}, {"type": "Feature", "properties": {"point_type": "turbine", "turbinemod": "SG 11.0-200 DD", "foundation": "Monopile (TP Less)", "water_dept": -51, "distance_to_shore": 33660, "tippecanoe_feature_density": 0}, "geometry": {"type": "Point", "coordinates": [-71.20925903320312, 40.99156049745821]}}, {"type": "Feature", "properties": {"point_type": "turbine", "turbinemod": "SG 11.0-200 DD", "foundation": "Monopile (TP Less)", "water_dept": -45, "distance_to_shore": 33445, "tippecanoe_feature_density": 0}, "geometry": {"type": "Point", "coordinates": [-71.18831634521484, 41.02446333535116]}}, {"type": "Feature", "properties": {"point_type": "turbine", "turbinemod": "SG 11.0-200 DD", "foundation": "Monopile (TP Less)", "water_dept": -45, "distance_to_shore": 35126, "tippecanoe_feature_density": 0}, "geometry": {"type": "Point", "coordinates": [-71.16634368896484, 41.02472234761987]}}, {"type": "Feature", "properties": {"point_type": "turbine", "turbinemod": "SG 11.0-200 DD", "foundation": "Monopile (TP Less)", "water_dept": -48, "distance_to_shore": 34278, "tippecanoe_feature_density": 0}, "geometry": {"type": "Point", "coordinates": [-71.18762969970703, 41.00866166059623]}}, {"type": "Feature", "properties": {"point_type": "turbine", "turbinemod": "SG 11.0-200 DD", "foundation": "Monopile (TP Less)", "water_dept": -45, "distance_to_shore": 35906, "tippecanoe_feature_density": 0}, "geometry": {"type": "Point", "coordinates": [-71.16565704345703, 41.00917980839489]}}, {"type": "Feature", "properties": {"point_type": "turbine", "turbinemod": "SG 11.0-200 DD", "foundation": "Monopile (TP Less)", "water_dept": -53, "distance_to_shore": 36806, "tippecanoe_feature_density": 0}, "geometry": {"type": "Point", "coordinates": [-71.16531372070312, 40.99233791931232]}}, {"type": "Feature", "properties": {"point_type": "turbine", "turbinemod": "SG 11.0-200 DD", "foundation": "Monopile (TP Less)", "water_dept": -41, "distance_to_shore": 36773, "tippecanoe_feature_density": 0}, "geometry": {"type": "Point", "coordinates": [-71.14402770996094, 41.02627639983902]}}, {"type": "Feature", "properties": {"point_type": "turbine", "turbinemod": "SG 11.0-200 DD", "foundation": "Monopile (TP Less)", "water_dept": -41, "distance_to_shore": 35694, "tippecanoe_feature_density": 0}, "geometry": {"type": "Point", "coordinates": [-71.12239837646484, 41.02653540497664]}}, {"type": "Feature", "properties": {"point_type": "turbine", "turbinemod": "SG 11.0-200 DD", "foundation": "Monopile (TP Less)", "water_dept": -44, "distance_to_shore": 37555, "tippecanoe_feature_density": 0}, "geometry": {"type": "Point", "coordinates": [-71.14368438720703, 41.009438880766226]}}, {"type": "Feature", "properties": {"point_type": "turbine", "turbinemod": "SG 11.0-200 DD", "foundation": "Monopile (TP Less)", "water_dept": -52, "distance_to_shore": 38416, "tippecanoe_feature_density": 0}, "geometry": {"type": "Point", "coordinates": [-71.14299774169922, 40.992856195455516]}}, {"type": "Feature", "properties": {"point_type": "turbine", "turbinemod": "SG 11.0-200 DD", "foundation": "Monopile (TP Less)", "water_dept": -45, "distance_to_shore": 37030, "tippecanoe_feature_density": 0}, "geometry": {"type": "Point", "coordinates": [-71.12171173095703, 41.00995702245302]}}, {"type": "Feature", "properties": {"point_type": "turbine", "turbinemod": "SG 11.0-200 DD", "foundation": "Monopile (TP Less)", "water_dept": -41, "distance_to_shore": 34502, "tippecanoe_feature_density": 0}, "geometry": {"type": "Point", "coordinates": [-71.10008239746094, 41.02601739368268]}}, {"type": "Feature", "properties": {"point_type": "turbine", "turbinemod": "SG 11.0-200 DD", "foundation": "Monopile (TP Less)", "water_dept": -41, "distance_to_shore": 33180, "tippecanoe_feature_density": 0}, "geometry": {"type": "Point", "coordinates": [-71.07810974121094, 41.02757141533979]}}, {"type": "Feature", "properties": {"point_type": "turbine", "turbinemod": "SG 11.0-200 DD", "foundation": "Monopile (TP Less)", "water_dept": -46, "distance_to_shore": 35788, "tippecanoe_feature_density": 0}, "geometry": {"type": "Point", "coordinates": [-71.10008239746094, 41.01073422734325]}}, {"type": "Feature", "properties": {"point_type": "turbine", "turbinemod": "SG 11.0-200 DD", "foundation": "Monopile (TP Less)", "water_dept": -46, "distance_to_shore": 37231, "tippecanoe_feature_density": 0}, "geometry": {"type": "Point", "coordinates": [-71.09905242919922, 40.99363360203111]}}, {"type": "Feature", "properties": {"point_type": "turbine", "turbinemod": "SG 11.0-200 DD", "foundation": "Monopile (TP Less)", "water_dept": -46, "distance_to_shore": 34629, "tippecanoe_feature_density": 0}, "geometry": {"type": "Point", "coordinates": [-71.07776641845703, 41.01073422734325]}}, {"type": "Feature", "properties": {"point_type": "turbine", "turbinemod": "SG 11.0-200 DD", "foundation": "Monopile (TP Less)", "water_dept": -42, "distance_to_shore": 31982, "tippecanoe_feature_density": 0}, "geometry": {"type": "Point", "coordinates": [-71.05510711669922, 41.027830415383704]}}, {"type": "Feature", "properties": {"point_type": "turbine", "turbinemod": "SG 11.0-200 DD", "foundation": "Monopile (TP Less)", "water_dept": -42, "distance_to_shore": 30936, "tippecanoe_feature_density": 0}, "geometry": {"type": "Point", "coordinates": [-71.03416442871094, 41.028089414408925]}}, {"type": "Feature", "properties": {"point_type": "turbine", "turbinemod": "SG 11.0-200 DD", "foundation": "Monopile (TP Less)", "water_dept": -45, "distance_to_shore": 33611, "tippecanoe_feature_density": 0}, "geometry": {"type": "Point", "coordinates": [-71.05545043945312, 41.0102160917684]}}, {"type": "Feature", "properties": {"point_type": "turbine", "turbinemod": "SG 11.0-200 DD", "foundation": "Monopile (TP Less)", "water_dept": -48, "distance_to_shore": 34975, "tippecanoe_feature_density": 0}, "geometry": {"type": "Point", "coordinates": [-71.0540771484375, 40.99467012987185]}}, {"type": "Feature", "properties": {"point_type": "turbine", "turbinemod": "SG 11.0-200 DD", "foundation": "Monopile (TP Less)", "water_dept": -44, "distance_to_shore": 32473, "tippecanoe_feature_density": 0}, "geometry": {"type": "Point", "coordinates": [-71.03347778320312, 41.01151142306557]}}, {"type": "Feature", "properties": {"point_type": "turbine", "turbinemod": "SG 11.0-200 DD", "foundation": "Monopile (TP Less)", "water_dept": -47, "distance_to_shore": 34025, "tippecanoe_feature_density": 0}, "geometry": {"type": "Point", "coordinates": [-71.03313446044922, 40.99492925928561]}}, {"type": "Feature", "properties": {"point_type": "turbine", "turbinemod": "SG 11.0-200 DD", "foundation": "Monopile (TP Less)", "water_dept": -38, "distance_to_shore": 25482, "tippecanoe_feature_density": 0}, "geometry": {"type": "Point", "coordinates": [-70.94661712646484, 41.04647574121182]}}, {"type": "Feature", "properties": {"point_type": "turbine", "turbinemod": "SG 11.0-200 DD", "foundation": "Monopile (TP Less)", "water_dept": -40, "distance_to_shore": 29917, "tippecanoe_feature_density": 0}, "geometry": {"type": "Point", "coordinates": [-71.01219177246094, 41.028607409403065]}}, {"type": "Feature", "properties": {"point_type": "turbine", "turbinemod": "SG 11.0-200 DD", "foundation": "Monopile (TP Less)", "water_dept": -40, "distance_to_shore": 28964, "tippecanoe_feature_density": 0}, "geometry": {"type": "Point", "coordinates": [-70.99021911621094, 41.028866405372014]}}, {"type": "Feature", "properties": {"point_type": "turbine", "turbinemod": "SG 11.0-200 DD", "foundation": "Monopile (TP Less)", "water_dept": -44, "distance_to_shore": 31502, "tippecanoe_feature_density": 0}, "geometry": {"type": "Point", "coordinates": [-71.01150512695312, 41.01202954845377]}}, {"type": "Feature", "properties": {"point_type": "turbine", "turbinemod": "SG 11.0-200 DD", "foundation": "Monopile (TP Less)", "water_dept": -47, "distance_to_shore": 33094, "tippecanoe_feature_density": 0}, "geometry": {"type": "Point", "coordinates": [-71.01116180419922, 40.99518838768077]}}, {"type": "Feature", "properties": {"point_type": "turbine", "turbinemod": "SG 11.0-200 DD", "foundation": "Monopile (TP Less)", "water_dept": -44, "distance_to_shore": 30561, "tippecanoe_feature_density": 0}, "geometry": {"type": "Point", "coordinates": [-70.98953247070312, 41.01228860961993]}}, {"type": "Feature", "properties": {"point_type": "turbine", "turbinemod": "SG 11.0-200 DD", "foundation": "Monopile (TP Less)", "water_dept": -37, "distance_to_shore": 28017, "tippecanoe_feature_density": 0}, "geometry": {"type": "Point", "coordinates": [-70.96824645996094, 41.02938439425367]}}, {"type": "Feature", "properties": {"point_type": "turbine", "turbinemod": "SG 11.0-200 DD", "foundation": "Monopile (TP Less)", "water_dept": -38, "distance_to_shore": 27069, "tippecanoe_feature_density": 0}, "geometry": {"type": "Point", "coordinates": [-70.94627380371094, 41.03016136993554]}}, {"type": "Feature", "properties": {"point_type": "turbine", "turbinemod": "SG 11.0-200 DD", "foundation": "Monopile (TP Less)", "water_dept": -43, "distance_to_shore": 28757, "tippecanoe_feature_density": 0}, "geometry": {"type": "Point", "coordinates": [-70.94558715820312, 41.0130657870063]}}, {"type": "Feature", "properties": {"point_type": "turbine", "turbinemod": "SG 11.0-200 DD", "foundation": "Monopile (TP Less)", "water_dept": -45, "distance_to_shore": 29618, "tippecanoe_feature_density": 0}, "geometry": {"type": "Point", "coordinates": [-70.96755981445312, 41.01254766976737]}}, {"type": "Feature", "properties": {"point_type": "turbine", "turbinemod": "SG 11.0-200 DD", "foundation": "Monopile (TP Less)", "water_dept": -45, "distance_to_shore": 31276, "tippecanoe_feature_density": 0}, "geometry": {"type": "Point", "coordinates": [-70.9665298461914, 40.99544751505735]}}, {"type": "Feature", "properties": {"point_type": "turbine", "turbinemod": "SG 11.0-200 DD", "foundation": "Monopile (TP Less)", "water_dept": -39, "distance_to_shore": 26293, "tippecanoe_feature_density": 0}, "geometry": {"type": "Point", "coordinates": [-70.92395782470703, 41.03016136993554]}}, {"type": "Feature", "properties": {"point_type": "turbine", "turbinemod": "SG 11.0-200 DD", "foundation": "Monopile (TP Less)", "water_dept": -43, "distance_to_shore": 27984, "tippecanoe_feature_density": 0}, "geometry": {"type": "Point", "coordinates": [-70.92361450195312, 41.013583900170545]}}, {"type": "Feature", "properties": {"point_type": "turbine", "turbinemod": "SG 11.0-200 DD", "foundation": "Monopile (TP Less)", "water_dept": -41, "distance_to_shore": 25655, "tippecanoe_feature_density": 0}, "geometry": {"type": "Point", "coordinates": [-70.90232849121094, 41.02990237906036]}}, {"type": "Feature", "properties": {"point_type": "turbine", "turbinemod": "SG 11.0-200 DD", "foundation": "Monopile (TP Less)", "water_dept": -45, "distance_to_shore": 27331, "tippecanoe_feature_density": 0}, "geometry": {"type": "Point", "coordinates": [-70.90164184570312, 41.013842955224646]}}, {"type": "Feature", "properties": {"point_type": "turbine", "turbinemod": "SG 11.0-200 DD", "foundation": "Monopile (TP Less)", "water_dept": -45, "distance_to_shore": 29709, "tippecanoe_feature_density": 0}, "geometry": {"type": "Point", "coordinates": [-70.92292785644531, 40.996743136661564]}}, {"type": "Feature", "properties": {"point_type": "turbine", "turbinemod": "SG 11.0-200 DD", "foundation": "Monopile (TP Less)", "water_dept": -47, "distance_to_shore": 29088, "tippecanoe_feature_density": 0}, "geometry": {"type": "Point", "coordinates": [-70.90095520019531, 40.99700225792665]}}, {"type": "Feature", "properties": {"point_type": "turbine", "turbinemod": "SG 11.0-200 DD", "foundation": "Monopile (TP Less)", "water_dept": -43, "distance_to_shore": 25007, "tippecanoe_feature_density": 0}, "geometry": {"type": "Point", "coordinates": [-70.88035583496094, 41.03093833644863]}}, {"type": "Feature", "properties": {"point_type": "turbine", "turbinemod": "SG 11.0-200 DD", "foundation": "Monopile (TP Less)", "water_dept": -45, "distance_to_shore": 26783, "tippecanoe_feature_density": 0}, "geometry": {"type": "Point", "coordinates": [-70.87966918945312, 41.014102009260114]}}, {"type": "Feature", "properties": {"point_type": "turbine", "turbinemod": "SG 11.0-200 DD", "foundation": "Monopile (TP Less)", "water_dept": -44, "distance_to_shore": 24526, "tippecanoe_feature_density": 0}, "geometry": {"type": "Point", "coordinates": [-70.85735321044922, 41.03119732324882]}}, {"type": "Feature", "properties": {"point_type": "turbine", "turbinemod": "SG 11.0-200 DD", "foundation": "Monopile (TP Less)", "water_dept": -44, "distance_to_shore": 26372, "tippecanoe_feature_density": 0}, "geometry": {"type": "Point", "coordinates": [-70.85872650146484, 41.01436106227686]}}, {"type": "Feature", "properties": {"point_type": "turbine", "turbinemod": "SG 11.0-200 DD", "foundation": "Monopile (TP Less)", "water_dept": -47, "distance_to_shore": 27895, "tippecanoe_feature_density": 0}, "geometry": {"type": "Point", "coordinates": [-70.83572387695312, 40.998038732801064]}}]}