{"type": "FeatureCollection", "features": [{"type": "Feature", "properties": {"point_type": "turbine", "turbinemod": "V90-3.0", "oem": "Vestas", "foundation": "Monopile", "water_dept": -5, "turbine_mw": 3, "distance_to_shore": 9089, "tippecanoe_feature_density": 0}, "geometry": {"type": "Point", "coordinates": [-3.7401580810546875, 54.75890660893873]}}, {"type": "Feature", "properties": {"point_type": "turbine", "turbinemod": "V90-3.0", "oem": "Vestas", "foundation": "Monopile", "water_dept": -6, "turbine_mw": 3, "distance_to_shore": 9324, "tippecanoe_feature_density": 0}, "geometry": {"type": "Point", "coordinates": [-3.7429046630859375, 54.75514246763021]}}, {"type": "Feature", "properties": {"point_type": "turbine", "turbinemod": "V90-3.0", "oem": "Vestas", "foundation": "Monopile", "water_dept": -5, "turbine_mw": 3, "distance_to_shore": 9725, "tippecanoe_feature_density": 0}, "geometry": {"type": "Point", "coordinates": [-3.7363815307617188, 54.75335933116352]}}, {"type": "Feature", "properties": {"point_type": "turbine", "turbinemod": "V90-3.0", "oem": "Vestas", "foundation": "Monopile", "water_dept": -5, "turbine_mw": 3, "distance_to_shore": 9977, "tippecanoe_feature_density": 0}, "geometry": {"type": "Point", "coordinates": [-3.7387847900390625, 54.749594674047216]}}, {"type": "Feature", "properties": {"point_type": "turbine", "turbinemod": "V90-3.0", "oem": "Vestas", "foundation": "Monopile", "water_dept": -4, "turbine_mw": 3, "distance_to_shore": 9460, "tippecanoe_feature_density": 0}, "geometry": {"type": "Point", "coordinates": [-3.7332916259765625, 54.75771797054759]}}, {"type": "Feature", "properties": {"point_type": "turbine", "turbinemod": "V90-3.0", "oem": "Vestas", "foundation": "Monopile", "water_dept": -3, "turbine_mw": 3, "distance_to_shore": 9909, "tippecanoe_feature_density": 0}, "geometry": {"type": "Point", "coordinates": [-3.7264251708984375, 54.75553870951322]}}, {"type": "Feature", "properties": {"point_type": "turbine", "turbinemod": "V90-3.0", "oem": "Vestas", "foundation": "Monopile", "water_dept": -6, "turbine_mw": 3, "distance_to_shore": 10144, "tippecanoe_feature_density": 0}, "geometry": {"type": "Point", "coordinates": [-3.7291717529296875, 54.75177425503989]}}, {"type": "Feature", "properties": {"point_type": "turbine", "turbinemod": "V90-3.0", "oem": "Vestas", "foundation": "Monopile", "water_dept": -5, "turbine_mw": 3, "distance_to_shore": 10318, "tippecanoe_feature_density": 0}, "geometry": {"type": "Point", "coordinates": [-3.7199020385742188, 54.75395371871184]}}, {"type": "Feature", "properties": {"point_type": "turbine", "turbinemod": "V90-3.0", "oem": "Vestas", "foundation": "Monopile", "water_dept": -4, "turbine_mw": 3, "distance_to_shore": 10536, "tippecanoe_feature_density": 0}, "geometry": {"type": "Point", "coordinates": [-3.7226486206054688, 54.750189116862344]}}, {"type": "Feature", "properties": {"point_type": "turbine", "turbinemod": "V90-3.0", "oem": "Vestas", "foundation": "Monopile", "water_dept": -5, "turbine_mw": 3, "distance_to_shore": 10718, "tippecanoe_feature_density": 0}, "geometry": {"type": "Point", "coordinates": [-3.71337890625, 54.75236866585814]}}, {"type": "Feature", "properties": {"point_type": "turbine", "turbinemod": "V90-3.0", "oem": "Vestas", "foundation": "Monopile", "water_dept": -4, "turbine_mw": 3, "distance_to_shore": 11154, "tippecanoe_feature_density": 0}, "geometry": {"type": "Point", "coordinates": [-3.706512451171875, 54.750783550950956]}}, {"type": "Feature", "properties": {"point_type": "turbine", "turbinemod": "V90-3.0", "oem": "Vestas", "foundation": "Monopile", "water_dept": -7, "turbine_mw": 3, "distance_to_shore": 10398, "tippecanoe_feature_density": 0}, "geometry": {"type": "Point", "coordinates": [-3.7319183349609375, 54.74781129324214]}}, {"type": "Feature", "properties": {"point_type": "turbine", "turbinemod": "V90-3.0", "oem": "Vestas", "foundation": "Monopile", "water_dept": -8, "turbine_mw": 3, "distance_to_shore": 10687, "tippecanoe_feature_density": 0}, "geometry": {"type": "Point", "coordinates": [-3.7346649169921875, 54.74364976592378]}}, {"type": "Feature", "properties": {"point_type": "turbine", "turbinemod": "V90-3.0", "oem": "Vestas", "foundation": "Monopile", "water_dept": -7, "turbine_mw": 3, "distance_to_shore": 10769, "tippecanoe_feature_density": 0}, "geometry": {"type": "Point", "coordinates": [-3.7253952026367188, 54.74642416498284]}}, {"type": "Feature", "properties": {"point_type": "turbine", "turbinemod": "V90-3.0", "oem": "Vestas", "foundation": "Monopile", "water_dept": -9, "turbine_mw": 3, "distance_to_shore": 11323, "tippecanoe_feature_density": 0}, "geometry": {"type": "Point", "coordinates": [-3.7308883666992188, 54.738298602437624]}}, {"type": "Feature", "properties": {"point_type": "turbine", "turbinemod": "V90-3.0", "oem": "Vestas", "foundation": "Monopile", "water_dept": -8, "turbine_mw": 3, "distance_to_shore": 11060, "tippecanoe_feature_density": 0}, "geometry": {"type": "Point", "coordinates": [-3.7281417846679688, 54.74206430970057]}}, {"type": "Feature", "properties": {"point_type": "turbine", "turbinemod": "V90-3.0", "oem": "Vestas", "foundation": "Monopile", "water_dept": -7, "turbine_mw": 3, "distance_to_shore": 10927, "tippecanoe_feature_density": 0}, "geometry": {"type": "Point", "coordinates": [-3.71612548828125, 54.74860391662958]}}, {"type": "Feature", "properties": {"point_type": "turbine", "turbinemod": "V90-3.0", "oem": "Vestas", "foundation": "Monopile", "water_dept": -7, "turbine_mw": 3, "distance_to_shore": 11152, "tippecanoe_feature_density": 0}, "geometry": {"type": "Point", "coordinates": [-3.7188720703125, 54.744838817364126]}}, {"type": "Feature", "properties": {"point_type": "turbine", "turbinemod": "V90-3.0", "oem": "Vestas", "foundation": "Monopile", "water_dept": -8, "turbine_mw": 3, "distance_to_shore": 11426, "tippecanoe_feature_density": 0}, "geometry": {"type": "Point", "coordinates": [-3.72161865234375, 54.740676984595524]}}, {"type": "Feature", "properties": {"point_type": "turbine", "turbinemod": "V90-3.0", "oem": "Vestas", "foundation": "Monopile", "water_dept": -5, "turbine_mw": 3, "distance_to_shore": 11804, "tippecanoe_feature_density": 0}, "geometry": {"type": "Point", "coordinates": [-3.714752197265625, 54.739289611973874]}}, {"type": "Feature", "properties": {"point_type": "turbine", "turbinemod": "V90-3.0", "oem": "Vestas", "foundation": "Monopile", "water_dept": -8, "turbine_mw": 3, "distance_to_shore": 11697, "tippecanoe_feature_density": 0}, "geometry": {"type": "Point", "coordinates": [-3.7240219116210938, 54.73671293675227]}}, {"type": "Feature", "properties": {"point_type": "turbine", "turbinemod": "V90-3.0", "oem": "Vestas", "foundation": "Monopile", "water_dept": -7, "turbine_mw": 3, "distance_to_shore": 12068, "tippecanoe_feature_density": 0}, "geometry": {"type": "Point", "coordinates": [-3.717498779296875, 54.73532542836449]}}, {"type": "Feature", "properties": {"point_type": "turbine", "turbinemod": "V90-3.0", "oem": "Vestas", "foundation": "Monopile", "water_dept": -5, "turbine_mw": 3, "distance_to_shore": 11342, "tippecanoe_feature_density": 0}, "geometry": {"type": "Point", "coordinates": [-3.709259033203125, 54.74701865434042]}}, {"type": "Feature", "properties": {"point_type": "turbine", "turbinemod": "V90-3.0", "oem": "Vestas", "foundation": "Monopile", "water_dept": -4, "turbine_mw": 3, "distance_to_shore": 11749, "tippecanoe_feature_density": 0}, "geometry": {"type": "Point", "coordinates": [-3.7030792236328125, 54.74543332999366]}}, {"type": "Feature", "properties": {"point_type": "turbine", "turbinemod": "V90-3.0", "oem": "Vestas", "foundation": "Monopile", "water_dept": -6, "turbine_mw": 3, "distance_to_shore": 11553, "tippecanoe_feature_density": 0}, "geometry": {"type": "Point", "coordinates": [-3.712005615234375, 54.743253407686154]}}, {"type": "Feature", "properties": {"point_type": "turbine", "turbinemod": "V90-3.0", "oem": "Vestas", "foundation": "Monopile", "water_dept": -4, "turbine_mw": 3, "distance_to_shore": 12192, "tippecanoe_feature_density": 0}, "geometry": {"type": "Point", "coordinates": [-3.7082290649414062, 54.73790219183485]}}, {"type": "Feature", "properties": {"point_type": "turbine", "turbinemod": "V90-3.0", "oem": "Vestas", "foundation": "Monopile", "water_dept": -5, "turbine_mw": 3, "distance_to_shore": 11963, "tippecanoe_feature_density": 0}, "geometry": {"type": "Point", "coordinates": [-3.7054824829101562, 54.741866123308995]}}, {"type": "Feature", "properties": {"point_type": "turbine", "turbinemod": "V90-3.0", "oem": "Vestas", "foundation": "Monopile", "water_dept": -4, "turbine_mw": 3, "distance_to_shore": 12170, "tippecanoe_feature_density": 0}, "geometry": {"type": "Point", "coordinates": [-3.6962127685546875, 54.743847943588065]}}, {"type": "Feature", "properties": {"point_type": "turbine", "turbinemod": "V90-3.0", "oem": "Vestas", "foundation": "Monopile", "water_dept": -3, "turbine_mw": 3, "distance_to_shore": 12221, "tippecanoe_feature_density": 0}, "geometry": {"type": "Point", "coordinates": [-3.6986160278320312, 54.740280597266576]}}, {"type": "Feature", "properties": {"point_type": "turbine", "turbinemod": "V90-3.0", "oem": "Vestas", "foundation": "Monopile", "water_dept": -4, "turbine_mw": 3, "distance_to_shore": 12288, "tippecanoe_feature_density": 0}, "geometry": {"type": "Point", "coordinates": [-3.7020492553710938, 54.736514724177624]}}]}