{"type": "FeatureCollection", "features": [{"type": "Feature", "properties": {"wf_develop": "JERA Nex bp/EnBW", "turbine_mo": "TBA", "fou_type": "Monopile", "cod": "2030-01-01T00:00:00", "wf_name": "Morgan", "status": "Consent Authorised", "no_turbine": 96, "country": "United Kingdom", "capacity_m": 1500, "wf_owners": "JERA Nex bp/EnBW", "tippecanoe_feature_density": 0}, "geometry": {"type": "Polygon", "coordinates": [[[-4.0244293212890625, 54.086180343329005], [-4.019279479980469, 54.0801384421747], [-4.0134429931640625, 54.07449854080156], [-4.001426696777344, 54.06603725188896], [-3.9959335327148438, 54.06281345016458], [-3.9863204956054688, 54.05817879674285], [-3.9777374267578125, 54.05495438499804], [-3.9691543579101562, 54.05213281941329], [-3.7895965576171875, 53.996266716639525], [-3.7871932983398438, 53.94295262623754], [-3.9691543579101562, 53.907574247113615], [-3.978424072265625, 53.91141677937139], [-4.065284729003906, 53.95164101082398], [-4.098243713378906, 53.953661305989016], [-4.2132568359375, 54.00797052383456], [-4.212913513183594, 54.008374044699565], [-4.201240539550781, 54.01624191953701], [-4.1933441162109375, 54.022293118620354], [-4.1912841796875, 54.02350325280864], [-4.1912841796875, 54.02334971204456], [-4.168968200683594, 54.03479614080686], [-4.1603851318359375, 54.03963501115783], [-4.146308898925781, 54.048303245326935], [-4.1363525390625, 54.05515591806443], [-4.1253662109375, 54.06361942405704], [-4.115409851074219, 54.07208120563024], [-4.0924072265625, 54.094033499868516], [-4.030265808105469, 54.09685221914697], [-4.028205871582031, 54.09242271714285], [-4.0244293212890625, 54.086180343329005]]]}}]}