{"type": "FeatureCollection", "features": [{"type": "Feature", "properties": {"wf_develop": "Barrow Offshore Wind Ltd", "turbine_mo": "V90-3.0", "fou_type": "Monopile", "wtg_hubhei": 75, "wtg_oem": "Vestas", "cod": "2006-07-01T00:00:00", "wf_name": "Barrow", "status": "Fully Commissioned", "no_turbine": 30, "country": "United Kingdom", "capacity_m": 90, "wf_owners": "Orsted", "tippecanoe_feature_density": 0}, "geometry": {"type": "Polygon", "coordinates": [[[-3.2605361938476562, 53.987789491482545], [-3.2859420776367188, 53.97103180422474], [-3.3312606811523438, 53.99505579013578], [-3.305511474609375, 54.01180381407852], [-3.2605361938476562, 53.987789491482545]]]}}]}