{"type": "FeatureCollection", "features": [{"type": "Feature", "properties": {"wf_develop": "Innogy", "turbine_mo": "SWT-3.6-107", "fou_type": "Monopile", "wtg_hubhei": 80, "wtg_oem": "Siemens Gamesa", "cod": "2009-12-01T00:00:00", "wf_name": "Rhyl Flats", "status": "Fully Commissioned", "no_turbine": 25, "country": "United Kingdom", "capacity_m": 90, "wf_owners": "Innogy/Green Investment Group/Greencoat UK Wind", "tippecanoe_feature_density": 0}, "geometry": {"type": "Polygon", "coordinates": [[[-3.6079788208007812, 53.38230446647319], [-3.6199951171875, 53.363255417589244], [-3.6924362182617188, 53.37964220838393], [-3.6869430541992188, 53.39029024207508], [-3.6591339111328125, 53.383942696411935], [-3.6539840698242188, 53.39254236949267], [-3.6079788208007812, 53.38230446647319]]]}}]}