{"type": "FeatureCollection", "features": [{"type": "Feature", "properties": {"point_type": "turbine", "turbinemod": "SWT-3.6-107", "oem": "Siemens", "foundation": "Monopile", "water_dept": -14, "turbine_mw": 3.6, "distance_to_shore": 9537, "tippecanoe_feature_density": 0}, "geometry": {"type": "Point", "coordinates": [-3.6859130859375, 53.3890617587129]}}, {"type": "Feature", "properties": {"point_type": "turbine", "turbinemod": "SWT-3.6-107", "oem": "Siemens", "foundation": "Monopile", "water_dept": -12, "turbine_mw": 3.6, "distance_to_shore": 9677, "tippecanoe_feature_density": 0}, "geometry": {"type": "Point", "coordinates": [-3.679046630859375, 53.387423725746345]}}, {"type": "Feature", "properties": {"point_type": "turbine", "turbinemod": "SWT-3.6-107", "oem": "Siemens", "foundation": "Monopile", "water_dept": -12, "turbine_mw": 3.6, "distance_to_shore": 9841, "tippecanoe_feature_density": 0}, "geometry": {"type": "Point", "coordinates": [-3.6718368530273438, 53.38578562974985]}}, {"type": "Feature", "properties": {"point_type": "turbine", "turbinemod": "SWT-3.6-107", "oem": "Siemens", "foundation": "Monopile", "water_dept": -11, "turbine_mw": 3.6, "distance_to_shore": 10027, "tippecanoe_feature_density": 0}, "geometry": {"type": "Point", "coordinates": [-3.6646270751953125, 53.3841474707223]}}, {"type": "Feature", "properties": {"point_type": "turbine", "turbinemod": "SWT-3.6-107", "oem": "Siemens", "foundation": "Monopile", "water_dept": -12, "turbine_mw": 3.6, "distance_to_shore": 11144, "tippecanoe_feature_density": 0}, "geometry": {"type": "Point", "coordinates": [-3.6529541015625, 53.39131395112784]}}, {"type": "Feature", "properties": {"point_type": "turbine", "turbinemod": "SWT-3.6-107", "oem": "Siemens", "foundation": "Monopile", "water_dept": -12, "turbine_mw": 3.6, "distance_to_shore": 11308, "tippecanoe_feature_density": 0}, "geometry": {"type": "Point", "coordinates": [-3.6457443237304688, 53.3896760048257]}}, {"type": "Feature", "properties": {"point_type": "turbine", "turbinemod": "SWT-3.6-107", "oem": "Siemens", "foundation": "Monopile", "water_dept": -12, "turbine_mw": 3.6, "distance_to_shore": 11115, "tippecanoe_feature_density": 0}, "geometry": {"type": "Point", "coordinates": [-3.6385345458984375, 53.38803799549507]}}, {"type": "Feature", "properties": {"point_type": "turbine", "turbinemod": "SWT-3.6-107", "oem": "Siemens", "foundation": "Monopile", "water_dept": -11, "turbine_mw": 3.6, "distance_to_shore": 10859, "tippecanoe_feature_density": 0}, "geometry": {"type": "Point", "coordinates": [-3.6313247680664062, 53.38660468562691]}}, {"type": "Feature", "properties": {"point_type": "turbine", "turbinemod": "SWT-3.6-107", "oem": "Siemens", "foundation": "Monopile", "water_dept": -11, "turbine_mw": 3.6, "distance_to_shore": 10522, "tippecanoe_feature_density": 0}, "geometry": {"type": "Point", "coordinates": [-3.624114990234375, 53.384966558115025]}}, {"type": "Feature", "properties": {"point_type": "turbine", "turbinemod": "SWT-3.6-107", "oem": "Siemens", "foundation": "Monopile", "water_dept": -12, "turbine_mw": 3.6, "distance_to_shore": 8572, "tippecanoe_feature_density": 0}, "geometry": {"type": "Point", "coordinates": [-3.6903762817382812, 53.380256590408976]}}, {"type": "Feature", "properties": {"point_type": "turbine", "turbinemod": "SWT-3.6-107", "oem": "Siemens", "foundation": "Monopile", "water_dept": -10, "turbine_mw": 3.6, "distance_to_shore": 8716, "tippecanoe_feature_density": 0}, "geometry": {"type": "Point", "coordinates": [-3.6838531494140625, 53.378823018561576]}}, {"type": "Feature", "properties": {"point_type": "turbine", "turbinemod": "SWT-3.6-107", "oem": "Siemens", "foundation": "Monopile", "water_dept": -10, "turbine_mw": 3.6, "distance_to_shore": 8882, "tippecanoe_feature_density": 0}, "geometry": {"type": "Point", "coordinates": [-3.67767333984375, 53.37738939845252]}}, {"type": "Feature", "properties": {"point_type": "turbine", "turbinemod": "SWT-3.6-107", "oem": "Siemens", "foundation": "Monopile", "water_dept": -10, "turbine_mw": 3.6, "distance_to_shore": 9068, "tippecanoe_feature_density": 0}, "geometry": {"type": "Point", "coordinates": [-3.6711502075195312, 53.375955730081074]}}, {"type": "Feature", "properties": {"point_type": "turbine", "turbinemod": "SWT-3.6-107", "oem": "Siemens", "foundation": "Monopile", "water_dept": -8, "turbine_mw": 3.6, "distance_to_shore": 9262, "tippecanoe_feature_density": 0}, "geometry": {"type": "Point", "coordinates": [-3.6646270751953125, 53.37431719284456]}}, {"type": "Feature", "properties": {"point_type": "turbine", "turbinemod": "SWT-3.6-107", "oem": "Siemens", "foundation": "Monopile", "water_dept": -10, "turbine_mw": 3.6, "distance_to_shore": 10350, "tippecanoe_feature_density": 0}, "geometry": {"type": "Point", "coordinates": [-3.6505508422851562, 53.381075752653544]}}, {"type": "Feature", "properties": {"point_type": "turbine", "turbinemod": "SWT-3.6-107", "oem": "Siemens", "foundation": "Monopile", "water_dept": -8, "turbine_mw": 3.6, "distance_to_shore": 9457, "tippecanoe_feature_density": 0}, "geometry": {"type": "Point", "coordinates": [-3.6581039428710938, 53.37288342105123]}}, {"type": "Feature", "properties": {"point_type": "turbine", "turbinemod": "SWT-3.6-107", "oem": "Siemens", "foundation": "Monopile", "water_dept": -8, "turbine_mw": 3.6, "distance_to_shore": 9291, "tippecanoe_feature_density": 0}, "geometry": {"type": "Point", "coordinates": [-3.651580810546875, 53.37144960099323]}}, {"type": "Feature", "properties": {"point_type": "turbine", "turbinemod": "SWT-3.6-107", "oem": "Siemens", "foundation": "Monopile", "water_dept": -9, "turbine_mw": 3.6, "distance_to_shore": 10160, "tippecanoe_feature_density": 0}, "geometry": {"type": "Point", "coordinates": [-3.6436843872070312, 53.379437412405736]}}, {"type": "Feature", "properties": {"point_type": "turbine", "turbinemod": "SWT-3.6-107", "oem": "Siemens", "foundation": "Monopile", "water_dept": -8, "turbine_mw": 3.6, "distance_to_shore": 9971, "tippecanoe_feature_density": 0}, "geometry": {"type": "Point", "coordinates": [-3.636474609375, 53.37779900912267]}}, {"type": "Feature", "properties": {"point_type": "turbine", "turbinemod": "SWT-3.6-107", "oem": "Siemens", "foundation": "Monopile", "water_dept": -8, "turbine_mw": 3.6, "distance_to_shore": 9748, "tippecanoe_feature_density": 0}, "geometry": {"type": "Point", "coordinates": [-3.629608154296875, 53.37636535454058]}}, {"type": "Feature", "properties": {"point_type": "turbine", "turbinemod": "SWT-3.6-107", "oem": "Siemens", "foundation": "Monopile", "water_dept": -7, "turbine_mw": 3.6, "distance_to_shore": 9116, "tippecanoe_feature_density": 0}, "geometry": {"type": "Point", "coordinates": [-3.6454010009765625, 53.37001573266983]}}, {"type": "Feature", "properties": {"point_type": "turbine", "turbinemod": "SWT-3.6-107", "oem": "Siemens", "foundation": "Monopile", "water_dept": -7, "turbine_mw": 3.6, "distance_to_shore": 8950, "tippecanoe_feature_density": 0}, "geometry": {"type": "Point", "coordinates": [-3.63922119140625, 53.36858181608028]}}, {"type": "Feature", "properties": {"point_type": "turbine", "turbinemod": "SWT-3.6-107", "oem": "Siemens", "foundation": "Monopile", "water_dept": -8, "turbine_mw": 3.6, "distance_to_shore": 9415, "tippecanoe_feature_density": 0}, "geometry": {"type": "Point", "coordinates": [-3.6223983764648438, 53.374726833063505]}}, {"type": "Feature", "properties": {"point_type": "turbine", "turbinemod": "SWT-3.6-107", "oem": "Siemens", "foundation": "Monopile", "water_dept": -7, "turbine_mw": 3.6, "distance_to_shore": 9082, "tippecanoe_feature_density": 0}, "geometry": {"type": "Point", "coordinates": [-3.6151885986328125, 53.3730882485481]}}, {"type": "Feature", "properties": {"point_type": "turbine", "turbinemod": "SWT-3.6-107", "oem": "Siemens", "foundation": "Monopile", "water_dept": -10, "turbine_mw": 3.6, "distance_to_shore": 9849, "tippecanoe_feature_density": 0}, "geometry": {"type": "Point", "coordinates": [-3.6100387573242188, 53.381690113995404]}}]}