{"type": "FeatureCollection", "features": [{"type": "Feature", "properties": {"point_type": "turbine", "turbinemod": "SWT-6.0-154", "foundation": "Floating: Spar Floater - Steel", "oem": "Siemens Gamesa", "water_dept": -98, "item": "Anchor", "turbine_mw": 6, "distance_to_shore": 42387}, "geometry": {"type": "Point", "coordinates": [-1.38153076171875, 57.50254457048251]}}, {"type": "Feature", "properties": {"point_type": "turbine", "turbinemod": "SWT-6.0-154", "foundation": "Floating: Spar Floater", "oem": "Siemens Gamesa", "water_dept": -101, "item": "WTG", "turbine_mw": 6, "distance_to_shore": 43347}, "geometry": {"type": "Point", "coordinates": [-1.37054443359375, 57.49664155489023]}}, {"type": "Feature", "properties": {"point_type": "turbine", "turbinemod": "SWT-6.0-154", "foundation": "Floating: Spar Floater - Steel", "oem": "Siemens Gamesa", "water_dept": -101, "item": "Anchor", "turbine_mw": 6, "distance_to_shore": 41952}, "geometry": {"type": "Point", "coordinates": [-1.38427734375, 57.487785241472324]}}, {"type": "Feature", "properties": {"point_type": "turbine", "turbinemod": "SWT-6.0-154", "foundation": "Floating: Spar Floater - Steel", "oem": "Siemens Gamesa", "water_dept": -102, "item": "Anchor", "turbine_mw": 6, "distance_to_shore": 42811}, "geometry": {"type": "Point", "coordinates": [-1.37603759765625, 57.490737584630835]}}, {"type": "Feature", "properties": {"point_type": "turbine", "turbinemod": "SWT-6.0-154", "foundation": "Floating: Spar Floater", "oem": "Siemens Gamesa", "water_dept": -103, "item": "WTG", "turbine_mw": 6, "distance_to_shore": 43149}, "geometry": {"type": "Point", "coordinates": [-1.373291015625, 57.484832659612636]}}, {"type": "Feature", "properties": {"point_type": "turbine", "turbinemod": "SWT-6.0-154", "foundation": "Floating: Spar Floater - Steel", "oem": "Siemens Gamesa", "water_dept": -105, "item": "Anchor", "turbine_mw": 6, "distance_to_shore": 44090}, "geometry": {"type": "Point", "coordinates": [-1.3623046875, 57.481879839040374]}}, {"type": "Feature", "properties": {"point_type": "turbine", "turbinemod": "SWT-6.0-154", "foundation": "Floating: Spar Floater - Steel", "oem": "Siemens Gamesa", "water_dept": -104, "item": "Anchor", "turbine_mw": 6, "distance_to_shore": 43084}, "geometry": {"type": "Point", "coordinates": [-1.373291015625, 57.477450160570726]}}, {"type": "Feature", "properties": {"point_type": "turbine", "turbinemod": "SWT-6.0-154", "foundation": "Floating: Spar Floater - Steel", "oem": "Siemens Gamesa", "water_dept": -104, "item": "Anchor", "turbine_mw": 6, "distance_to_shore": 44778}, "geometry": {"type": "Point", "coordinates": [-1.35955810546875, 57.49811739828479]}}, {"type": "Feature", "properties": {"point_type": "turbine", "turbinemod": "SWT-6.0-154", "foundation": "Floating: Spar Floater - Steel", "oem": "Siemens Gamesa", "water_dept": -104, "item": "Anchor", "turbine_mw": 6, "distance_to_shore": 44754}, "geometry": {"type": "Point", "coordinates": [-1.35955810546875, 57.49516565182901]}}, {"type": "Feature", "properties": {"point_type": "turbine", "turbinemod": "SWT-6.0-154", "foundation": "Floating: Spar Floater - Steel", "oem": "Siemens Gamesa", "water_dept": -105, "item": "Anchor", "turbine_mw": 6, "distance_to_shore": 44521}, "geometry": {"type": "Point", "coordinates": [-1.35955810546875, 57.487785241472324]}}, {"type": "Feature", "properties": {"point_type": "turbine", "turbinemod": "SWT-6.0-154", "foundation": "Floating: Spar Floater", "oem": "Siemens Gamesa", "water_dept": -107, "item": "WTG", "turbine_mw": 6, "distance_to_shore": 45485}, "geometry": {"type": "Point", "coordinates": [-1.351318359375, 57.490737584630835]}}, {"type": "Feature", "properties": {"point_type": "turbine", "turbinemod": "SWT-6.0-154", "foundation": "Floating: Spar Floater - Steel", "oem": "Siemens Gamesa", "water_dept": -106, "item": "Anchor", "turbine_mw": 6, "distance_to_shore": 44890}, "geometry": {"type": "Point", "coordinates": [-1.3568115234375, 57.484832659612636]}}, {"type": "Feature", "properties": {"point_type": "turbine", "turbinemod": "SWT-6.0-154", "foundation": "Floating: Spar Floater - Steel", "oem": "Siemens Gamesa", "water_dept": -111, "item": "Anchor", "turbine_mw": 6, "distance_to_shore": 46597}, "geometry": {"type": "Point", "coordinates": [-1.34033203125, 57.481879839040374]}}, {"type": "Feature", "properties": {"point_type": "turbine", "turbinemod": "SWT-6.0-154", "foundation": "Floating: Spar Floater", "oem": "Siemens Gamesa", "water_dept": -108, "item": "WTG", "turbine_mw": 6, "distance_to_shore": 45293}, "geometry": {"type": "Point", "coordinates": [-1.351318359375, 57.478926779744]}}, {"type": "Feature", "properties": {"point_type": "turbine", "turbinemod": "SWT-6.0-154", "foundation": "Floating: Spar Floater - Steel", "oem": "Siemens Gamesa", "water_dept": -109, "item": "Anchor", "turbine_mw": 6, "distance_to_shore": 45249}, "geometry": {"type": "Point", "coordinates": [-1.35406494140625, 57.47154308701013]}}, {"type": "Feature", "properties": {"point_type": "turbine", "turbinemod": "SWT-6.0-154", "foundation": "Floating: Spar Floater - Steel", "oem": "Siemens Gamesa", "water_dept": -109, "item": "Anchor", "turbine_mw": 6, "distance_to_shore": 46920}, "geometry": {"type": "Point", "coordinates": [-1.34033203125, 57.492213666700735]}}, {"type": "Feature", "properties": {"point_type": "turbine", "turbinemod": "SWT-6.0-154", "foundation": "Floating: Spar Floater - Steel", "oem": "Siemens Gamesa", "water_dept": -110, "item": "Anchor", "turbine_mw": 6, "distance_to_shore": 46792}, "geometry": {"type": "Point", "coordinates": [-1.34033203125, 57.489261442888505]}}, {"type": "Feature", "properties": {"point_type": "turbine", "turbinemod": "SWT-6.0-154", "foundation": "Floating: Spar Floater", "oem": "Siemens Gamesa", "water_dept": -113, "item": "WTG", "turbine_mw": 6, "distance_to_shore": 47592}, "geometry": {"type": "Point", "coordinates": [-1.33209228515625, 57.484832659612636]}}, {"type": "Feature", "properties": {"point_type": "turbine", "turbinemod": "SWT-6.0-154", "foundation": "Floating: Spar Floater - Steel", "oem": "Siemens Gamesa", "water_dept": -113, "item": "Anchor", "turbine_mw": 6, "distance_to_shore": 47066}, "geometry": {"type": "Point", "coordinates": [-1.33758544921875, 57.477450160570726]}}, {"type": "Feature", "properties": {"point_type": "turbine", "turbinemod": "SWT-6.0-154", "foundation": "Floating: Spar Floater - Steel", "oem": "Siemens Gamesa", "water_dept": -115, "item": "Anchor", "turbine_mw": 6, "distance_to_shore": 49208}, "geometry": {"type": "Point", "coordinates": [-1.318359375, 57.484832659612636]}}, {"type": "Feature", "properties": {"point_type": "turbine", "turbinemod": "SWT-6.0-154", "foundation": "Floating: Spar Floater - Steel", "oem": "Siemens Gamesa", "water_dept": -98, "item": "Anchor", "turbine_mw": 6, "distance_to_shore": 42387}, "geometry": {"type": "Point", "coordinates": [-1.380157470703125, 57.50254457048251]}}, {"type": "Feature", "properties": {"point_type": "turbine", "turbinemod": "SWT-6.0-154", "foundation": "Floating: Spar Floater", "oem": "Siemens Gamesa", "water_dept": -101, "item": "WTG", "turbine_mw": 6, "distance_to_shore": 43347}, "geometry": {"type": "Point", "coordinates": [-1.371917724609375, 57.49737948404575]}}, {"type": "Feature", "properties": {"point_type": "turbine", "turbinemod": "SWT-6.0-154", "foundation": "Floating: Spar Floater - Steel", "oem": "Siemens Gamesa", "water_dept": -101, "item": "Anchor", "turbine_mw": 6, "distance_to_shore": 41952}, "geometry": {"type": "Point", "coordinates": [-1.382904052734375, 57.488523349639735]}}, {"type": "Feature", "properties": {"point_type": "turbine", "turbinemod": "SWT-6.0-154", "foundation": "Floating: Spar Floater - Steel", "oem": "Siemens Gamesa", "water_dept": -102, "item": "Anchor", "turbine_mw": 6, "distance_to_shore": 42811}, "geometry": {"type": "Point", "coordinates": [-1.37603759765625, 57.489999521218806]}}, {"type": "Feature", "properties": {"point_type": "turbine", "turbinemod": "SWT-6.0-154", "foundation": "Floating: Spar Floater", "oem": "Siemens Gamesa", "water_dept": -103, "item": "WTG", "turbine_mw": 6, "distance_to_shore": 43149}, "geometry": {"type": "Point", "coordinates": [-1.371917724609375, 57.484832659612636]}}, {"type": "Feature", "properties": {"point_type": "turbine", "turbinemod": "SWT-6.0-154", "foundation": "Floating: Spar Floater - Steel", "oem": "Siemens Gamesa", "water_dept": -105, "item": "Anchor", "turbine_mw": 6, "distance_to_shore": 44090}, "geometry": {"type": "Point", "coordinates": [-1.363677978515625, 57.481879839040374]}}, {"type": "Feature", "properties": {"point_type": "turbine", "turbinemod": "SWT-6.0-154", "foundation": "Floating: Spar Floater - Steel", "oem": "Siemens Gamesa", "water_dept": -104, "item": "Anchor", "turbine_mw": 6, "distance_to_shore": 43084}, "geometry": {"type": "Point", "coordinates": [-1.371917724609375, 57.477450160570726]}}, {"type": "Feature", "properties": {"point_type": "turbine", "turbinemod": "SWT-6.0-154", "foundation": "Floating: Spar Floater - Steel", "oem": "Siemens Gamesa", "water_dept": -104, "item": "Anchor", "turbine_mw": 6, "distance_to_shore": 44778}, "geometry": {"type": "Point", "coordinates": [-1.358184814453125, 57.49885529760746]}}, {"type": "Feature", "properties": {"point_type": "turbine", "turbinemod": "SWT-6.0-154", "foundation": "Floating: Spar Floater - Steel", "oem": "Siemens Gamesa", "water_dept": -104, "item": "Anchor", "turbine_mw": 6, "distance_to_shore": 44754}, "geometry": {"type": "Point", "coordinates": [-1.35955810546875, 57.49590361081803]}}, {"type": "Feature", "properties": {"point_type": "turbine", "turbinemod": "SWT-6.0-154", "foundation": "Floating: Spar Floater - Steel", "oem": "Siemens Gamesa", "water_dept": -105, "item": "Anchor", "turbine_mw": 6, "distance_to_shore": 44521}, "geometry": {"type": "Point", "coordinates": [-1.360931396484375, 57.488523349639735]}}, {"type": "Feature", "properties": {"point_type": "turbine", "turbinemod": "SWT-6.0-154", "foundation": "Floating: Spar Floater", "oem": "Siemens Gamesa", "water_dept": -108, "item": "WTG", "turbine_mw": 6, "distance_to_shore": 45293}, "geometry": {"type": "Point", "coordinates": [-1.352691650390625, 57.47818847761795]}}, {"type": "Feature", "properties": {"point_type": "turbine", "turbinemod": "SWT-6.0-154", "foundation": "Floating: Spar Floater - Steel", "oem": "Siemens Gamesa", "water_dept": -109, "item": "Anchor", "turbine_mw": 6, "distance_to_shore": 45249}, "geometry": {"type": "Point", "coordinates": [-1.352691650390625, 57.470804635664535]}}, {"type": "Feature", "properties": {"point_type": "turbine", "turbinemod": "SWT-6.0-154", "foundation": "Floating: Spar Floater - Steel", "oem": "Siemens Gamesa", "water_dept": -109, "item": "Anchor", "turbine_mw": 6, "distance_to_shore": 46920}, "geometry": {"type": "Point", "coordinates": [-1.338958740234375, 57.491475633124736]}}, {"type": "Feature", "properties": {"point_type": "turbine", "turbinemod": "SWT-6.0-154", "foundation": "Floating: Spar Floater", "oem": "Siemens Gamesa", "water_dept": -113, "item": "WTG", "turbine_mw": 6, "distance_to_shore": 47592}, "geometry": {"type": "Point", "coordinates": [-1.33209228515625, 57.48409447684932]}}, {"type": "Feature", "properties": {"point_type": "turbine", "turbinemod": "SWT-6.0-154", "foundation": "Floating: Spar Floater - Steel", "oem": "Siemens Gamesa", "water_dept": -113, "item": "Anchor", "turbine_mw": 6, "distance_to_shore": 47066}, "geometry": {"type": "Point", "coordinates": [-1.336212158203125, 57.47818847761795]}}, {"type": "Feature", "properties": {"point_type": "turbine", "turbinemod": "SWT-6.0-154", "foundation": "Floating: Spar Floater - Steel", "oem": "Siemens Gamesa", "water_dept": -115, "item": "Anchor", "turbine_mw": 6, "distance_to_shore": 49208}, "geometry": {"type": "Point", "coordinates": [-1.318359375, 57.48557082745643]}}]}