{"type": "FeatureCollection", "features": [{"type": "Feature", "properties": {"point_type": "turbine", "turbinemod": "SG 8.0-167 DD", "oem": "Siemens", "foundation": "Jacket (Drilled Piles)", "water_dept": -56, "turbine_mw": 8, "distance_to_shore": 15264, "tippecanoe_feature_density": 0}, "geometry": {"type": "Point", "coordinates": [-2.33184814453125, 56.29368089320704]}}, {"type": "Feature", "properties": {"point_type": "turbine", "turbinemod": "SG 8.0-167 DD", "oem": "Siemens", "foundation": "Jacket (Drilled Piles)", "water_dept": -54, "turbine_mw": 8, "distance_to_shore": 15071, "tippecanoe_feature_density": 0}, "geometry": {"type": "Point", "coordinates": [-2.3345947265625, 56.27538638366184]}}, {"type": "Feature", "properties": {"point_type": "turbine", "turbinemod": "SG 8.0-167 DD", "oem": "Siemens", "foundation": "Jacket (Drilled Piles)", "water_dept": -55, "turbine_mw": 8, "distance_to_shore": 16828, "tippecanoe_feature_density": 0}, "geometry": {"type": "Point", "coordinates": [-2.30987548828125, 56.30891963174031]}}, {"type": "Feature", "properties": {"point_type": "turbine", "turbinemod": "SG 8.0-167 DD", "oem": "Siemens", "foundation": "Jacket (Drilled Piles)", "water_dept": -50, "turbine_mw": 8, "distance_to_shore": 17217, "tippecanoe_feature_density": 0}, "geometry": {"type": "Point", "coordinates": [-2.3016357421875, 56.30282486562152]}}, {"type": "Feature", "properties": {"point_type": "turbine", "turbinemod": "SG 8.0-167 DD", "oem": "Siemens", "foundation": "Jacket (Drilled Piles)", "water_dept": -56, "turbine_mw": 8, "distance_to_shore": 15596, "tippecanoe_feature_density": 1}, "geometry": {"type": "Point", "coordinates": [-2.32635498046875, 56.284534732650656]}}, {"type": "Feature", "properties": {"point_type": "turbine", "turbinemod": "SG 8.0-167 DD", "oem": "Siemens", "foundation": "Jacket (Drilled Piles)", "water_dept": -53, "turbine_mw": 8, "distance_to_shore": 16867, "tippecanoe_feature_density": 1}, "geometry": {"type": "Point", "coordinates": [-2.30438232421875, 56.28605924471003]}}, {"type": "Feature", "properties": {"point_type": "turbine", "turbinemod": "SG 8.0-167 DD", "oem": "Siemens", "foundation": "Jacket (Drilled Piles)", "water_dept": -51, "turbine_mw": 8, "distance_to_shore": 17269, "tippecanoe_feature_density": 1}, "geometry": {"type": "Point", "coordinates": [-2.29888916015625, 56.27843607650186]}}, {"type": "Feature", "properties": {"point_type": "turbine", "turbinemod": "SG 8.0-167 DD", "oem": "Siemens", "foundation": "Jacket (Drilled Piles)", "water_dept": -54, "turbine_mw": 8, "distance_to_shore": 15775, "tippecanoe_feature_density": 0}, "geometry": {"type": "Point", "coordinates": [-2.3236083984375, 56.25860872570695]}}, {"type": "Feature", "properties": {"point_type": "turbine", "turbinemod": "SG 8.0-167 DD", "oem": "Siemens", "foundation": "Jacket (Drilled Piles)", "water_dept": -54, "turbine_mw": 8, "distance_to_shore": 16790, "tippecanoe_feature_density": 0}, "geometry": {"type": "Point", "coordinates": [-2.30987548828125, 56.25250593489298]}}, {"type": "Feature", "properties": {"point_type": "turbine", "turbinemod": "SG 8.0-167 DD", "oem": "Siemens", "foundation": "Jacket (Drilled Piles)", "water_dept": -50, "turbine_mw": 8, "distance_to_shore": 17058, "tippecanoe_feature_density": 2}, "geometry": {"type": "Point", "coordinates": [-2.30712890625, 56.24487607796053]}}, {"type": "Feature", "properties": {"point_type": "turbine", "turbinemod": "SG 8.0-167 DD", "oem": "Siemens", "foundation": "Jacket (Drilled Piles)", "water_dept": -50, "turbine_mw": 8, "distance_to_shore": 18104, "tippecanoe_feature_density": 2}, "geometry": {"type": "Point", "coordinates": [-2.28790283203125, 56.24945417458338]}}, {"type": "Feature", "properties": {"point_type": "turbine", "turbinemod": "SG 8.0-167 DD", "oem": "Siemens", "foundation": "Jacket (Drilled Piles)", "water_dept": -48, "turbine_mw": 8, "distance_to_shore": 17934, "tippecanoe_feature_density": 0}, "geometry": {"type": "Point", "coordinates": [-2.296142578125, 56.235718242411394]}}, {"type": "Feature", "properties": {"point_type": "turbine", "turbinemod": "SG 8.0-167 DD", "oem": "Siemens", "foundation": "Jacket (Drilled Piles)", "water_dept": -47, "turbine_mw": 8, "distance_to_shore": 18761, "tippecanoe_feature_density": 0}, "geometry": {"type": "Point", "coordinates": [-2.28790283203125, 56.2280850398987]}}, {"type": "Feature", "properties": {"point_type": "turbine", "turbinemod": "SG 8.0-167 DD", "oem": "Siemens", "foundation": "Jacket (Drilled Piles)", "water_dept": -54, "turbine_mw": 8, "distance_to_shore": 21316, "tippecanoe_feature_density": 0}, "geometry": {"type": "Point", "coordinates": [-2.2467041015625, 56.33176634591226]}}, {"type": "Feature", "properties": {"point_type": "turbine", "turbinemod": "SG 8.0-167 DD", "oem": "Siemens", "foundation": "Jacket (Drilled Piles)", "water_dept": -54, "turbine_mw": 8, "distance_to_shore": 21576, "tippecanoe_feature_density": 0}, "geometry": {"type": "Point", "coordinates": [-2.23846435546875, 56.3241522934475]}}, {"type": "Feature", "properties": {"point_type": "turbine", "turbinemod": "SG 8.0-167 DD", "oem": "Siemens", "foundation": "Jacket (Drilled Piles)", "water_dept": -52, "turbine_mw": 8, "distance_to_shore": 21854, "tippecanoe_feature_density": 0}, "geometry": {"type": "Point", "coordinates": [-2.230224609375, 56.31805995789756]}}, {"type": "Feature", "properties": {"point_type": "turbine", "turbinemod": "SG 8.0-167 DD", "oem": "Siemens", "foundation": "Jacket (Drilled Piles)", "water_dept": -51, "turbine_mw": 8, "distance_to_shore": 19060, "tippecanoe_feature_density": 1}, "geometry": {"type": "Point", "coordinates": [-2.274169921875, 56.31349006825792]}}, {"type": "Feature", "properties": {"point_type": "turbine", "turbinemod": "SG 8.0-167 DD", "oem": "Siemens", "foundation": "Jacket (Drilled Piles)", "water_dept": -54, "turbine_mw": 8, "distance_to_shore": 20657, "tippecanoe_feature_density": 1}, "geometry": {"type": "Point", "coordinates": [-2.24945068359375, 56.31501342556692]}}, {"type": "Feature", "properties": {"point_type": "turbine", "turbinemod": "SG 8.0-167 DD", "oem": "Siemens", "foundation": "Jacket (Drilled Piles)", "water_dept": -47, "turbine_mw": 8, "distance_to_shore": 19854, "tippecanoe_feature_density": 1}, "geometry": {"type": "Point", "coordinates": [-2.2576904296875, 56.296729127124394]}}, {"type": "Feature", "properties": {"point_type": "turbine", "turbinemod": "SG 8.0-167 DD", "oem": "Siemens", "foundation": "Jacket (Drilled Piles)", "water_dept": -51, "turbine_mw": 8, "distance_to_shore": 19122, "tippecanoe_feature_density": 1}, "geometry": {"type": "Point", "coordinates": [-2.2686767578125, 56.28910808646475]}}, {"type": "Feature", "properties": {"point_type": "turbine", "turbinemod": "SG 8.0-167 DD", "oem": "Siemens", "foundation": "Jacket (Drilled Piles)", "water_dept": -49, "turbine_mw": 8, "distance_to_shore": 18889, "tippecanoe_feature_density": 1}, "geometry": {"type": "Point", "coordinates": [-2.27142333984375, 56.27233644763041]}}, {"type": "Feature", "properties": {"point_type": "turbine", "turbinemod": "SG 8.0-167 DD", "oem": "Siemens", "foundation": "Jacket (Drilled Piles)", "water_dept": -52, "turbine_mw": 8, "distance_to_shore": 19568, "tippecanoe_feature_density": 1}, "geometry": {"type": "Point", "coordinates": [-2.26043701171875, 56.28148552616122]}}, {"type": "Feature", "properties": {"point_type": "turbine", "turbinemod": "SG 8.0-167 DD", "oem": "Siemens", "foundation": "Jacket (Drilled Piles)", "water_dept": -52, "turbine_mw": 8, "distance_to_shore": 20309, "tippecanoe_feature_density": 5}, "geometry": {"type": "Point", "coordinates": [-2.24945068359375, 56.28910808646475]}}, {"type": "Feature", "properties": {"point_type": "turbine", "turbinemod": "SG 8.0-167 DD", "oem": "Siemens", "foundation": "Jacket (Drilled Piles)", "water_dept": -51, "turbine_mw": 8, "distance_to_shore": 22179, "tippecanoe_feature_density": 5}, "geometry": {"type": "Point", "coordinates": [-2.22198486328125, 56.31044317134601]}}, {"type": "Feature", "properties": {"point_type": "turbine", "turbinemod": "SG 8.0-167 DD", "oem": "Siemens", "foundation": "Jacket (Drilled Piles)", "water_dept": -51, "turbine_mw": 8, "distance_to_shore": 22537, "tippecanoe_feature_density": 0}, "geometry": {"type": "Point", "coordinates": [-2.21649169921875, 56.30282486562152]}}, {"type": "Feature", "properties": {"point_type": "turbine", "turbinemod": "SG 8.0-167 DD", "oem": "Siemens", "foundation": "Jacket (Drilled Piles)", "water_dept": -51, "turbine_mw": 8, "distance_to_shore": 22932, "tippecanoe_feature_density": 0}, "geometry": {"type": "Point", "coordinates": [-2.208251953125, 56.29520504055591]}}, {"type": "Feature", "properties": {"point_type": "turbine", "turbinemod": "SG 8.0-167 DD", "oem": "Siemens", "foundation": "Jacket (Drilled Piles)", "water_dept": -50, "turbine_mw": 8, "distance_to_shore": 22134, "tippecanoe_feature_density": 2}, "geometry": {"type": "Point", "coordinates": [-2.21923828125, 56.284534732650656]}}, {"type": "Feature", "properties": {"point_type": "turbine", "turbinemod": "SG 8.0-167 DD", "oem": "Siemens", "foundation": "Jacket (Drilled Piles)", "water_dept": -53, "turbine_mw": 8, "distance_to_shore": 23364, "tippecanoe_feature_density": 2}, "geometry": {"type": "Point", "coordinates": [-2.20001220703125, 56.28758369598094]}}, {"type": "Feature", "properties": {"point_type": "turbine", "turbinemod": "SG 8.0-167 DD", "oem": "Siemens", "foundation": "Jacket (Drilled Piles)", "water_dept": -49, "turbine_mw": 8, "distance_to_shore": 22603, "tippecanoe_feature_density": 1}, "geometry": {"type": "Point", "coordinates": [-2.21099853515625, 56.27691126048012]}}, {"type": "Feature", "properties": {"point_type": "turbine", "turbinemod": "SG 8.0-167 DD", "oem": "Siemens", "foundation": "Jacket (Drilled Piles)", "water_dept": -49, "turbine_mw": 8, "distance_to_shore": 23081, "tippecanoe_feature_density": 1}, "geometry": {"type": "Point", "coordinates": [-2.20550537109375, 56.269286268396826]}}, {"type": "Feature", "properties": {"point_type": "turbine", "turbinemod": "SG 8.0-167 DD", "oem": "Siemens", "foundation": "Jacket (Drilled Piles)", "water_dept": -52, "turbine_mw": 8, "distance_to_shore": 23844, "tippecanoe_feature_density": 0}, "geometry": {"type": "Point", "coordinates": [-2.1917724609375, 56.27843607650186]}}, {"type": "Feature", "properties": {"point_type": "turbine", "turbinemod": "SG 8.0-167 DD", "oem": "Siemens", "foundation": "Jacket (Drilled Piles)", "water_dept": -52, "turbine_mw": 8, "distance_to_shore": 24360, "tippecanoe_feature_density": 0}, "geometry": {"type": "Point", "coordinates": [-2.18353271484375, 56.27081138841456]}}, {"type": "Feature", "properties": {"point_type": "turbine", "turbinemod": "SG 8.0-167 DD", "oem": "Siemens", "foundation": "Jacket (Drilled Piles)", "water_dept": -51, "turbine_mw": 8, "distance_to_shore": 18261, "tippecanoe_feature_density": 0}, "geometry": {"type": "Point", "coordinates": [-2.28240966796875, 56.26471054351882]}}, {"type": "Feature", "properties": {"point_type": "turbine", "turbinemod": "SG 8.0-167 DD", "oem": "Siemens", "foundation": "Jacket (Drilled Piles)", "water_dept": -51, "turbine_mw": 8, "distance_to_shore": 19418, "tippecanoe_feature_density": 0}, "geometry": {"type": "Point", "coordinates": [-2.26318359375, 56.26623584595029]}}, {"type": "Feature", "properties": {"point_type": "turbine", "turbinemod": "SG 8.0-167 DD", "oem": "Siemens", "foundation": "Jacket (Drilled Piles)", "water_dept": -50, "turbine_mw": 8, "distance_to_shore": 20570, "tippecanoe_feature_density": 1}, "geometry": {"type": "Point", "coordinates": [-2.24395751953125, 56.26776108757582]}}, {"type": "Feature", "properties": {"point_type": "turbine", "turbinemod": "SG 8.0-167 DD", "oem": "Siemens", "foundation": "Jacket (Drilled Piles)", "water_dept": -47, "turbine_mw": 8, "distance_to_shore": 19434, "tippecanoe_feature_density": 1}, "geometry": {"type": "Point", "coordinates": [-2.27142333984375, 56.235718242411394]}}, {"type": "Feature", "properties": {"point_type": "turbine", "turbinemod": "SG 8.0-167 DD", "oem": "Siemens", "foundation": "Jacket (Drilled Piles)", "water_dept": -49, "turbine_mw": 8, "distance_to_shore": 19507, "tippecanoe_feature_density": 1}, "geometry": {"type": "Point", "coordinates": [-2.2796630859375, 56.220450316399564]}}, {"type": "Feature", "properties": {"point_type": "turbine", "turbinemod": "SG 8.0-167 DD", "oem": "Siemens", "foundation": "Jacket (Drilled Piles)", "water_dept": -45, "turbine_mw": 8, "distance_to_shore": 20176, "tippecanoe_feature_density": 1}, "geometry": {"type": "Point", "coordinates": [-2.26318359375, 56.2280850398987]}}, {"type": "Feature", "properties": {"point_type": "turbine", "turbinemod": "SG 8.0-167 DD", "oem": "Siemens", "foundation": "Jacket (Drilled Piles)", "water_dept": -46, "turbine_mw": 8, "distance_to_shore": 20801, "tippecanoe_feature_density": 2}, "geometry": {"type": "Point", "coordinates": [-2.24945068359375, 56.23419172357973]}}, {"type": "Feature", "properties": {"point_type": "turbine", "turbinemod": "SG 8.0-167 DD", "oem": "Siemens", "foundation": "Jacket (Drilled Piles)", "water_dept": -50, "turbine_mw": 8, "distance_to_shore": 22889, "tippecanoe_feature_density": 0}, "geometry": {"type": "Point", "coordinates": [-2.21099853515625, 56.25250593489298]}}, {"type": "Feature", "properties": {"point_type": "turbine", "turbinemod": "SG 8.0-167 DD", "oem": "Siemens", "foundation": "Jacket (Drilled Piles)", "water_dept": -50, "turbine_mw": 8, "distance_to_shore": 23488, "tippecanoe_feature_density": 0}, "geometry": {"type": "Point", "coordinates": [-2.2027587890625, 56.24640217099105]}}, {"type": "Feature", "properties": {"point_type": "turbine", "turbinemod": "SG 8.0-167 DD", "oem": "Siemens", "foundation": "Jacket (Drilled Piles)", "water_dept": -47, "turbine_mw": 8, "distance_to_shore": 21890, "tippecanoe_feature_density": 3}, "geometry": {"type": "Point", "coordinates": [-2.230224609375, 56.235718242411394]}}, {"type": "Feature", "properties": {"point_type": "turbine", "turbinemod": "SG 8.0-167 DD", "oem": "Siemens", "foundation": "Jacket (Drilled Piles)", "water_dept": -46, "turbine_mw": 8, "distance_to_shore": 22554, "tippecanoe_feature_density": 3}, "geometry": {"type": "Point", "coordinates": [-2.2247314453125, 56.2296118020748]}}, {"type": "Feature", "properties": {"point_type": "turbine", "turbinemod": "SG 8.0-167 DD", "oem": "Siemens", "foundation": "Jacket (Drilled Piles)", "water_dept": -48, "turbine_mw": 8, "distance_to_shore": 20285, "tippecanoe_feature_density": 0}, "geometry": {"type": "Point", "coordinates": [-2.27142333984375, 56.2143414423775]}}, {"type": "Feature", "properties": {"point_type": "turbine", "turbinemod": "SG 8.0-167 DD", "oem": "Siemens", "foundation": "Jacket (Drilled Piles)", "water_dept": -49, "turbine_mw": 8, "distance_to_shore": 21519, "tippecanoe_feature_density": 0}, "geometry": {"type": "Point", "coordinates": [-2.24945068359375, 56.21281407174655]}}, {"type": "Feature", "properties": {"point_type": "turbine", "turbinemod": "SG 8.0-167 DD", "oem": "Siemens", "foundation": "Jacket (Drilled Piles)", "water_dept": -52, "turbine_mw": 8, "distance_to_shore": 24007, "tippecanoe_feature_density": 0}, "geometry": {"type": "Point", "coordinates": [-2.208251953125, 56.2143414423775]}}, {"type": "Feature", "properties": {"point_type": "turbine", "turbinemod": "SG 8.0-167 DD", "oem": "Siemens", "foundation": "Jacket (Drilled Piles)", "water_dept": -51, "turbine_mw": 8, "distance_to_shore": 24889, "tippecanoe_feature_density": 0}, "geometry": {"type": "Point", "coordinates": [-2.17529296875, 56.26318518028012]}}, {"type": "Feature", "properties": {"point_type": "turbine", "turbinemod": "SG 8.0-167 DD", "oem": "Siemens", "foundation": "Jacket (Drilled Piles)", "water_dept": -50, "turbine_mw": 8, "distance_to_shore": 24128, "tippecanoe_feature_density": 0}, "geometry": {"type": "Point", "coordinates": [-2.18902587890625, 56.254031723820134]}}, {"type": "Feature", "properties": {"point_type": "turbine", "turbinemod": "SG 8.0-167 DD", "oem": "Siemens", "foundation": "Jacket (Drilled Piles)", "water_dept": -50, "turbine_mw": 8, "distance_to_shore": 25454, "tippecanoe_feature_density": 1}, "geometry": {"type": "Point", "coordinates": [-2.16705322265625, 56.2555574519306]}}, {"type": "Feature", "properties": {"point_type": "turbine", "turbinemod": "SG 8.0-167 DD", "oem": "Siemens", "foundation": "Jacket (Drilled Piles)", "water_dept": -46, "turbine_mw": 8, "distance_to_shore": 24126, "tippecanoe_feature_density": 1}, "geometry": {"type": "Point", "coordinates": [-2.19451904296875, 56.238771097577825]}}, {"type": "Feature", "properties": {"point_type": "turbine", "turbinemod": "SG 8.0-167 DD", "oem": "Siemens", "foundation": "Jacket (Drilled Piles)", "water_dept": -49, "turbine_mw": 8, "distance_to_shore": 25320, "tippecanoe_feature_density": 1}, "geometry": {"type": "Point", "coordinates": [-2.17254638671875, 56.24029743391526]}}, {"type": "Feature", "properties": {"point_type": "turbine", "turbinemod": "SG 8.0-167 DD", "oem": "Siemens", "foundation": "Jacket (Drilled Piles)", "water_dept": -54, "turbine_mw": 8, "distance_to_shore": 26517, "tippecanoe_feature_density": 1}, "geometry": {"type": "Point", "coordinates": [-2.1588134765625, 56.225031333026806]}}, {"type": "Feature", "properties": {"point_type": "turbine", "turbinemod": "SG 8.0-167 DD", "oem": "Siemens", "foundation": "Jacket (Drilled Piles)", "water_dept": -52, "turbine_mw": 8, "distance_to_shore": 25164, "tippecanoe_feature_density": 0}, "geometry": {"type": "Point", "coordinates": [-2.186279296875, 56.2143414423775]}}, {"type": "Feature", "properties": {"point_type": "turbine", "turbinemod": "SG 8.0-167 DD", "oem": "Siemens", "foundation": "Jacket (Drilled Piles)", "water_dept": -51, "turbine_mw": 8, "distance_to_shore": 26510, "tippecanoe_feature_density": 0}, "geometry": {"type": "Point", "coordinates": [-2.164306640625, 56.21281407174655]}}, {"type": "Feature", "properties": {"point_type": "turbine", "turbinemod": "SG 8.0-167 DD", "oem": "Siemens", "foundation": "Jacket (Drilled Piles)", "water_dept": -54, "turbine_mw": 8, "distance_to_shore": 15071, "tippecanoe_feature_density": 0}, "geometry": {"type": "Point", "coordinates": [-2.333221435546875, 56.27462392245363]}}, {"type": "Feature", "properties": {"point_type": "turbine", "turbinemod": "SG 8.0-167 DD", "oem": "Siemens", "foundation": "Jacket (Drilled Piles)", "water_dept": -55, "turbine_mw": 8, "distance_to_shore": 16828, "tippecanoe_feature_density": 0}, "geometry": {"type": "Point", "coordinates": [-2.311248779296875, 56.3096814091391]}}, {"type": "Feature", "properties": {"point_type": "turbine", "turbinemod": "SG 8.0-167 DD", "oem": "Siemens", "foundation": "Jacket (Drilled Piles)", "water_dept": -50, "turbine_mw": 8, "distance_to_shore": 17217, "tippecanoe_feature_density": 0}, "geometry": {"type": "Point", "coordinates": [-2.3016357421875, 56.3020629514881]}}, {"type": "Feature", "properties": {"point_type": "turbine", "turbinemod": "SG 8.0-167 DD", "oem": "Siemens", "foundation": "Jacket (Drilled Piles)", "water_dept": -56, "turbine_mw": 8, "distance_to_shore": 15596, "tippecanoe_feature_density": 0}, "geometry": {"type": "Point", "coordinates": [-2.324981689453125, 56.284534732650656]}}, {"type": "Feature", "properties": {"point_type": "turbine", "turbinemod": "SG 8.0-167 DD", "oem": "Siemens", "foundation": "Jacket (Drilled Piles)", "water_dept": -51, "turbine_mw": 8, "distance_to_shore": 17269, "tippecanoe_feature_density": 0}, "geometry": {"type": "Point", "coordinates": [-2.297515869140625, 56.27843607650186]}}, {"type": "Feature", "properties": {"point_type": "turbine", "turbinemod": "SG 8.0-167 DD", "oem": "Siemens", "foundation": "Jacket (Drilled Piles)", "water_dept": -54, "turbine_mw": 8, "distance_to_shore": 15775, "tippecanoe_feature_density": 0}, "geometry": {"type": "Point", "coordinates": [-2.324981689453125, 56.257845930068015]}}, {"type": "Feature", "properties": {"point_type": "turbine", "turbinemod": "SG 8.0-167 DD", "oem": "Siemens", "foundation": "Jacket (Drilled Piles)", "water_dept": -50, "turbine_mw": 8, "distance_to_shore": 17058, "tippecanoe_feature_density": 0}, "geometry": {"type": "Point", "coordinates": [-2.308502197265625, 56.24411300863605]}}, {"type": "Feature", "properties": {"point_type": "turbine", "turbinemod": "SG 8.0-167 DD", "oem": "Siemens", "foundation": "Jacket (Drilled Piles)", "water_dept": -50, "turbine_mw": 8, "distance_to_shore": 18104, "tippecanoe_feature_density": 0}, "geometry": {"type": "Point", "coordinates": [-2.289276123046875, 56.24945417458338]}}, {"type": "Feature", "properties": {"point_type": "turbine", "turbinemod": "SG 8.0-167 DD", "oem": "Siemens", "foundation": "Jacket (Drilled Piles)", "water_dept": -48, "turbine_mw": 8, "distance_to_shore": 17934, "tippecanoe_feature_density": 0}, "geometry": {"type": "Point", "coordinates": [-2.297515869140625, 56.235718242411394]}}, {"type": "Feature", "properties": {"point_type": "turbine", "turbinemod": "SG 8.0-167 DD", "oem": "Siemens", "foundation": "Jacket (Drilled Piles)", "water_dept": -47, "turbine_mw": 8, "distance_to_shore": 18761, "tippecanoe_feature_density": 0}, "geometry": {"type": "Point", "coordinates": [-2.28790283203125, 56.227321635995935]}}, {"type": "Feature", "properties": {"point_type": "turbine", "turbinemod": "SG 8.0-167 DD", "oem": "Siemens", "foundation": "Jacket (Drilled Piles)", "water_dept": -54, "turbine_mw": 8, "distance_to_shore": 21316, "tippecanoe_feature_density": 0}, "geometry": {"type": "Point", "coordinates": [-2.2467041015625, 56.332527667627375]}}, {"type": "Feature", "properties": {"point_type": "turbine", "turbinemod": "SG 8.0-167 DD", "oem": "Siemens", "foundation": "Jacket (Drilled Piles)", "water_dept": -54, "turbine_mw": 8, "distance_to_shore": 21576, "tippecanoe_feature_density": 0}, "geometry": {"type": "Point", "coordinates": [-2.23846435546875, 56.32491376704036]}}, {"type": "Feature", "properties": {"point_type": "turbine", "turbinemod": "SG 8.0-167 DD", "oem": "Siemens", "foundation": "Jacket (Drilled Piles)", "water_dept": -52, "turbine_mw": 8, "distance_to_shore": 21854, "tippecanoe_feature_density": 0}, "geometry": {"type": "Point", "coordinates": [-2.231597900390625, 56.3172983476004]}}, {"type": "Feature", "properties": {"point_type": "turbine", "turbinemod": "SG 8.0-167 DD", "oem": "Siemens", "foundation": "Jacket (Drilled Piles)", "water_dept": -51, "turbine_mw": 8, "distance_to_shore": 19060, "tippecanoe_feature_density": 0}, "geometry": {"type": "Point", "coordinates": [-2.275543212890625, 56.31272836681694]}}, {"type": "Feature", "properties": {"point_type": "turbine", "turbinemod": "SG 8.0-167 DD", "oem": "Siemens", "foundation": "Jacket (Drilled Piles)", "water_dept": -54, "turbine_mw": 8, "distance_to_shore": 20657, "tippecanoe_feature_density": 0}, "geometry": {"type": "Point", "coordinates": [-2.24945068359375, 56.314251754507865]}}, {"type": "Feature", "properties": {"point_type": "turbine", "turbinemod": "SG 8.0-167 DD", "oem": "Siemens", "foundation": "Jacket (Drilled Piles)", "water_dept": -51, "turbine_mw": 8, "distance_to_shore": 19122, "tippecanoe_feature_density": 0}, "geometry": {"type": "Point", "coordinates": [-2.2686767578125, 56.28834589882115]}}, {"type": "Feature", "properties": {"point_type": "turbine", "turbinemod": "SG 8.0-167 DD", "oem": "Siemens", "foundation": "Jacket (Drilled Piles)", "water_dept": -49, "turbine_mw": 8, "distance_to_shore": 18889, "tippecanoe_feature_density": 0}, "geometry": {"type": "Point", "coordinates": [-2.27142333984375, 56.27309895443804]}}, {"type": "Feature", "properties": {"point_type": "turbine", "turbinemod": "SG 8.0-167 DD", "oem": "Siemens", "foundation": "Jacket (Drilled Piles)", "water_dept": -52, "turbine_mw": 8, "distance_to_shore": 20309, "tippecanoe_feature_density": 1}, "geometry": {"type": "Point", "coordinates": [-2.24945068359375, 56.28987025891192]}}, {"type": "Feature", "properties": {"point_type": "turbine", "turbinemod": "SG 8.0-167 DD", "oem": "Siemens", "foundation": "Jacket (Drilled Piles)", "water_dept": -51, "turbine_mw": 8, "distance_to_shore": 22179, "tippecanoe_feature_density": 0}, "geometry": {"type": "Point", "coordinates": [-2.223358154296875, 56.3096814091391]}}, {"type": "Feature", "properties": {"point_type": "turbine", "turbinemod": "SG 8.0-167 DD", "oem": "Siemens", "foundation": "Jacket (Drilled Piles)", "water_dept": -51, "turbine_mw": 8, "distance_to_shore": 22537, "tippecanoe_feature_density": 0}, "geometry": {"type": "Point", "coordinates": [-2.215118408203125, 56.3020629514881]}}, {"type": "Feature", "properties": {"point_type": "turbine", "turbinemod": "SG 8.0-167 DD", "oem": "Siemens", "foundation": "Jacket (Drilled Piles)", "water_dept": -51, "turbine_mw": 8, "distance_to_shore": 22932, "tippecanoe_feature_density": 0}, "geometry": {"type": "Point", "coordinates": [-2.208251953125, 56.294442974479125]}}, {"type": "Feature", "properties": {"point_type": "turbine", "turbinemod": "SG 8.0-167 DD", "oem": "Siemens", "foundation": "Jacket (Drilled Piles)", "water_dept": -53, "turbine_mw": 8, "distance_to_shore": 23364, "tippecanoe_feature_density": 0}, "geometry": {"type": "Point", "coordinates": [-2.20001220703125, 56.28682147794396]}}, {"type": "Feature", "properties": {"point_type": "turbine", "turbinemod": "SG 8.0-167 DD", "oem": "Siemens", "foundation": "Jacket (Drilled Piles)", "water_dept": -49, "turbine_mw": 8, "distance_to_shore": 22603, "tippecanoe_feature_density": 0}, "geometry": {"type": "Point", "coordinates": [-2.212371826171875, 56.27691126048012]}}, {"type": "Feature", "properties": {"point_type": "turbine", "turbinemod": "SG 8.0-167 DD", "oem": "Siemens", "foundation": "Jacket (Drilled Piles)", "water_dept": -49, "turbine_mw": 8, "distance_to_shore": 23081, "tippecanoe_feature_density": 0}, "geometry": {"type": "Point", "coordinates": [-2.204132080078125, 56.270048836006]}}, {"type": "Feature", "properties": {"point_type": "turbine", "turbinemod": "SG 8.0-167 DD", "oem": "Siemens", "foundation": "Jacket (Drilled Piles)", "water_dept": -52, "turbine_mw": 8, "distance_to_shore": 23844, "tippecanoe_feature_density": 0}, "geometry": {"type": "Point", "coordinates": [-2.1917724609375, 56.279198461714486]}}, {"type": "Feature", "properties": {"point_type": "turbine", "turbinemod": "SG 8.0-167 DD", "oem": "Siemens", "foundation": "Jacket (Drilled Piles)", "water_dept": -51, "turbine_mw": 8, "distance_to_shore": 18261, "tippecanoe_feature_density": 0}, "geometry": {"type": "Point", "coordinates": [-2.28240966796875, 56.26394786950044]}}, {"type": "Feature", "properties": {"point_type": "turbine", "turbinemod": "SG 8.0-167 DD", "oem": "Siemens", "foundation": "Jacket (Drilled Piles)", "water_dept": -51, "turbine_mw": 8, "distance_to_shore": 19418, "tippecanoe_feature_density": 0}, "geometry": {"type": "Point", "coordinates": [-2.264556884765625, 56.265473202335386]}}, {"type": "Feature", "properties": {"point_type": "turbine", "turbinemod": "SG 8.0-167 DD", "oem": "Siemens", "foundation": "Jacket (Drilled Piles)", "water_dept": -50, "turbine_mw": 8, "distance_to_shore": 20570, "tippecanoe_feature_density": 0}, "geometry": {"type": "Point", "coordinates": [-2.245330810546875, 56.26699847436373]}}, {"type": "Feature", "properties": {"point_type": "turbine", "turbinemod": "SG 8.0-167 DD", "oem": "Siemens", "foundation": "Jacket (Drilled Piles)", "water_dept": -47, "turbine_mw": 8, "distance_to_shore": 19434, "tippecanoe_feature_density": 0}, "geometry": {"type": "Point", "coordinates": [-2.272796630859375, 56.23495499059973]}}, {"type": "Feature", "properties": {"point_type": "turbine", "turbinemod": "SG 8.0-167 DD", "oem": "Siemens", "foundation": "Jacket (Drilled Piles)", "water_dept": -46, "turbine_mw": 8, "distance_to_shore": 20801, "tippecanoe_feature_density": 0}, "geometry": {"type": "Point", "coordinates": [-2.250823974609375, 56.23419172357973]}}, {"type": "Feature", "properties": {"point_type": "turbine", "turbinemod": "SG 8.0-167 DD", "oem": "Siemens", "foundation": "Jacket (Drilled Piles)", "water_dept": -50, "turbine_mw": 8, "distance_to_shore": 22889, "tippecanoe_feature_density": 0}, "geometry": {"type": "Point", "coordinates": [-2.209625244140625, 56.25326883695871]}}, {"type": "Feature", "properties": {"point_type": "turbine", "turbinemod": "SG 8.0-167 DD", "oem": "Siemens", "foundation": "Jacket (Drilled Piles)", "water_dept": -50, "turbine_mw": 8, "distance_to_shore": 23488, "tippecanoe_feature_density": 0}, "geometry": {"type": "Point", "coordinates": [-2.201385498046875, 56.24563913207879]}}, {"type": "Feature", "properties": {"point_type": "turbine", "turbinemod": "SG 8.0-167 DD", "oem": "Siemens", "foundation": "Jacket (Drilled Piles)", "water_dept": -47, "turbine_mw": 8, "distance_to_shore": 21890, "tippecanoe_feature_density": 0}, "geometry": {"type": "Point", "coordinates": [-2.231597900390625, 56.236481479014856]}}, {"type": "Feature", "properties": {"point_type": "turbine", "turbinemod": "SG 8.0-167 DD", "oem": "Siemens", "foundation": "Jacket (Drilled Piles)", "water_dept": -46, "turbine_mw": 8, "distance_to_shore": 22554, "tippecanoe_feature_density": 0}, "geometry": {"type": "Point", "coordinates": [-2.223358154296875, 56.22884842859159]}}, {"type": "Feature", "properties": {"point_type": "turbine", "turbinemod": "SG 8.0-167 DD", "oem": "Siemens", "foundation": "Jacket (Drilled Piles)", "water_dept": -48, "turbine_mw": 8, "distance_to_shore": 20285, "tippecanoe_feature_density": 0}, "geometry": {"type": "Point", "coordinates": [-2.270050048828125, 56.21357776466854]}}, {"type": "Feature", "properties": {"point_type": "turbine", "turbinemod": "SG 8.0-167 DD", "oem": "Siemens", "foundation": "Jacket (Drilled Piles)", "water_dept": -49, "turbine_mw": 8, "distance_to_shore": 21519, "tippecanoe_feature_density": 0}, "geometry": {"type": "Point", "coordinates": [-2.24945068359375, 56.21357776466854]}}, {"type": "Feature", "properties": {"point_type": "turbine", "turbinemod": "SG 8.0-167 DD", "oem": "Siemens", "foundation": "Jacket (Drilled Piles)", "water_dept": -52, "turbine_mw": 8, "distance_to_shore": 24007, "tippecanoe_feature_density": 0}, "geometry": {"type": "Point", "coordinates": [-2.206878662109375, 56.21357776466854]}}, {"type": "Feature", "properties": {"point_type": "turbine", "turbinemod": "SG 8.0-167 DD", "oem": "Siemens", "foundation": "Jacket (Drilled Piles)", "water_dept": -50, "turbine_mw": 8, "distance_to_shore": 24128, "tippecanoe_feature_density": 0}, "geometry": {"type": "Point", "coordinates": [-2.18902587890625, 56.254794595477364]}}, {"type": "Feature", "properties": {"point_type": "turbine", "turbinemod": "SG 8.0-167 DD", "oem": "Siemens", "foundation": "Jacket (Drilled Piles)", "water_dept": -50, "turbine_mw": 8, "distance_to_shore": 25454, "tippecanoe_feature_density": 0}, "geometry": {"type": "Point", "coordinates": [-2.168426513671875, 56.2555574519306]}}, {"type": "Feature", "properties": {"point_type": "turbine", "turbinemod": "SG 8.0-167 DD", "oem": "Siemens", "foundation": "Jacket (Drilled Piles)", "water_dept": -46, "turbine_mw": 8, "distance_to_shore": 24126, "tippecanoe_feature_density": 0}, "geometry": {"type": "Point", "coordinates": [-2.193145751953125, 56.238771097577825]}}, {"type": "Feature", "properties": {"point_type": "turbine", "turbinemod": "SG 8.0-167 DD", "oem": "Siemens", "foundation": "Jacket (Drilled Piles)", "water_dept": -49, "turbine_mw": 8, "distance_to_shore": 25320, "tippecanoe_feature_density": 0}, "geometry": {"type": "Point", "coordinates": [-2.173919677734375, 56.24029743391526]}}, {"type": "Feature", "properties": {"point_type": "turbine", "turbinemod": "SG 8.0-167 DD", "oem": "Siemens", "foundation": "Jacket (Drilled Piles)", "water_dept": -52, "turbine_mw": 8, "distance_to_shore": 25164, "tippecanoe_feature_density": 0}, "geometry": {"type": "Point", "coordinates": [-2.187652587890625, 56.21357776466854]}}, {"type": "Feature", "properties": {"point_type": "turbine", "turbinemod": "SG 8.0-167 DD", "oem": "Siemens", "foundation": "Jacket (Drilled Piles)", "water_dept": -51, "turbine_mw": 8, "distance_to_shore": 26510, "tippecanoe_feature_density": 0}, "geometry": {"type": "Point", "coordinates": [-2.165679931640625, 56.21281407174655]}}]}