{"type": "FeatureCollection", "features": [{"type": "Feature", "properties": {"wf_develop": "Shell/ScottishPower", "turbine_mo": "TBA", "fou_type": "Floating", "wf_name": "CampionWind", "status": "Early Planning", "country": "United Kingdom", "wf_owners": "Shell/ScottishPower", "tippecanoe_feature_density": 0}, "geometry": {"type": "Polygon", "coordinates": [[[0.31857891441893066, 57.09379342372289], [0.318603515625, 57.09299206383105], [0.07335936358843174, 57.1034402281101], [0.037078857421875, 57.10492738413561], [0.0384521484375, 57.3435688292563], [0.0, 57.34430984997289], [-0.215606689453125, 57.34801472925787], [-0.2155904602204229, 57.34872718968794], [-0.21697998046875, 57.3487556602565], [-0.2142333984375, 57.468589192089354], [-0.21286118504821258, 57.46854188448473], [-0.212860107421875, 57.468589192089354], [0.0, 57.461203410119026], [0.10986328125, 57.45750995944769], [0.10986328125, 57.45750977287071], [0.2197265625, 57.45381613562239], [0.2197265625, 57.453815837088484], [0.3076171875, 57.45086080787627], [0.30781477366563337, 57.444424634467694], [0.319976806640625, 57.09373813394134], [0.31857891441893066, 57.09379342372289]]]}}]}