{"type": "FeatureCollection", "features": [{"type": "Feature", "properties": {"wf_develop": "Hexicon/COP", "turbine_mo": "Haliade-X 17", "fou_type": "Floating", "wtg_oem": "GE Energy", "cod": "2030-07-01T00:00:00", "wf_name": "Pentland Floating Offshore Wind Farm", "status": "Consent Authorised", "no_turbine": 6, "country": "United Kingdom", "capacity_m": 100, "wf_owners": "Highland Wind Ltd", "tippecanoe_feature_density": 0}, "geometry": {"type": "Polygon", "coordinates": [[[-3.89190673828125, 58.637649782857096], [-3.893280029296875, 58.674081862889324], [-3.89190673828125, 58.674081862889324], [-3.8507080078125, 58.674081862889324], [-3.84796142578125, 58.63836450298504], [-3.849334716796875, 58.63836450298504], [-3.89190673828125, 58.637649782857096]]]}}]}