{"type": "FeatureCollection", "features": [{"type": "Feature", "properties": {"wf_develop": "Cerulean Winds", "turbine_mo": "TBA", "fou_type": "Floating", "cod": "2031-12-31T00:00:00", "wf_name": "Aspen", "status": "Early Planning", "country": "United Kingdom", "capacity_m": 1008, "wf_owners": "Cerulean Winds, Frontier Power International Limited, Telis Energy/Carlyle Group, Worley, Siemens Gamesa, Siemens Energy, DEME, NOV, GoBe", "tippecanoe_feature_density": 0}, "geometry": {"type": "Polygon", "coordinates": [[[-0.076904296875, 57.69680911844304], [-0.29937744140625, 57.62922866964604], [-0.3368236903061724, 57.664935759949714], [-0.440826416015625, 57.76206610345213], [-0.4392003749100838, 57.76255764811034], [-0.439453125, 57.762798659441245], [-0.3076171875, 57.80233463324379], [-0.2197265625, 57.81963607022505], [-0.2197265625, 57.81989228369528], [-0.1812744140625, 57.82720544890435], [-0.1642119369293512, 57.83201445271953], [-0.13458251953125, 57.84109637578689], [-0.0384521484375, 57.77085579516711], [-0.0384521484375, 57.77012340253373], [-0.0384521484375, 57.72321937888228], [-0.076904296875, 57.69680911844304]]]}}]}