{"type": "FeatureCollection", "features": [{"type": "Feature", "properties": {"point_type": "turbine", "turbinemod": "H150-6", "oem": "GE Energy", "foundation": "Jacket", "water_dept": -23, "turbine_mw": 6, "distance_to_shore": 4761, "tippecanoe_feature_density": 0}, "geometry": {"type": "Point", "coordinates": [-71.52099609375, 41.114796744942964]}}, {"type": "Feature", "properties": {"point_type": "turbine", "turbinemod": "H150-6", "oem": "GE Energy", "foundation": "Jacket", "water_dept": -24, "turbine_mw": 6, "distance_to_shore": 4628, "tippecanoe_feature_density": 0}, "geometry": {"type": "Point", "coordinates": [-71.51378631591797, 41.119969684409455]}}, {"type": "Feature", "properties": {"point_type": "turbine", "turbinemod": "H150-6", "oem": "GE Energy", "foundation": "Jacket", "water_dept": -30, "turbine_mw": 6, "distance_to_shore": 4550, "tippecanoe_feature_density": 0}, "geometry": {"type": "Point", "coordinates": [-71.50760650634766, 41.12565944695433]}}, {"type": "Feature", "properties": {"point_type": "turbine", "turbinemod": "H150-6", "oem": "GE Energy", "foundation": "Jacket", "water_dept": -19, "turbine_mw": 6, "distance_to_shore": 5159, "tippecanoe_feature_density": 0}, "geometry": {"type": "Point", "coordinates": [-71.5374755859375, 41.10626050356447]}}, {"type": "Feature", "properties": {"point_type": "turbine", "turbinemod": "H150-6", "oem": "GE Energy", "foundation": "Jacket", "water_dept": -24, "turbine_mw": 6, "distance_to_shore": 4941, "tippecanoe_feature_density": 0}, "geometry": {"type": "Point", "coordinates": [-71.52889251708984, 41.11014075086695]}}]}