{"type": "FeatureCollection", "features": [{"type": "Feature", "properties": {"wf_id": "VW1_USA", "lenght_m": 1852, "tippecanoe_feature_density": 0}, "geometry": {"type": "MultiLineString", "coordinates": [[[-70.4827880859375, 41.00062984868538], [-70.4824447631836, 40.9866366128378]], [[-70.4608154296875, 41.00062984868538], [-70.4604721069336, 40.98689577382686]], [[-70.4604721069336, 40.98689577382686], [-70.46012878417969, 40.979898069620134]], [[-70.46012878417969, 40.979898069620134], [-70.46012878417969, 40.97030741721204]], [[-70.4388427734375, 41.00062984868538], [-70.43781280517578, 40.99233791931232]], [[-70.43781280517578, 40.99233791931232], [-70.4384994506836, 40.98715493379734]], [[-70.57205200195312, 41.05217187065068], [-70.59368133544922, 41.0350820029997]], [[-70.55042266845703, 41.069257300135035], [-70.57205200195312, 41.05217187065068]], [[-70.55007934570312, 41.052430773908355], [-70.54973602294922, 41.035858911443]], [[-70.52845001220703, 41.069516136144955], [-70.55007934570312, 41.052430773908355]], [[-70.52879333496094, 41.08607952131089], [-70.55042266845703, 41.069257300135035]], [[-70.50716400146484, 41.10315614062358], [-70.52879333496094, 41.08607952131089]], [[-70.50716400146484, 41.10315614062358], [-70.48519134521484, 41.120486955933984]], [[-70.48519134521484, 41.120486955933984], [-70.50682067871094, 41.08633829108652]], [[-70.48519134521484, 41.120486955933984], [-70.50167083740234, 41.10056905940368], [-70.50853729248047, 41.09306594756936], [-70.5105972290039, 41.08866717321064], [-70.52845001220703, 41.069516136144955]], [[-70.50682067871094, 41.08633829108652], [-70.52810668945312, 41.05268967614717]], [[-70.50613403320312, 41.05294857736709], [-70.50579071044922, 41.03637684531131]], [[-70.50647735595703, 41.0697749711359], [-70.50613403320312, 41.05294857736709]], [[-70.57170867919922, 41.035599942980696], [-70.57136535644531, 41.01876480770352]], [[-70.54973602294922, 41.035858911443], [-70.57170867919922, 41.035599942980696]], [[-70.52776336669922, 41.03611787888653], [-70.52742004394531, 41.01928287604562]], [[-70.52810668945312, 41.05268967614717], [-70.52776336669922, 41.03611787888653]], [[-70.52742004394531, 41.01928287604562], [-70.54939270019531, 41.019023842383916]], [[-70.50544738769531, 41.01980094031293], [-70.50579071044922, 41.03637684531131]], [[-70.5051040649414, 41.002961765890376], [-70.50544738769531, 41.01980094031293]], [[-70.48519134521484, 41.120486955933984], [-70.46356201171875, 41.12022832068129]], [[-70.48484802246094, 41.119969684409455], [-70.48347473144531, 41.119711047118386], [-70.48210144042969, 41.11764191209906], [-70.47283172607422, 41.101862612752456], [-70.46527862548828, 41.09021971543652], [-70.46287536621094, 41.08711459429921]], [[-70.48519134521484, 41.119969684409455], [-70.48450469970703, 41.11867648776223], [-70.48519134521484, 41.1119514544674], [-70.48519134521484, 41.103414843140456]], [[-70.48519134521484, 41.119969684409455], [-70.48519134521484, 41.11867648776223], [-70.48999786376953, 41.108588679462684], [-70.50579071044922, 41.07262208878544], [-70.50647735595703, 41.0697749711359]], [[-70.48519134521484, 41.119969684409455], [-70.48416137695312, 41.11893512913005], [-70.4831314086914, 41.114796744942964], [-70.47557830810547, 41.09203096833332], [-70.47420501708984, 41.08918469136211], [-70.46527862548828, 41.06330379068049], [-70.46287536621094, 41.05812638780225], [-70.46218872070312, 41.05372527491369]], [[-70.46390533447266, 41.13703749212047], [-70.44158935546875, 41.120486955933984]], [[-70.48519134521484, 41.120486955933984], [-70.46390533447266, 41.13703749212047]], [[-70.44158935546875, 41.120486955933984], [-70.44124603271484, 41.10393224511691]], [[-70.48484802246094, 41.119969684409455], [-70.48381805419922, 41.12022832068129], [-70.4831314086914, 41.119969684409455], [-70.47248840332031, 41.10626050356447], [-70.44021606445312, 41.07055146999505]], [[-70.48519134521484, 41.103414843140456], [-70.48484802246094, 41.086597059843115]], [[-70.48519134521484, 41.120486955933984], [-70.4824447631836, 41.12022832068129], [-70.46321868896484, 41.10367354463827]], [[-70.46356201171875, 41.12022832068129], [-70.45429229736328, 41.109623397808775], [-70.41824340820312, 41.07081030091021]], [[-70.48484802246094, 41.086597059843115], [-70.48450469970703, 41.0700338051079]], [[-70.48416137695312, 41.05320747756818], [-70.48381805419922, 41.03663581071726]], [[-70.48450469970703, 41.0700338051079], [-70.48416137695312, 41.05320747756818]], [[-70.48484802246094, 41.119969684409455], [-70.48347473144531, 41.1191937694787], [-70.4776382446289, 41.10393224511691], [-70.46253204345703, 41.07029263806098]], [[-70.46287536621094, 41.08685582758068], [-70.46150207519531, 41.08426810434875], [-70.43987274169922, 41.05398417205819]], [[-70.46218872070312, 41.05372527491369], [-70.46150207519531, 41.03689477510443]], [[-70.44124603271484, 41.10393224511691], [-70.41858673095703, 41.087632124679146]], [[-70.46321868896484, 41.10367354463827], [-70.44055938720703, 41.08737335999871]], [[-70.44021606445312, 41.07055146999505], [-70.4391860961914, 41.06848078599165], [-70.43575286865234, 41.064080365959796], [-70.41755676269531, 41.03741270082244]], [[-70.44055938720703, 41.08737335999871], [-70.41790008544922, 41.05424306818378]], [[-70.43987274169922, 41.05398417205819], [-70.41893005371094, 41.02420432206367], [-70.4172134399414, 41.02083705662315]], [[-70.41824340820312, 41.07081030091021], [-70.39627075195312, 41.07106913080642]], [[-70.41790008544922, 41.05424306818378], [-70.39592742919922, 41.054501963290505]], [[-70.48381805419922, 41.03663581071726], [-70.4831314086914, 41.02005997091857]], [[-70.46150207519531, 41.03689477510443], [-70.4611587524414, 41.02031900050545]], [[-70.4827880859375, 41.003220862708986], [-70.4824447631836, 40.9866366128378]], [[-70.4611587524414, 41.02031900050545], [-70.4827880859375, 41.003220862708986]], [[-70.4608154296875, 41.00347995850896], [-70.4604721069336, 40.98689577382686]], [[-70.46253204345703, 41.07029263806098], [-70.45635223388672, 41.0607151401866], [-70.45429229736328, 41.05864414643028], [-70.44193267822266, 41.03974331612318], [-70.43952941894531, 41.03715373847285]], [[-70.43952941894531, 41.03715373847285], [-70.4391860961914, 41.020578029073675]], [[-70.4391860961914, 41.020578029073675], [-70.4608154296875, 41.0037390532903]], [[-70.4172134399414, 41.02083705662315], [-70.4388427734375, 41.00399814705304]], [[-70.4388427734375, 41.0037390532903], [-70.43781280517578, 40.99233791931232]], [[-70.41858673095703, 41.087632124679146], [-70.39661407470703, 41.08789088834058]], [[-70.39627075195312, 41.07106913080642], [-70.37429809570312, 41.07132795968366]], [[-70.39592742919922, 41.054501963290505], [-70.37361145019531, 41.037930622465296]], [[-70.37429809570312, 41.07132795968366], [-70.37395477294922, 41.05476085737834]], [[-70.41755676269531, 41.03741270082244], [-70.41618347167969, 41.03715373847285], [-70.39901733398438, 41.03844854003296], [-70.39558410644531, 41.03767166215326]], [[-70.39558410644531, 41.03767166215326], [-70.3952407836914, 41.021096083153935]], [[-70.3952407836914, 41.021096083153935], [-70.4168701171875, 41.00425723979714]]]}}]}