{"type": "FeatureCollection", "features": [{"type": "Feature", "properties": {"wf_develop": "Fred. Olsen Seawind/Vattenfall", "turbine_mo": "TBA", "fou_type": "Floating", "cod": "2030-01-01T00:00:00", "wf_name": "Muir Mh\u00f2r", "status": "Consent Application Submitted", "country": "United Kingdom", "capacity_m": 798, "wf_owners": "Fred. Olsen Seawind/Vattenfall", "tippecanoe_feature_density": 0}, "geometry": {"type": "Polygon", "coordinates": [[[-0.7179555859704169, 57.4833070319343], [-0.718231201171875, 57.48409447684932], [-0.48600891324737183, 57.476379572093514], [-0.472412109375, 57.47597348171212], [-0.449066162109375, 57.413105479554474], [-0.424346923828125, 57.35023747739683], [-0.42572568454839, 57.35025220669435], [-0.42572021484375, 57.35023747739683], [-0.56304931640625, 57.3517192347291], [-0.68389892578125, 57.381341823874465], [-0.7196044921875, 57.48335627916629], [-0.7179555859704169, 57.4833070319343]]]}}]}