{"type": "FeatureCollection", "features": [{"type": "Feature", "properties": {"wf_develop": "BlueFloat Energy", "turbine_mo": "TBA", "fou_type": "Floating", "wf_name": "Sinclair", "status": "Early Planning", "country": "United Kingdom", "capacity_m": 99, "wf_owners": "BlueFloat Energy, Renantis", "tippecanoe_feature_density": 0}, "geometry": {"type": "Polygon", "coordinates": [[[-1.75506591796875, 58.28061978857582], [-1.7235412044835623, 58.27336744720768], [-1.709747314453125, 58.270510056478514], [-1.7426985740810297, 58.2587844919051], [-1.7578125, 58.2531723730099], [-1.790771484375, 58.235826206292444], [-1.83746337890625, 58.2575075890816], [-1.811370849609375, 58.30155219863954], [-1.8106311044049441, 58.301241176754004], [-1.80999755859375, 58.30227378512558], [-1.75506591796875, 58.28061978857582]]]}}]}