{"features":[{"id":"6e3a1647a42a87697818b725d5e32056","type":"Feature","properties":{"fid":"6e3a1647a42a87697818b725d5e32056","name":"Bay State Wind"},"geometry":{"coordinates":[[-70.61568256722428,41.1365050113219],[-70.61568256722428,41.12524593442896],[-70.64391794979772,41.12649703838838],[-70.6422570449407,41.11461058770101],[-70.67132287994261,41.11461058770101],[-70.67132287994261,41.102096208748435],[-70.77346852866434,41.101470427190776],[-70.77014671894985,41.0689215700242],[-70.80087345880926,41.0695476616186],[-70.79838210152325,41.05827710078859],[-70.81166934038175,41.05765090188507],[-70.81333024523872,41.04637830223754],[-70.82827838895417,41.04700460844359],[-70.82661748409669,40.986852032507755],[-70.86814010552858,40.98622515411719],[-70.86897055795704,40.96929718497714],[-70.88890141624452,40.97117828496323],[-70.89056232110153,40.95424645445607],[-70.91215408424596,40.95550081308889],[-70.90883227453148,40.92225225692886],[-70.93125449010438,40.92225225692886],[-70.93125449010438,40.903424902243046],[-70.95035489596283,40.90279723141825],[-70.95118534839185,40.88710352486359],[-70.99353842225169,40.88647569916563],[-70.9927079698232,40.87140609554254],[-71.05083963982754,40.86889416139786],[-71.04502647282705,40.69785914406688],[-71.0035038513957,40.69848875582588],[-71.00682566111018,40.83937179741051],[-70.85070060452709,40.84062833620726],[-70.85070060452709,40.852564266722794],[-70.83658291324068,40.852564266722794],[-70.83741336566915,40.863241961156064],[-70.82163476952519,40.863241961156064],[-70.82329567438221,40.87391793439116],[-70.80834753066728,40.87391793439116],[-70.81000843552424,40.88773134460439],[-70.79422983938026,40.885220029901205],[-70.79422983938026,40.89777565037545],[-70.7792816956648,40.89652019554711],[-70.78260350537931,40.9065631670114],[-70.76599445680687,40.90781843122048],[-70.76682490923535,40.91974225274899],[-70.7518767655199,40.91848721491374],[-70.7518767655199,40.92852685035342],[-70.73775907423344,40.92978169754758],[-70.73978330202748,40.93970202951135],[-70.72418636735149,40.940270469844876],[-70.72386197187153,40.95059105016304],[-70.70833640420204,40.950733253508105],[-70.71108078996315,40.962164230923804],[-70.69569146839443,40.96335962032023],[-70.69691119539871,40.972079644984234],[-70.68235232625901,40.97390180541635],[-70.68523295812184,40.98450121377343],[-70.6673522792666,40.98412901117368],[-70.66940245870043,40.995666875373615],[-70.65401313713225,40.99686168920965],[-70.65379254820563,41.007486856010985],[-70.6394542679936,41.00557727889944],[-70.63901309014076,41.018364702728064],[-70.62694557828758,41.01987226023999],[-70.62567394800637,41.02889806071647],[-70.61028462643829,41.02977895315274],[-70.61150435344243,41.039899566400464],[-70.59943684158877,41.04062372807965],[-70.598165211307,41.05105583802043],[-70.58424215730847,41.051261319888454],[-70.58443679459647,41.06086011495603],[-70.56987792545672,41.06033189181014],[-70.57275855731896,41.07169981941681],[-70.5552931046793,41.073988734559464],[-70.55652580750294,41.08264523219802],[-70.5419799141827,41.0837895930012],[-70.54319964118739,41.0946841640519],[-70.52947122447671,41.09619009120189],[-70.52736914176651,41.105518318415164],[-70.51676789748244,41.105488928237776],[-70.51561953748414,41.11611110656017],[-70.49869258134045,41.117973118518194],[-70.5015472615639,41.126926940749996],[-70.48719600553203,41.12765035433341],[-70.48832490180227,41.13301606472285],[-70.47809346836496,41.132571368178816],[-70.4778274640717,41.13838133628386],[-70.61651301965331,41.13775590059333]],"type":"LineString"},"name":"Bay State Wind"}],"name":"line","type":"FeatureCollection"}