{"features":[{"id":"20d84e237dc2c318707b76abb248bcd0","type":"Feature","properties":{"fid":"20d84e237dc2c318707b76abb248bcd0","name":"Beacon Wind"},"geometry":{"coordinates":[[-70.36986868036334,41.02633337569327],[-70.3769275260082,41.026303495757844],[-70.37614051367356,41.021403816127616],[-70.38367805485427,41.02069102454183],[-70.38358475530978,41.01055645967159],[-70.39089105889445,41.009727229142726],[-70.39819736247831,41.00982859469039],[-70.39810406293729,40.99876160907914],[-70.4119769067514,40.998287860731324],[-70.41089709193757,40.988277052517674],[-70.42584975056488,40.98757467979027],[-70.42584833851743,40.9775581076274],[-70.44033852194956,40.97650647257214],[-70.44064613272175,40.96614317429274],[-70.4543710238645,40.96637701719945],[-70.45475881670117,40.95508541493419],[-70.46809591500758,40.9552024075291],[-70.46702159989779,40.94390938005242],[-70.48313354937704,40.94431743790233],[-70.48197975822903,40.933546115607044],[-70.49667684874306,40.93338571272676],[-70.49570084048393,40.92259002286528],[-70.51014067207107,40.92227676110733],[-70.50942192273946,40.911748552864594],[-70.52509502151408,40.911144022317245],[-70.52350237966041,40.900286508025545],[-70.5379930967305,40.89934519382345],[-70.53823026589673,40.889667953213404],[-70.55214313642902,40.889017779672315],[-70.55312849081783,40.87835326135769],[-70.5664412379846,40.87817385292348],[-70.56595249875876,40.8679887045663],[-70.5807321390956,40.8669742424683],[-70.58048776948102,40.85547078408413],[-70.59360452047994,40.85549290896793],[-70.59322873754128,40.84617936890061],[-70.60806485602255,40.845019240530036],[-70.60749173352673,40.835698678594014],[-70.62214940862258,40.834263535172965],[-70.62216830479095,40.82291749780103],[-70.6360555178387,40.82293971623423],[-70.63607441400755,40.81275798581771],[-70.64880593398111,40.81146814149045],[-70.64900799757731,40.800909023674905],[-70.6645182703504,40.80146129293021],[-70.66384884009899,40.79034822583563],[-70.67758130036272,40.79045113580514],[-70.67866906512842,40.77941854316447],[-70.69115510926723,40.77915250511856],[-70.69208422267343,40.768967632221575],[-70.70658714498413,40.76761156608478],[-70.70613398565264,40.75701300905098],[-70.719005260815,40.75696585281867],[-70.72031960524636,40.74758015714352],[-70.70548815171185,40.74659120060301],[-70.70240789505694,40.660071569144634],[-70.64640933909807,40.660071569144634],[-70.64640933909807,40.649991259868415],[-70.6322916478111,40.64936118997019],[-70.63141908273434,40.660666034630395],[-70.61818411591909,40.66119383863216],[-70.61774783338187,40.67196897569525],[-70.60443210303629,40.67167628294558],[-70.60452909901035,40.68312369164403],[-70.59035683668883,40.682915676019746],[-70.58969429666054,40.69349079346213],[-70.5774451233373,40.69400682462586],[-70.57657255826184,40.704765055133436],[-70.56333759144572,40.70502302882903],[-70.56147923287786,40.71552154534777],[-70.54806650655823,40.71591424646789],[-70.54816350253357,40.72708456729001],[-70.53498313498966,40.7269588069326],[-70.53479229335643,40.737672059287945],[-70.52038069141462,40.73787861912132],[-70.52142108417873,40.74812322484985],[-70.50558740620635,40.74866645006901],[-70.5076250994356,40.759979755770246],[-70.49259788029603,40.76025127888016],[-70.49292723504527,40.771098256740174],[-70.4774490760799,40.77140565067867],[-70.47868031047813,40.78167422620862],[-70.46435758828854,40.78231808340033],[-70.46496666442324,40.793459751168115],[-70.45125301836963,40.79286313734062],[-70.4508761016259,40.80335279582172],[-70.43694686870967,40.80426345248773],[-70.43628010725098,40.81511892039228],[-70.42301763579486,40.814707422483025],[-70.42321325132555,40.82476040602751],[-70.40842521999988,40.826753755643466],[-70.40732905933679,40.83554803049492],[-70.39478225322227,40.836544517520935],[-70.39344873030413,40.84763316019195],[-70.38066456193383,40.84746036849833],[-70.3804761035623,40.85724803734976],[-70.36654687064751,40.85837442164916],[-70.36807600909347,40.86989236781031],[-70.35242917936048,40.86928667687266],[-70.35281325326271,40.879936898823644],[-70.3383114880754,40.880197134069306],[-70.33884648312163,40.891534087088615],[-70.3244956390798,40.89248269929226],[-70.323885569582,40.9029520845514],[-70.31182485463209,40.90260231153306],[-70.30978345445186,40.914043619726584],[-70.2962914088188,40.913802057509486],[-70.29678886664406,40.92413471697748],[-70.36737732307786,40.92413471697748],[-70.37069913279234,41.02633337569327]],"type":"LineString"},"name":"Beacon Wind"}],"name":"line","type":"FeatureCollection"}