{"features":[{"id":"79f77b79c6b9e30b8dbe4b39752df828","type":"Feature","properties":{"fid":"79f77b79c6b9e30b8dbe4b39752df828","name":"Delaware_Lease_Area"},"geometry":{"coordinates":[[-74.58646191376606,38.606973102463996],[-74.77909970456055,38.606973102463996],[-74.77976397280412,38.61787313904233],[-74.79304933768677,38.61891115139048],[-74.7943778741748,38.63966824353983],[-74.80699897081301,38.63966824353983],[-74.80699897081301,38.682201493165564],[-74.8348982370663,38.68375710864771],[-74.8355625053107,38.73714605890086],[-74.60041154689227,38.73662791126014],[-74.5997472786487,38.72626416908366],[-74.58779045025408,38.72522771217305],[-74.58712618201048,38.606973102463996]],"type":"LineString"},"name":"Delaware_Lease_Area"}],"name":"delaware_lease_area","type":"FeatureCollection"}