{"features":[{"id":"c02af5d44c90484b74e2b6b6cd78b566","type":"Feature","properties":{"fid":"c02af5d44c90484b74e2b6b6cd78b566","name":"New England Wind 1"},"geometry":{"coordinates":[[-70.62703178441153,41.01731913389261],[-70.64127142974655,41.01834236141036],[-70.63991527304817,41.007085984509416],[-70.65415491838318,41.007085984509416],[-70.65347684003441,40.99429231268627],[-70.66839456371905,40.99531589781918],[-70.66771648536944,40.9743292260635],[-70.67585342556136,40.974841175566894],[-70.67517534721175,40.96255329099725],[-70.68195613070446,40.96357736877863],[-70.68195613070446,40.928749810096775],[-70.68873691419799,40.93079899846373],[-70.68738075749879,40.91030425505227],[-70.66500417197184,40.90876689311932],[-70.66568225032147,40.84467837661637],[-70.62228523596596,40.843652456071595],[-70.62296331431557,40.83441845652797],[-70.60736751228218,40.83441845652797],[-70.60804559063095,40.844165418329425],[-70.59516210199428,40.84570428128072],[-70.59516210199428,40.85544958349786],[-70.58024437830966,40.85647532140425],[-70.5809224566593,40.865193452360984],[-70.56532665462507,40.867757390137996],[-70.56532665462507,40.87903753702483],[-70.55108700929004,40.878524844769714],[-70.5524431659884,40.88826531856418],[-70.53752544230377,40.89031576195504],[-70.53820352065338,40.90056702580415],[-70.52464195366716,40.90056702580415],[-70.52532003201677,40.91081670108625],[-70.51040230833212,40.91132914314926],[-70.51108038668089,40.922089509005275],[-70.4961626629971,40.922089509005275],[-70.49684074134586,40.932848123278376],[-70.48327917435961,40.93387266185306],[-70.48327917435961,40.944117173731286],[-70.49819689804424,40.944117173731286],[-70.49751881969547,40.96511345565497],[-70.51108038668089,40.965625476667924],[-70.51243654338012,40.97586506265438],[-70.53955967735175,40.97637700023844],[-70.54023775570138,40.99685124571914],[-70.58499092675525,40.996339467058874],[-70.58499092675525,41.006574285317384],[-70.62703178441153,41.00759767972724],[-70.62635370606192,41.01731913389261]],"type":"LineString"},"name":"New England Wind 1"}],"name":"line","type":"FeatureCollection"}