{"features":[{"id":"0746cdea9989742fdf22794b0c598d21","type":"Feature","properties":{"fid":"0746cdea9989742fdf22794b0c598d21","name":"LineString"},"geometry":{"coordinates":[[-71.1342980290406,41.27877963028385],[-71.13484074021939,41.26899044644475],[-71.14949394204015,41.26858253192742],[-71.14840851968324,41.25797585995994],[-71.16306172150402,41.25797585995994],[-71.16306172150402,41.23675734793204],[-71.17771492332479,41.23553299277751],[-71.17608678978908,41.224920954134035],[-71.18965456925295,41.224920954134035],[-71.18965456925295,41.21430719302796],[-71.20376505989492,41.21389893704958],[-71.20430777107373,41.20246673523411],[-71.21896097289452,41.20205840536937],[-71.21841826171638,41.181638663832075],[-71.23198604117957,41.18082174169621],[-71.23144333000143,41.17142640473554],[-71.24609653182222,41.17060935522747],[-71.2450111094653,41.15957818958458],[-71.26129244482182,41.15957818958458],[-71.26129244482182,41.14936249161087],[-71.144609541433,41.14854516699975],[-71.14406683025489,41.11707042279775],[-71.17391594507525,41.11788813963577],[-71.17445865625336,41.12688235250681],[-71.25912160010729,41.12606474772764],[-71.25749346657156,41.09335220333662],[-71.22981519646574,41.09376121073154],[-71.22927248528693,41.083944330448446],[-71.21516199464496,41.082717117285796],[-71.21407657228737,41.073307721697006],[-71.1706596780038,41.07248944972923],[-71.17120238918193,41.062669391714735],[-70.98559516611758,41.06635208533322],[-70.98559516611758,41.076171593378916],[-70.94272098301214,41.07780803546618],[-70.94326369419096,41.088034875480275],[-70.92969591472709,41.0892619893356],[-70.92969591472709,41.09989601607589],[-70.9155854240851,41.09989601607589],[-70.9150427129063,41.10971051284673],[-70.83037976905239,41.11257279809743],[-70.83037976905239,41.132605300712385],[-70.94434911654787,41.132605300712385],[-70.94597725008359,41.17387749212273],[-71.04583610693709,41.17387749212273],[-71.04583610693709,41.1632554511302],[-71.10227806950638,41.1632554511302],[-71.1033634918633,41.2041000292171],[-71.06103201993669,41.205324972952525],[-71.06266015347241,41.25879181896639],[-71.12018753839861,41.25797585995994],[-71.12073024957672,41.27959532933963],[-71.1364688737551,41.280003175044754]],"type":"LineString"},"name":"LineString"}],"name":"line","type":"FeatureCollection"}