{"features":[{"id":"6139cb21dafca4658e3cef1614497a62","type":"Feature","properties":{"fid":"6139cb21dafca4658e3cef1614497a62","name":"LineString"},"geometry":{"coordinates":[[-74.76581433967789,38.60645401179485],[-74.60041154689227,38.606973102463996],[-74.60107581513671,38.55192859711951],[-74.61436118001937,38.55192859711951],[-74.61568971650738,38.50983785813597],[-74.62963934963359,38.509318065523814],[-74.62831081314557,38.49892142532195],[-74.65621007939804,38.4984015539153],[-74.65621007939804,38.509318065523814],[-74.66949544428064,38.509318065523814],[-74.67015971252508,38.51971320482815],[-74.6841093456513,38.520232922392836],[-74.6841093456513,38.53062648562104],[-74.69739471053397,38.531665759382264],[-74.69739471053397,38.54153811139122],[-74.71200861190461,38.54257722752371],[-74.71200861190461,38.56335639728721],[-74.7252939767864,38.563875799580785],[-74.7252939767864,38.574263057123886],[-74.73990787815706,38.57478238058329],[-74.73924360991346,38.58464881298957],[-74.75186470655169,38.58568730597892],[-74.75186470655169,38.59659057562473],[-74.76515007143347,38.59659057562473],[-74.76647860792234,38.60645401179485]],"type":"LineString"},"name":"LineString"}],"name":"skip_jack_wind","type":"FeatureCollection"}