{"features":[{"id":"1454f62bab2a87c43384011bdde533b9","type":"Feature","properties":{"fid":"1454f62bab2a87c43384011bdde533b9","name":"Sunrise-Bay State WInd"},"geometry":{"coordinates":[[-70.88607697298929,41.07876842012246],[-70.8848213832399,41.05604916077937],[-70.82643645988286,41.05794273220653],[-70.82894763938164,41.06930301603907],[-70.81325276751217,41.068829710059816],[-70.81450835726156,41.080188113187035],[-70.80132466489087,41.08113455819364],[-70.80132466489087,41.09107140789712],[-70.78562979302058,41.09154455373471],[-70.78688538276998,41.10147982920182],[-70.81576394701096,41.10147982920182],[-70.81450835726156,41.090125105998396],[-70.8571984087483,41.09107140789712],[-70.85594281899891,41.07829518228684],[-70.88544917811495,41.07876842012246]],"type":"LineString"},"name":"Sunrise-Bay State WInd"}],"name":"line","type":"FeatureCollection"}