{"type":"FeatureCollection","name":"line","features":[{"id":"677ec8b8c6f9f2454c90e41764f35a2b","type":"Feature","properties":{"fid":"677ec8b8c6f9f2454c90e41764f35a2b","name":"LineString"},"geometry":{"coordinates":[[-74.86314037152049,38.46711998186473],[-74.86370806148368,38.31583798320929],[-74.8364589432569,38.31494715295],[-74.8364589432569,38.29400949136584],[-74.7808253268765,38.293118392988504],[-74.78139301683967,38.250778617100195],[-74.60257067847438,38.24944116950414],[-74.60257067847438,38.26103156431893],[-74.61505985766163,38.26103156431893],[-74.61619523758803,38.28331558865099],[-74.62925210673845,38.282424358968655],[-74.62981979670164,38.29400949136584],[-74.64287666585207,38.29400949136584],[-74.6434443558148,38.31583798320929],[-74.65706891492843,38.31539256944768],[-74.65820429485478,38.32652709262592],[-74.66955809411566,38.32608174453469],[-74.67069347404204,38.34790058283562],[-74.6837503431925,38.347455366102594],[-74.68431803315568,38.35858496335021],[-74.69794259226933,38.35813981230493],[-74.69794259226933,38.38039401141884],[-74.71156715138245,38.38039401141884],[-74.71156715138245,38.39107359607567],[-74.72519171049609,38.39018369091815],[-74.72519171049609,38.41287285129482],[-74.73881626960971,38.41287285129482],[-74.73881626960971,38.422658133435306],[-74.75300851868653,38.423992387397334],[-74.75244082872334,38.435110211885416],[-74.76606538783696,38.434220848917306],[-74.76606538783696,38.45600708769442],[-74.77968994695014,38.45600708769442],[-74.77968994695014,38.46667549897168],[-74.86370806148368,38.46667549897168]],"type":"LineString"},"name":"LineString"}]}
