{"features":[{"id":"a932be769305b62fff54bb72f16bee10","type":"Feature","properties":{"fid":"a932be769305b62fff54bb72f16bee10","name":"LineString"},"geometry":{"coordinates":[[-70.43001474429842,41.13861760243935],[-70.48695501417318,41.138932916861336],[-70.48695501417318,41.127580642717675],[-70.50077140318697,41.12694990322086],[-70.50119008164212,41.116857246721],[-70.51458779220077,41.11622640415567],[-70.51500647065592,41.10518567788628],[-70.53091625194445,41.10518567788628],[-70.5296602165795,41.094774149763765],[-70.54389528404793,41.095089674864],[-70.5418018917732,41.08341423681469],[-70.55729299460712,41.08341423681469],[-70.55729299460712,41.072999257953484],[-70.57069070516575,41.072367994075506],[-70.57110938362038,41.06195126497764],[-70.58576312954449,41.06195126497764],[-70.58450709417954,41.05058567853436],[-70.59874216164798,41.049954199487416],[-70.59874216164798,41.03953392019611],[-70.61297722911694,41.03921812839948],[-70.61255855066179,41.02816446101886],[-70.62637493967559,41.02816446101886],[-70.62679361813073,41.00794724112376],[-70.5849257726342,41.00731535301648],[-70.58325105881461,40.99720431922486],[-70.54054585640827,40.99720431922486],[-70.54138321331806,40.976029318478766],[-70.51291307838069,40.976029318478766],[-70.51291307838069,40.96528119502702],[-70.49700329709216,40.96464889794558],[-70.49658461863753,40.945360926837736],[-70.4697891975197,40.944095944967756],[-70.46853316215477,40.95389892067203],[-70.45471677314099,40.955479909484524],[-70.45471677314099,40.96528119502702],[-70.4400630272174,40.96591348604946],[-70.44048170567254,40.97729368848036],[-70.42666531665876,40.97729368848036],[-70.42708399511338,40.98709173427764],[-70.4132676060996,40.98898796210622],[-70.41284892764496,40.99846828327898],[-70.39735782481105,40.99910025621759],[-70.39861386017598,41.00984286908769],[-70.38521614961736,41.010474732956],[-70.38354143579726,41.021531369746896],[-70.37056240369377,41.02121549159264],[-70.37223711751334,41.09603624107399],[-70.42875870893347,41.09635176011295],[-70.43001474429842,41.139248229767446]],"type":"LineString"},"name":"LineString"}],"name":"line","type":"FeatureCollection"}