{"type": "FeatureCollection", "features": [{"type": "Feature", "properties": {"wf_develop": "Flotation Energy", "turbine_mo": "TBA", "fou_type": "Floating", "wf_name": "Cenos", "status": "Early Planning", "country": "United Kingdom", "capacity_m": 1350, "wf_owners": "Flotation Energy, TEPCO Renewable Power Inc, Eni SpA, HV Storm Holding, Vargronn, NorthConnect", "tippecanoe_feature_density": 0}, "geometry": {"type": "Polygon", "coordinates": [[[1.4432935576698283, 57.23149039225126], [1.48590087890625, 57.20994133334054], [1.4851837195377797, 57.20957283166074], [1.48590087890625, 57.209197603129496], [1.40625, 57.16901391334946], [1.4344421971275676, 57.15299776177428], [1.51611328125, 57.19431985167856], [1.5985107421875, 57.15263024604482], [1.597137451171875, 57.08105290015598], [1.5875244140625, 57.05865660667763], [1.4007568359375, 57.027279082638756], [1.3533560587882962, 57.02879651475994], [1.308746337890625, 57.02952121337486], [1.3079508807585398, 57.03025006214364], [1.307373046875, 57.03026856023055], [1.2973315948225257, 57.03998013202111], [1.28265380859375, 57.0534288597899], [1.28265380859375, 57.054175725839826], [1.28265380859375, 57.14071029202316], [1.36505126953125, 57.23893512461504], [1.3661060809744707, 57.2393019992251], [1.366424560546875, 57.23967825554331], [1.402130126953125, 57.25230918976635], [1.4026897121124666, 57.25202617423723], [1.40350341796875, 57.25230918976635], [1.4432935576698283, 57.23149039225126]]]}}]}