{"type": "FeatureCollection", "features": [{"type": "Feature", "properties": {"wf_develop": "Bay State Wind LLC", "turbine_mo": "TBA", "wf_name": "Bay State Wind (OCS-A 0500)", "status": "Consent Application Submitted", "country": "United States", "capacity_m": 2000, "wf_owners": "Orsted, Eversource", "tippecanoe_feature_density": 0}, "geometry": {"type": "Polygon", "coordinates": [[[-70.80001831054688, 41.07986874098995], [-70.81409454345703, 41.07960994573898], [-70.81375122070312, 41.0689984631062], [-70.82817077636719, 41.068739625058384], [-70.828857421875, 41.09021971543652], [-70.81443786621094, 41.09047846890749], [-70.81478118896484, 41.10134519447027], [-70.78628540039062, 41.101862612752456], [-70.78594207763672, 41.090995972792314], [-70.80001831054688, 41.09073722135943], [-70.80001831054688, 41.07986874098995]]]}}]}