{"type": "FeatureCollection", "features": [{"type": "Feature", "properties": {"item": "export", "manufacturer": "Prysmian", "length_m": 64371, "shared_with_farms": ["Vineyard Wind 1", "New England Wind 2"]}, "geometry": {"type": "MultiLineString", "coordinates": [[[-70.33309936523438, 41.636229620870296], [-70.33309936523438, 41.63186741069748]], [[-70.33309936523438, 41.63186741069748], [-70.33974999221604, 41.6244106612024]], [[-70.33974999221604, 41.6244106612024], [-70.3399658203125, 41.62416867258182]], [[-70.33309936523438, 41.63186741069748], [-70.3396224975586, 41.624681950391306], [-70.33974999221604, 41.6244106612024]], [[-70.33974999221604, 41.6244106612024], [-70.34854888916016, 41.6056879502822], [-70.36365509033203, 41.58643156741087], [-70.37944793701172, 41.56614196476838], [-70.39043426513672, 41.56151812577414], [-70.39352416992188, 41.55946298001453], [-70.3948974609375, 41.55766467386161], [-70.39730072021484, 41.546102939522314], [-70.4000473022461, 41.539421883822854], [-70.40897369384766, 41.528113909357444], [-70.41000366210938, 41.52348735004114], [-70.40966033935547, 41.50934859128981], [-70.41034698486328, 41.494435281741744], [-70.41549682617188, 41.44375581277325], [-70.42236328125, 41.43474770191722], [-70.42339324951172, 41.432688529595], [-70.42476654052734, 41.42161935923528], [-70.42339324951172, 41.41235069554361], [-70.42236328125, 41.38273360356902], [-70.42133331298828, 41.381445597777514], [-70.39695739746094, 41.35954559633612], [-70.39009094238281, 41.3507835316114], [-70.3839111328125, 41.345628824936625], [-70.38219451904297, 41.34150476576238], [-70.3787612915039, 41.32681068238256], [-70.37567138671875, 41.32242759476503], [-70.36640167236328, 41.31623920445111], [-70.36090850830078, 41.311081763668426], [-70.35884857177734, 41.30772920834801], [-70.35884857177734, 41.306181816978324], [-70.3615951538086, 41.302313177892756], [-70.37361145019531, 41.293801364024404], [-70.38082122802734, 41.29044792023987], [-70.3948974609375, 41.28167655998166], [-70.41996002197266, 41.25561350698203], [-70.42682647705078, 41.2367693777349], [-70.43025970458984, 41.22463398043402], [-70.43197631835938, 41.22076050713119], [-70.47969818115234, 41.12565944695433], [-70.48107147216797, 41.123849121471295], [-70.48416137695312, 41.12178011690935], [-70.48519134521484, 41.12022832068129]]]}}, {"type": "Feature", "properties": {"item": "export", "manufacturer": "Prysmian", "length_m": 64358, "shared_with_farms": ["Vineyard Wind 1", "New England Wind 2"]}, "geometry": {"type": "MultiLineString", "coordinates": [[[-70.33344268798828, 41.63597302844411], [-70.33344268798828, 41.63212401946805]], [[-70.33344268798828, 41.63212401946805], [-70.3399658203125, 41.62519522411486]], [[-70.33344268798828, 41.63212401946805], [-70.3403091430664, 41.624938587763836], [-70.34923553466797, 41.60594466324156], [-70.37979125976562, 41.56665570423206], [-70.39077758789062, 41.56177501439865], [-70.39386749267578, 41.559719876808714], [-70.39558410644531, 41.557407768897804], [-70.39764404296875, 41.548415451819295], [-70.400390625, 41.539421883822854], [-70.40931701660156, 41.52837093073046], [-70.41069030761719, 41.5252866068638], [-70.41034698486328, 41.50934859128981], [-70.4110336303711, 41.494435281741744], [-70.41618347167969, 41.44375581277325], [-70.42304992675781, 41.435005093864504], [-70.42407989501953, 41.432688529595], [-70.42545318603516, 41.42161935923528], [-70.42373657226562, 41.41235069554361], [-70.42304992675781, 41.38273360356902], [-70.39764404296875, 41.35928790538517], [-70.39043426513672, 41.35052580597025], [-70.3842544555664, 41.34537107889011], [-70.38288116455078, 41.34150476576238], [-70.37910461425781, 41.326552861860506], [-70.37635803222656, 41.32216975690022], [-70.37464141845703, 41.32062270828837], [-70.36674499511719, 41.315723478734895], [-70.36125183105469, 41.31082388091818], [-70.35953521728516, 41.30772920834801], [-70.35953521728516, 41.306181816978324], [-70.3619384765625, 41.30257109430556], [-70.37395477294922, 41.29405931409849], [-70.38116455078125, 41.29096384588837], [-70.3952407836914, 41.281934557995356], [-70.42030334472656, 41.255871608005805], [-70.4281997680664, 41.23522030350637], [-70.43060302734375, 41.22463398043402], [-70.43231964111328, 41.22076050713119], [-70.46974182128906, 41.14737945716172], [-70.48038482666016, 41.12540083208583], [-70.48450469970703, 41.122038746046826], [-70.48519134521484, 41.12022832068129]]]}}]}