{"type": "FeatureCollection", "features": [{"type": "Feature", "properties": {"wf_develop": "Beacon Wind, LLC", "turbine_mo": "TBA", "wf_name": "Beacon Wind", "status": "Consent Application Submitted", "country": "United States", "capacity_m": 2430, "wf_owners": "BP", "tippecanoe_feature_density": 0}, "geometry": {"type": "Polygon", "coordinates": [[[-70.36811828613281, 40.923630300074336], [-70.3399658203125, 40.9240242150711], [-70.3399658203125, 40.924149115966316], [-70.3125, 40.92440852238502], [-70.29670715332031, 40.924667927785464], [-70.29670715332031, 40.91377202429223], [-70.31078338623047, 40.91351257612757], [-70.31078338623047, 40.90287432475003], [-70.3125, 40.90287432475003], [-70.32485961914062, 40.90261483382352], [-70.32485961914062, 40.89171529557106], [-70.33893585205078, 40.89171529557106], [-70.33859252929688, 40.88081396146873], [-70.35301208496094, 40.88055438400747], [-70.35266876220703, 40.86991083161536], [-70.3670883178711, 40.869651211399315], [-70.36674499511719, 40.85900590611001], [-70.38082122802734, 40.85874624314158], [-70.38082122802734, 40.8478394793336], [-70.3948974609375, 40.8478394793336], [-70.3948974609375, 40.83693092007499], [-70.40897369384766, 40.836671170591075], [-70.40863037109375, 40.82602056546571], [-70.42304992675781, 40.825760773236595], [-70.4227066040039, 40.81510841560598], [-70.43712615966797, 40.81484858063402], [-70.43678283691406, 40.80393459288379], [-70.45085906982422, 40.80393459288379], [-70.45085906982422, 40.79301881008675], [-70.46493530273438, 40.79275888861875], [-70.46459197998047, 40.78210123234388], [-70.47901153564453, 40.78184126814031], [-70.47866821289062, 40.77092185281978], [-70.49308776855469, 40.77092185281978], [-70.49274444580078, 40.76000064275874], [-70.50682067871094, 40.75974059207391], [-70.50647735595703, 40.74907763805905], [-70.5208969116211, 40.748817544646016], [-70.52055358886719, 40.73815283882294], [-70.53497314453125, 40.737892702684064], [-70.53462982177734, 40.726966066290515], [-70.5487060546875, 40.726966066290515], [-70.5483627319336, 40.71603763556806], [-70.56278228759766, 40.71577741296778], [-70.56243896484375, 40.705107410619746], [-70.5765151977539, 40.704847145301045], [-70.5765151977539, 40.694175391548754], [-70.59059143066406, 40.6939150835141], [-70.59024810791016, 40.6829812277106], [-70.60466766357422, 40.6829812277106], [-70.60432434082031, 40.67204557799428], [-70.61840057373047, 40.67178518351827], [-70.61805725097656, 40.66110813446929], [-70.63247680664062, 40.66084769728482], [-70.63213348388672, 40.650168897240036], [-70.64620971679688, 40.64990841734959], [-70.64655303955078, 40.66058725908351], [-70.70320129394531, 40.659805938378526], [-70.70560455322266, 40.74621655456363], [-70.71968078613281, 40.74595644996023], [-70.72002410888672, 40.75687996739504], [-70.70594787597656, 40.75714002927083], [-70.70629119873047, 40.76780169022038], [-70.6918716430664, 40.76806170936612], [-70.69221496582031, 40.77898159474759], [-70.67813873291016, 40.77924157014337], [-70.67813873291016, 40.789899685313515], [-70.6640625, 40.79015961797438], [-70.6644058227539, 40.80081598096254], [-70.64998626708984, 40.80107587088608], [-70.65032958984375, 40.81199032877737], [-70.6362533569336, 40.81225017494344], [-70.6362533569336, 40.82290299154735], [-70.62217712402344, 40.823162794971296], [-70.62252044677734, 40.8340736197749], [-70.60810089111328, 40.8340736197749], [-70.60844421386719, 40.844982649254035], [-70.59436798095703, 40.84524236616855], [-70.59436798095703, 40.85588988330875], [-70.58029174804688, 40.856149557473856], [-70.58063507080078, 40.86705495325256], [-70.56621551513672, 40.86705495325256], [-70.56655883789062, 40.877958553405335], [-70.55213928222656, 40.87821814104652], [-70.55248260498047, 40.88886035783298], [-70.53840637207031, 40.88911990271757], [-70.53840637207031, 40.90001986856228], [-70.52433013916016, 40.900279369669875], [-70.52467346191406, 40.91091803848204], [-70.51025390625, 40.911177496828316], [-70.5105972290039, 40.92207382796113], [-70.49617767333984, 40.92207382796113], [-70.49652099609375, 40.932968362970286], [-70.4824447631836, 40.93322773476865], [-70.4824447631836, 40.94386110175802], [-70.46836853027344, 40.94412043078802], [-70.46871185302734, 40.9550113304862], [-70.45429229736328, 40.9550113304862], [-70.45463562011719, 40.96590043376594], [-70.44021606445312, 40.96615967623384], [-70.44055938720703, 40.97678774053034], [-70.42613983154297, 40.97704694022286], [-70.42648315429688, 40.979898069620134], [-70.42648315429688, 40.98793240759761], [-70.41206359863281, 40.98819156349393], [-70.41240692138672, 40.998816078261655], [-70.41239875243761, 40.998816228634404], [-70.41240692138672, 40.99907519137798], [-70.39833068847656, 40.99907519137798], [-70.39833068847656, 41.00062984868538], [-70.39833068847656, 41.00995702245302], [-70.3842544555664, 41.00995702245302], [-70.3842544555664, 41.02083705662315], [-70.37017822265625, 41.021096083153935], [-70.36983711281249, 41.00062984868538], [-70.36983489990234, 41.00062984868538], [-70.36949157714844, 40.979898069620134], [-70.36880493164062, 40.95915977213488], [-70.36898543095062, 40.95915977213488], [-70.36811828613281, 40.923630300074336]]]}}]}