{"type": "FeatureCollection", "features": [{"type": "Feature", "properties": {"wf_develop": "Iberdrola", "turbine_mo": "TBA", "fou_type": "Monopile", "cod": "2031-03-31T00:00:00", "wf_name": "New England Wind 1", "status": "Consent Authorised", "no_turbine": 44, "country": "United States", "capacity_m": 791, "wf_owners": "Avangrid Renewables", "tippecanoe_feature_density": 0}, "geometry": {"type": "Polygon", "coordinates": [[[-70.54080963134766, 40.99726137817311], [-70.54046630859375, 40.979898069620134], [-70.54046630859375, 40.975750931575334], [-70.51197052001953, 40.976010135341795], [-70.51162719726562, 40.9651227002517], [-70.49720764160156, 40.96538194577488], [-70.49686431884766, 40.94386110175802], [-70.4824447631836, 40.94386110175802], [-70.4824447631836, 40.93322773476865], [-70.49652099609375, 40.932968362970286], [-70.49617767333984, 40.92207382796113], [-70.5105972290039, 40.92207382796113], [-70.51025390625, 40.911177496828316], [-70.52467346191406, 40.91091803848204], [-70.52433013916016, 40.900279369669875], [-70.53840637207031, 40.90001986856228], [-70.53840637207031, 40.88911990271757], [-70.55248260498047, 40.88886035783298], [-70.55213928222656, 40.87821814104652], [-70.56655883789062, 40.877958553405335], [-70.56621551513672, 40.86705495325256], [-70.58063507080078, 40.86705495325256], [-70.58029174804688, 40.856149557473856], [-70.59436798095703, 40.85588988330875], [-70.59436798095703, 40.84524236616855], [-70.60844421386719, 40.844982649254035], [-70.60810089111328, 40.8340736197749], [-70.62252044677734, 40.8340736197749], [-70.62252044677734, 40.84472293132171], [-70.66543579101562, 40.844203492403636], [-70.66715240478516, 40.90910180154995], [-70.68843841552734, 40.90858286754889], [-70.68878173828125, 40.93037458898226], [-70.68191528320312, 40.93037458898226], [-70.68252504117542, 40.95915977213488], [-70.68260192871094, 40.95915977213488], [-70.68260192871094, 40.96278944471396], [-70.67573547363281, 40.96304869940295], [-70.67573547363281, 40.97367726477833], [-70.66852569580078, 40.973936476692614], [-70.66886901855469, 40.979898069620134], [-70.6692123413086, 40.99544751505735], [-70.66920671592578, 40.99544761614819], [-70.6692123413086, 40.99570664141535], [-70.65479278564453, 40.99570664141535], [-70.65513610839844, 41.00062984868538], [-70.65494810534054, 41.00062984868538], [-70.65513610839844, 41.00658902865581], [-70.64105987548828, 41.00658902865581], [-70.64105987548828, 41.017469619021], [-70.62698364257812, 41.01772865879491], [-70.62664031982422, 41.0068481112136], [-70.58372497558594, 41.00736627327328], [-70.58372497558594, 41.00062984868538], [-70.58372497558594, 40.996743136661564], [-70.54080963134766, 40.99726137817311]]]}}]}