{"type": "FeatureCollection", "features": [{"type": "Feature", "properties": {"wf_develop": "Iberdrola", "turbine_mo": "TBA", "fou_type": "Monopile", "wf_name": "New England Wind 2", "status": "Consent Authorised", "no_turbine": 60, "country": "United States", "capacity_m": 1080, "wf_owners": "Avangrid Renewables", "tippecanoe_feature_density": 0}, "geometry": {"type": "MultiPolygon", "coordinates": [[[[-70.37017822265625, 41.02653540497664], [-70.37017822265625, 41.021096083153935], [-70.37738800048828, 41.02083705662315], [-70.37738800048828, 41.02627639983902], [-70.37017822265625, 41.02653540497664]]], [[[-70.47969818115234, 41.13858889084486], [-70.47969818115234, 41.13315883477398], [-70.48690795898438, 41.13315883477398], [-70.48690795898438, 41.13833032693901], [-70.47969818115234, 41.13858889084486]]]]}}]}