{"type": "FeatureCollection", "features": [{"type": "Feature", "properties": {"wf_develop": "Iberdrola", "turbine_mo": "TBA", "fou_type": "Monopile", "wf_name": "New England Wind 2", "status": "Consent Authorised", "no_turbine": 60, "country": "United States", "capacity_m": 1080, "wf_owners": "Avangrid Renewables", "tippecanoe_feature_density": 0}, "geometry": {"type": "Polygon", "coordinates": [[[-70.67573547363281, 40.97367726477833], [-70.67573547363281, 40.96304869940295], [-70.68260192871094, 40.96278944471396], [-70.68191528320312, 40.93037458898226], [-70.68878173828125, 40.93037458898226], [-70.68843841552734, 40.90858286754889], [-70.66715240478516, 40.90910180154995], [-70.66543579101562, 40.844203492403636], [-70.62252044677734, 40.84472293132171], [-70.62217712402344, 40.823162794971296], [-70.6362533569336, 40.82290299154735], [-70.6362533569336, 40.81225017494344], [-70.65032958984375, 40.81199032877737], [-70.64998626708984, 40.80107587088608], [-70.6644058227539, 40.80081598096254], [-70.6640625, 40.79015961797438], [-70.67813873291016, 40.789899685313515], [-70.67813873291016, 40.77924157014337], [-70.69221496582031, 40.77898159474759], [-70.6918716430664, 40.76806170936612], [-70.70629119873047, 40.76780169022038], [-70.70594787597656, 40.75714002927083], [-70.72002410888672, 40.75687996739504], [-70.71968078613281, 40.74595644996023], [-70.74817657470703, 40.745696344339564], [-70.75057983398438, 40.842904877296746], [-70.8504867553711, 40.841346505581015], [-70.8504867553711, 40.85225433812161], [-70.83641052246094, 40.85225433812161], [-70.83675384521484, 40.863160375171276], [-70.82233428955078, 40.863420020835434], [-70.82267761230469, 40.87432421954122], [-70.80860137939453, 40.87432421954122], [-70.80894470214844, 40.88522662255491], [-70.79452514648438, 40.88548618169196], [-70.79486846923828, 40.896386746156395], [-70.78079223632812, 40.896386746156395], [-70.78079223632812, 40.907285514728756], [-70.76671600341797, 40.90754498732906], [-70.76705932617188, 40.91844191714796], [-70.75263977050781, 40.91844191714796], [-70.75298309326172, 40.92933705087589], [-70.73890686035156, 40.92959643692987], [-70.73890686035156, 40.94048973170135], [-70.7248306274414, 40.94048973170135], [-70.72517395019531, 40.95138123018407], [-70.71075439453125, 40.95164052968215], [-70.7109972382996, 40.95915977213488], [-70.71109771728516, 40.95915977213488], [-70.71109771728516, 40.962270932280745], [-70.697021484375, 40.96253018900654], [-70.697021484375, 40.973418051845556], [-70.68294525146484, 40.97367726477833], [-70.68328857421875, 40.979898069620134], [-70.68328857421875, 40.98430411810247], [-70.68328857421875, 40.98456328825827], [-70.66886901855469, 40.98482245739558], [-70.66886901855469, 40.98456328825827], [-70.66886901855469, 40.979898069620134], [-70.66852569580078, 40.973936476692614], [-70.67573547363281, 40.97367726477833]]]}}]}