{"type": "FeatureCollection", "features": [{"type": "Feature", "properties": {"wf_develop": "Orsted", "turbine_mo": "SG 11.0-200 DD", "fou_type": "Monopile (TP Less)", "wtg_hubhei": 133, "wtg_oem": "Siemens Gamesa", "cod": "2026-03-31T00:00:00", "wf_name": "Revolution Wind", "status": "Under Construction", "no_turbine": 65, "country": "United States", "capacity_m": 704, "wf_owners": "\u00d8rsted, Skyborn Renewables", "tippecanoe_feature_density": 0}, "geometry": {"type": "Polygon", "coordinates": [[[-71.27861022949219, 41.287610256243255], [-71.27792358398438, 41.27677440393049], [-71.29234313964844, 41.276516385517795], [-71.29302978515625, 41.29818637656061], [-71.26453399658203, 41.29870224100776], [-71.26419067382812, 41.28786823079747], [-71.27861022949219, 41.287610256243255]]]}}]}