{"type": "FeatureCollection", "features": [{"type": "Feature", "properties": {"wf_develop": "Ocean Winds", "turbine_mo": "TBA", "cod": "2031-12-31T00:00:00", "wf_name": "SouthCoast Wind", "status": "Consent Authorised", "no_turbine": 141, "country": "United States", "capacity_m": 2400, "wf_owners": "Ocean Winds", "tippecanoe_feature_density": 0}, "geometry": {"type": "Polygon", "coordinates": [[[-70.29361724853516, 40.75167851623735], [-70.30769348144531, 40.75141843299744], [-70.3073501586914, 40.740754144262496], [-70.3125, 40.740754144262496], [-70.32176971435547, 40.740494018296204], [-70.32142639160156, 40.72982797782922], [-70.33584594726562, 40.729567809138985], [-70.33550262451172, 40.71863980562836], [-70.3399658203125, 40.71863980562836], [-70.34957885742188, 40.71863980562836], [-70.34957885742188, 40.70771000786732], [-70.36365509033203, 40.70771000786732], [-70.36331176757812, 40.69677841595902], [-70.37773132324219, 40.696518118094616], [-70.37738800048828, 40.68584503000696], [-70.39146423339844, 40.68558468942848], [-70.39146423339844, 40.67490985011489], [-70.4055404663086, 40.67464946682483], [-70.40519714355469, 40.66397287638688], [-70.41961669921875, 40.66371245038769], [-70.41927337646484, 40.652773640221426], [-70.433349609375, 40.652773640221426], [-70.433349609375, 40.64183303643057], [-70.44742584228516, 40.64183303643057], [-70.44708251953125, 40.630890639120025], [-70.46150207519531, 40.630630083991804], [-70.4611587524414, 40.619946448394955], [-70.47523498535156, 40.61968585056769], [-70.47523498535156, 40.60900046436083], [-70.48931121826172, 40.608739823837], [-70.48896789550781, 40.59805268712333], [-70.50338745117188, 40.597792003905454], [-70.50304412841797, 40.58684239087907], [-70.53119659423828, 40.5865816639533], [-70.5322265625, 40.618904050986146], [-70.64552307128906, 40.617340424374646], [-70.64620971679688, 40.64990841734959], [-70.63213348388672, 40.650168897240036], [-70.63247680664062, 40.66084769728482], [-70.61805725097656, 40.66110813446929], [-70.61840057373047, 40.67178518351827], [-70.60432434082031, 40.67204557799428], [-70.60466766357422, 40.6829812277106], [-70.59024810791016, 40.6829812277106], [-70.59059143066406, 40.6939150835141], [-70.5765151977539, 40.694175391548754], [-70.5765151977539, 40.704847145301045], [-70.56243896484375, 40.705107410619746], [-70.56278228759766, 40.71577741296778], [-70.5483627319336, 40.71603763556806], [-70.5487060546875, 40.726966066290515], [-70.53462982177734, 40.726966066290515], [-70.53497314453125, 40.737892702684064], [-70.52055358886719, 40.73815283882294], [-70.5208969116211, 40.748817544646016], [-70.50647735595703, 40.74907763805905], [-70.50682067871094, 40.75974059207391], [-70.49274444580078, 40.76000064275874], [-70.49308776855469, 40.77092185281978], [-70.47866821289062, 40.77092185281978], [-70.47901153564453, 40.78184126814031], [-70.46459197998047, 40.78210123234388], [-70.46493530273438, 40.79275888861875], [-70.45085906982422, 40.79301881008675], [-70.45085906982422, 40.80393459288379], [-70.43678283691406, 40.80393459288379], [-70.43712615966797, 40.81484858063402], [-70.4227066040039, 40.81510841560598], [-70.42304992675781, 40.825760773236595], [-70.40863037109375, 40.82602056546571], [-70.40897369384766, 40.836671170591075], [-70.3948974609375, 40.83693092007499], [-70.3948974609375, 40.8478394793336], [-70.38082122802734, 40.8478394793336], [-70.38082122802734, 40.85874624314158], [-70.36674499511719, 40.85900590611001], [-70.3670883178711, 40.869651211399315], [-70.35266876220703, 40.86991083161536], [-70.35301208496094, 40.88055438400747], [-70.3399658203125, 40.88078923980576], [-70.3399658203125, 40.88081396146873], [-70.33893585205078, 40.88081396146873], [-70.33927917480469, 40.89171529557106], [-70.33893585205078, 40.89171529557106], [-70.32485961914062, 40.89171529557106], [-70.32520294189453, 40.90261483382352], [-70.3125, 40.90287432475003], [-70.31078338623047, 40.90287432475003], [-70.31078338623047, 40.91351257612757], [-70.29670715332031, 40.91377202429223], [-70.29670715332031, 40.924667927785464], [-70.25413513183594, 40.92492733216767], [-70.2524185180664, 40.83848939560514], [-70.19542694091797, 40.83926861963019], [-70.19542694091797, 40.82835864973049], [-70.20950317382812, 40.82809886666084], [-70.20950317382812, 40.81744688455879], [-70.22357940673828, 40.817187058745816], [-70.22357940673828, 40.806533324215565], [-70.23765563964844, 40.806273455661625], [-70.23731231689453, 40.79561796880145], [-70.2517318725586, 40.79535805750899], [-70.25138854980469, 40.78444086438884], [-70.26580810546875, 40.78444086438884], [-70.26546478271484, 40.77352187640244], [-70.279541015625, 40.77352187640244], [-70.279541015625, 40.76260109365134], [-70.29361724853516, 40.76234105314029], [-70.29361724853516, 40.75167851623735]]]}}]}