{"type": "FeatureCollection", "features": [{"type": "Feature", "properties": {"item": "export", "manufacturer": "Nexans", "length_m": 99548, "shared_with_farms": ["Sunrise Wind", "Revolution Wind"]}, "geometry": {"type": "MultiLineString", "coordinates": [[[-71.7462158203125, 40.97056664236638], [-71.73316955566406, 40.97860211698972]], [[-71.73316955566406, 40.97860211698972], [-71.72561645507812, 40.98248989849304], [-71.72046783788988, 40.98611732554118]], [[-71.72046783788988, 40.98611732554118], [-71.71760546801413, 40.98813399089606]], [[-71.71760546801413, 40.98813399089606], [-71.71531677246094, 40.98974647748247], [-71.70021057128906, 40.999334303475734], [-71.69844490397494, 41.000074618142264]], [[-71.69844490397494, 41.000074618142264], [-71.6971206665039, 41.00062984868538]], [[-71.73316955566406, 40.97860211698972], [-71.72561645507812, 40.98223072018905], [-71.72046783788988, 40.98611732554118]], [[-71.72046783788988, 40.98611732554118], [-71.71875, 40.987414092749304], [-71.71760546801413, 40.98813399089606]], [[-71.71760546801413, 40.98813399089606], [-71.70021057128906, 40.99907519137798], [-71.69844490397494, 41.000074618142264]], [[-71.69844490397494, 41.000074618142264], [-71.69746398925781, 41.00062984868538], [-71.60442352294922, 41.02446333535116], [-71.58554077148438, 41.02912540032224], [-71.44786834716797, 41.0317152937929], [-71.42314910888672, 41.0317152937929], [-71.39533996582031, 41.03223326026193], [-71.35311126708984, 41.0324922419683], [-71.34212493896484, 41.03326918097483], [-71.3338851928711, 41.03275122265592], [-71.32255554199219, 41.03275122265592], [-71.30229949951172, 41.03378713521863], [-71.29783630371094, 41.035340973499586], [-71.28307342529297, 41.04751143778827], [-71.2789535522461, 41.049323867571616], [-71.2738037109375, 41.05553753352862], [-71.26934051513672, 41.057867506959866], [-71.26075744628906, 41.05916190098276], [-71.25560760498047, 41.05864414643028], [-71.24393463134766, 41.05942077673066], [-71.22608184814453, 41.058903024215994], [-71.2188720703125, 41.05993852516974], [-71.2130355834961, 41.05942077673066], [-71.1855697631836, 41.07365737372555], [-71.1749267578125, 41.07779835045022], [-71.17218017578125, 41.07779835045022], [-71.16806030273438, 41.07598670523103]]]}}]}