{"type": "FeatureCollection", "features": [{"type": "Feature", "properties": {"wf_develop": "\u00d8rsted", "turbine_mo": "SG 11.0-200 DD", "fou_type": "Monopile", "wtg_oem": "Siemens Gamesa", "cod": "2027-06-01T00:00:00", "wf_name": "Sunrise Wind", "status": "Under Construction", "no_turbine": 84, "country": "United States", "capacity_m": 924, "wf_owners": "Deepwater Wind New England, LLC", "tippecanoe_feature_density": 0}, "geometry": {"type": "Polygon", "coordinates": [[[-70.88550567626953, 41.07857475454506], [-70.85700988769531, 41.07909235218], [-70.85735321044922, 41.089960960946485], [-70.828857421875, 41.09021971543652], [-70.82782745361328, 41.057867506959866], [-70.88481903076172, 41.05709085831944], [-70.88550567626953, 41.07857475454506]]]}}]}