{"type": "FeatureCollection", "features": [{"type": "Feature", "properties": {"wf_develop": "\u00d8rsted", "turbine_mo": "SG 11.0-200 DD", "fou_type": "Monopile", "wtg_oem": "Siemens Gamesa", "cod": "2027-06-01T00:00:00", "wf_name": "Sunrise Wind", "status": "Under Construction", "no_turbine": 84, "country": "United States", "capacity_m": 924, "wf_owners": "Deepwater Wind New England, LLC", "tippecanoe_feature_density": 0}, "geometry": {"type": "Polygon", "coordinates": [[[-70.86833953857422, 40.970825866502224], [-70.8896255493164, 40.97030741721204], [-70.8892822265625, 40.95915977213488], [-70.88938744725994, 40.95915977213488], [-70.8892822265625, 40.95423346865314], [-70.91056823730469, 40.9539741793387], [-70.90953826904297, 40.92155499577768], [-70.93082427978516, 40.921036159521435], [-70.93048095703125, 40.90495021551013], [-70.95176696777344, 40.90443124892883], [-70.95142364501953, 40.88834126500964], [-70.9939956665039, 40.887562618139384], [-70.99365234375, 40.87146853153462], [-71.05064392089844, 40.87043006899356], [-71.05304718017578, 40.956826305786734], [-71.28101348876953, 40.9524184220663], [-71.28135038666694, 40.95915977213488], [-71.28135681152344, 40.95915977213488], [-71.28238677978516, 40.979898069620134], [-71.28410339355469, 41.03896645352543], [-71.27002716064453, 41.039225408743505], [-71.27071380615234, 41.0607151401866], [-71.25629425048828, 41.06097400982108], [-71.25595092773438, 41.050359519318874], [-71.19895935058594, 41.05139515476449], [-71.19827270507812, 41.02990237906036], [-70.99845886230469, 41.03352815860612], [-70.9988021850586, 41.04414536431318], [-70.95588684082031, 41.04492216578217], [-70.95623016357422, 41.05579642354098], [-70.927734375, 41.05631420050901], [-70.92704772949219, 41.0345640589436], [-70.82714080810547, 41.03637684531131], [-70.82576751708984, 40.98767325068272], [-70.86868286132812, 40.98689577382686], [-70.86868286132812, 40.979898069620134], [-70.86833953857422, 40.970825866502224]]]}}]}