{"type": "FeatureCollection", "features": [{"type": "Feature", "properties": {"wf_develop": "Vineyard Wind LLC", "turbine_mo": "Haliade-X 13", "fou_type": "Monopile", "wtg_oem": "GE Energy", "cod": "2025-12-31T00:00:00", "wf_name": "Vineyard Wind 1", "status": "Under Construction", "no_turbine": 62, "country": "United States", "capacity_m": 806, "wf_owners": "Copenhagen Infrastrucure Partners, Avangrid Renewables", "tippecanoe_feature_density": 0}, "geometry": {"type": "Polygon", "coordinates": [[[-70.41206359863281, 40.98819156349393], [-70.42648315429688, 40.98793240759761], [-70.42648315429688, 40.979898069620134], [-70.42613983154297, 40.97704694022286], [-70.44055938720703, 40.97678774053034], [-70.44021606445312, 40.96615967623384], [-70.45463562011719, 40.96590043376594], [-70.45429229736328, 40.95915977213488], [-70.45442309366254, 40.95915977213488], [-70.45429229736328, 40.9550113304862], [-70.46871185302734, 40.9550113304862], [-70.46836853027344, 40.94412043078802], [-70.49686431884766, 40.94386110175802], [-70.49710837905462, 40.95915977213488], [-70.49720764160156, 40.95915977213488], [-70.49720764160156, 40.96538194577488], [-70.51162719726562, 40.9651227002517], [-70.51197052001953, 40.976010135341795], [-70.54046630859375, 40.97549172679038], [-70.54046630859375, 40.979898069620134], [-70.54080963134766, 40.99726137817311], [-70.58372497558594, 40.996743136661564], [-70.58372497558594, 41.00062984868538], [-70.58372497558594, 41.00736627327328], [-70.62664031982422, 41.0068481112136], [-70.62732696533203, 41.02834841241537], [-70.61290740966797, 41.028607409403065], [-70.61325073242188, 41.039484362942744], [-70.59883117675781, 41.03974331612318], [-70.59917449951172, 41.050359519318874], [-70.58475494384766, 41.05061842970855], [-70.58509826660156, 41.06149174603334], [-70.5710220336914, 41.06175061261109], [-70.5710220336914, 41.07236326500299], [-70.55694580078125, 41.07262208878544], [-70.55728912353516, 41.083491767508235], [-70.5428695678711, 41.08375054747407], [-70.543212890625, 41.09435964868544], [-70.52879333496094, 41.094618385851476], [-70.52913665771484, 41.105484426587395], [-70.51471710205078, 41.105743119932214], [-70.51506042480469, 41.11634866958849], [-70.50064086914062, 41.11660732012896], [-70.50098419189453, 41.127469722495505], [-70.48656463623047, 41.127728329210186], [-70.48690795898438, 41.13315883477398], [-70.47969818115234, 41.13315883477398], [-70.47969818115234, 41.13858889084486], [-70.42991638183594, 41.13910601559874], [-70.42957305908203, 41.128245539581854], [-70.42888641357422, 41.09591205639546], [-70.37155151367188, 41.09668824649293], [-70.37017822265625, 41.02653540497664], [-70.37738800048828, 41.02627639983902], [-70.37738800048828, 41.02083705662315], [-70.3842544555664, 41.02083705662315], [-70.3842544555664, 41.00995702245302], [-70.39833068847656, 41.00995702245302], [-70.39833068847656, 41.00062984868538], [-70.39833068847656, 40.99907519137798], [-70.41239875243761, 40.998816228634404], [-70.41206359863281, 40.98819156349393]], [[-70.52192687988281, 41.105484426587395], [-70.51471710205078, 41.105484426587395], [-70.51471710205078, 41.105743119932214], [-70.52192687988281, 41.105484426587395]]]}}]}