{"type": "FeatureCollection", "features": [{"type": "Feature", "properties": {"point_type": "turbine", "turbinemod": "Haliade-X 13", "foundation": "Monopile", "water_dept": -42, "turbine_mw": 13, "distance_to_shore": 39495, "tippecanoe_feature_density": 0}, "geometry": {"type": "Point", "coordinates": [-70.4824447631836, 40.9866366128378]}}, {"type": "Feature", "properties": {"point_type": "turbine", "turbinemod": "Haliade-X 13", "foundation": "Monopile", "water_dept": -42, "turbine_mw": 13, "distance_to_shore": 38551, "tippecanoe_feature_density": 0}, "geometry": {"type": "Point", "coordinates": [-70.4604721069336, 40.98689577382686]}}, {"type": "Feature", "properties": {"point_type": "turbine", "turbinemod": "Haliade-X 13", "foundation": "Monopile", "water_dept": -42, "turbine_mw": 13, "distance_to_shore": 37607, "tippecanoe_feature_density": 0}, "geometry": {"type": "Point", "coordinates": [-70.4384994506836, 40.98715493379734]}}, {"type": "Feature", "properties": {"point_type": "turbine", "turbinemod": "Haliade-X 13", "foundation": "Monopile", "water_dept": -41, "turbine_mw": 13, "distance_to_shore": 40145, "tippecanoe_feature_density": 0}, "geometry": {"type": "Point", "coordinates": [-70.46012878417969, 40.97004819103927]}}, {"type": "Feature", "properties": {"point_type": "turbine", "turbinemod": "Haliade-X 13", "foundation": "Monopile", "water_dept": -43, "turbine_mw": 13, "distance_to_shore": 29388, "tippecanoe_feature_density": 0}, "geometry": {"type": "Point", "coordinates": [-70.59368133544922, 41.0350820029997]}}, {"type": "Feature", "properties": {"point_type": "turbine", "turbinemod": "Haliade-X 13", "foundation": "Monopile", "water_dept": -41, "turbine_mw": 13, "distance_to_shore": 29063, "tippecanoe_feature_density": 0}, "geometry": {"type": "Point", "coordinates": [-70.57205200195312, 41.05217187065068]}}, {"type": "Feature", "properties": {"point_type": "turbine", "turbinemod": "Haliade-X 13", "foundation": "Monopile", "water_dept": -40, "turbine_mw": 13, "distance_to_shore": 28972, "tippecanoe_feature_density": 0}, "geometry": {"type": "Point", "coordinates": [-70.55042266845703, 41.0689984631062]}}, {"type": "Feature", "properties": {"point_type": "turbine", "turbinemod": "Haliade-X 13", "foundation": "Monopile", "water_dept": -43, "turbine_mw": 13, "distance_to_shore": 30297, "tippecanoe_feature_density": 0}, "geometry": {"type": "Point", "coordinates": [-70.55007934570312, 41.052430773908355]}}, {"type": "Feature", "properties": {"point_type": "turbine", "turbinemod": "Haliade-X 13", "foundation": "Monopile", "water_dept": -40, "turbine_mw": 13, "distance_to_shore": 29117, "tippecanoe_feature_density": 0}, "geometry": {"type": "Point", "coordinates": [-70.52879333496094, 41.08607952131089]}}, {"type": "Feature", "properties": {"point_type": "turbine", "turbinemod": "Haliade-X 13", "foundation": "Monopile", "water_dept": -38, "turbine_mw": 13, "distance_to_shore": 28738, "tippecanoe_feature_density": 0}, "geometry": {"type": "Point", "coordinates": [-70.50716400146484, 41.10315614062358]}}, {"type": "Feature", "properties": {"point_type": "turbine", "turbinemod": "Haliade-X 13", "foundation": "Monopile", "water_dept": -40, "turbine_mw": 13, "distance_to_shore": 30574, "tippecanoe_feature_density": 0}, "geometry": {"type": "Point", "coordinates": [-70.50682067871094, 41.08633829108652]}}, {"type": "Feature", "properties": {"point_type": "turbine", "turbinemod": "Haliade-X 13", "foundation": "Monopile", "water_dept": -41, "turbine_mw": 13, "distance_to_shore": 30323, "tippecanoe_feature_density": 0}, "geometry": {"type": "Point", "coordinates": [-70.52845001220703, 41.069257300135035]}}, {"type": "Feature", "properties": {"point_type": "turbine", "turbinemod": "Haliade-X 13", "foundation": "Monopile", "water_dept": -41, "turbine_mw": 13, "distance_to_shore": 31591, "tippecanoe_feature_density": 0}, "geometry": {"type": "Point", "coordinates": [-70.52810668945312, 41.05268967614717]}}, {"type": "Feature", "properties": {"point_type": "turbine", "turbinemod": "Haliade-X 13", "foundation": "Monopile", "water_dept": -39, "turbine_mw": 13, "distance_to_shore": 31725, "tippecanoe_feature_density": 0}, "geometry": {"type": "Point", "coordinates": [-70.50647735595703, 41.0697749711359]}}, {"type": "Feature", "properties": {"point_type": "turbine", "turbinemod": "Haliade-X 13", "foundation": "Monopile", "water_dept": -42, "turbine_mw": 13, "distance_to_shore": 32939, "tippecanoe_feature_density": 0}, "geometry": {"type": "Point", "coordinates": [-70.50613403320312, 41.05294857736709]}}, {"type": "Feature", "properties": {"point_type": "turbine", "turbinemod": "Haliade-X 13", "foundation": "Monopile", "water_dept": -42, "turbine_mw": 13, "distance_to_shore": 30497, "tippecanoe_feature_density": 0}, "geometry": {"type": "Point", "coordinates": [-70.57170867919922, 41.035340973499586]}}, {"type": "Feature", "properties": {"point_type": "turbine", "turbinemod": "Haliade-X 13", "foundation": "Monopile", "water_dept": -46, "turbine_mw": 13, "distance_to_shore": 31974, "tippecanoe_feature_density": 0}, "geometry": {"type": "Point", "coordinates": [-70.57136535644531, 41.01876480770352]}}, {"type": "Feature", "properties": {"point_type": "turbine", "turbinemod": "Haliade-X 13", "foundation": "Monopile", "water_dept": -44, "turbine_mw": 13, "distance_to_shore": 31675, "tippecanoe_feature_density": 0}, "geometry": {"type": "Point", "coordinates": [-70.54973602294922, 41.035858911443]}}, {"type": "Feature", "properties": {"point_type": "turbine", "turbinemod": "Haliade-X 13", "foundation": "Monopile", "water_dept": -45, "turbine_mw": 13, "distance_to_shore": 33099, "tippecanoe_feature_density": 0}, "geometry": {"type": "Point", "coordinates": [-70.54939270019531, 41.019023842383916]}}, {"type": "Feature", "properties": {"point_type": "turbine", "turbinemod": "Haliade-X 13", "foundation": "Monopile", "water_dept": -43, "turbine_mw": 13, "distance_to_shore": 32915, "tippecanoe_feature_density": 0}, "geometry": {"type": "Point", "coordinates": [-70.52776336669922, 41.03611787888653]}}, {"type": "Feature", "properties": {"point_type": "turbine", "turbinemod": "Haliade-X 13", "foundation": "Monopile", "water_dept": -46, "turbine_mw": 13, "distance_to_shore": 34288, "tippecanoe_feature_density": 0}, "geometry": {"type": "Point", "coordinates": [-70.52742004394531, 41.01928287604562]}}, {"type": "Feature", "properties": {"point_type": "turbine", "turbinemod": "Haliade-X 13", "foundation": "Monopile", "water_dept": -43, "turbine_mw": 13, "distance_to_shore": 34211, "tippecanoe_feature_density": 0}, "geometry": {"type": "Point", "coordinates": [-70.50579071044922, 41.03637684531131]}}, {"type": "Feature", "properties": {"point_type": "turbine", "turbinemod": "Haliade-X 13", "foundation": "Monopile", "water_dept": -44, "turbine_mw": 13, "distance_to_shore": 35534, "tippecanoe_feature_density": 0}, "geometry": {"type": "Point", "coordinates": [-70.5051040649414, 41.01954190868864]}}, {"type": "Feature", "properties": {"point_type": "turbine", "turbinemod": "Haliade-X 13", "foundation": "Monopile", "water_dept": -46, "turbine_mw": 13, "distance_to_shore": 36902, "tippecanoe_feature_density": 0}, "geometry": {"type": "Point", "coordinates": [-70.5047607421875, 41.002961765890376]}}, {"type": "Feature", "properties": {"point_type": "turbine", "turbinemod": "Haliade-X 13", "foundation": "Monopile", "water_dept": -37, "turbine_mw": 13, "distance_to_shore": 24553, "tippecanoe_feature_density": 0}, "geometry": {"type": "Point", "coordinates": [-70.46390533447266, 41.13703749212047]}}, {"type": "Feature", "properties": {"point_type": "turbine", "turbinemod": "Haliade-X 13", "foundation": "Monopile", "water_dept": -38, "turbine_mw": 13, "distance_to_shore": 25994, "tippecanoe_feature_density": 0}, "geometry": {"type": "Point", "coordinates": [-70.46356201171875, 41.12022832068129]}}, {"type": "Feature", "properties": {"point_type": "turbine", "turbinemod": "Haliade-X 13", "foundation": "Monopile", "water_dept": -36, "turbine_mw": 13, "distance_to_shore": 24906, "tippecanoe_feature_density": 0}, "geometry": {"type": "Point", "coordinates": [-70.44124603271484, 41.120486955933984]}}, {"type": "Feature", "properties": {"point_type": "turbine", "turbinemod": "Haliade-X 13", "foundation": "Monopile", "water_dept": -39, "turbine_mw": 13, "distance_to_shore": 28504, "tippecanoe_feature_density": 0}, "geometry": {"type": "Point", "coordinates": [-70.48519134521484, 41.103414843140456]}}, {"type": "Feature", "properties": {"point_type": "turbine", "turbinemod": "Haliade-X 13", "foundation": "Monopile", "water_dept": -38, "turbine_mw": 13, "distance_to_shore": 30070, "tippecanoe_feature_density": 0}, "geometry": {"type": "Point", "coordinates": [-70.48484802246094, 41.086597059843115]}}, {"type": "Feature", "properties": {"point_type": "turbine", "turbinemod": "Haliade-X 13", "foundation": "Monopile", "water_dept": -37, "turbine_mw": 13, "distance_to_shore": 27484, "tippecanoe_feature_density": 0}, "geometry": {"type": "Point", "coordinates": [-70.46321868896484, 41.10367354463827]}}, {"type": "Feature", "properties": {"point_type": "turbine", "turbinemod": "Haliade-X 13", "foundation": "Monopile", "water_dept": -37, "turbine_mw": 13, "distance_to_shore": 29016, "tippecanoe_feature_density": 0}, "geometry": {"type": "Point", "coordinates": [-70.46253204345703, 41.08685582758068]}}, {"type": "Feature", "properties": {"point_type": "turbine", "turbinemod": "Haliade-X 13", "foundation": "Monopile", "water_dept": -40, "turbine_mw": 13, "distance_to_shore": 31585, "tippecanoe_feature_density": 0}, "geometry": {"type": "Point", "coordinates": [-70.48450469970703, 41.0700338051079]}}, {"type": "Feature", "properties": {"point_type": "turbine", "turbinemod": "Haliade-X 13", "foundation": "Monopile", "water_dept": -41, "turbine_mw": 13, "distance_to_shore": 33134, "tippecanoe_feature_density": 0}, "geometry": {"type": "Point", "coordinates": [-70.48381805419922, 41.05320747756818]}}, {"type": "Feature", "properties": {"point_type": "turbine", "turbinemod": "Haliade-X 13", "foundation": "Monopile", "water_dept": -39, "turbine_mw": 13, "distance_to_shore": 30583, "tippecanoe_feature_density": 0}, "geometry": {"type": "Point", "coordinates": [-70.46218872070312, 41.07029263806098]}}, {"type": "Feature", "properties": {"point_type": "turbine", "turbinemod": "Haliade-X 13", "foundation": "Monopile", "water_dept": -40, "turbine_mw": 13, "distance_to_shore": 32176, "tippecanoe_feature_density": 0}, "geometry": {"type": "Point", "coordinates": [-70.46184539794922, 41.05346637675038]}}, {"type": "Feature", "properties": {"point_type": "turbine", "turbinemod": "Haliade-X 13", "foundation": "Monopile", "water_dept": -38, "turbine_mw": 13, "distance_to_shore": 26458, "tippecanoe_feature_density": 0}, "geometry": {"type": "Point", "coordinates": [-70.44090270996094, 41.10393224511691]}}, {"type": "Feature", "properties": {"point_type": "turbine", "turbinemod": "Haliade-X 13", "foundation": "Monopile", "water_dept": -38, "turbine_mw": 13, "distance_to_shore": 28044, "tippecanoe_feature_density": 0}, "geometry": {"type": "Point", "coordinates": [-70.44055938720703, 41.08711459429921]}}, {"type": "Feature", "properties": {"point_type": "turbine", "turbinemod": "Haliade-X 13", "foundation": "Monopile", "water_dept": -38, "turbine_mw": 13, "distance_to_shore": 27100, "tippecanoe_feature_density": 0}, "geometry": {"type": "Point", "coordinates": [-70.41858673095703, 41.08737335999871]}}, {"type": "Feature", "properties": {"point_type": "turbine", "turbinemod": "Haliade-X 13", "foundation": "Monopile", "water_dept": -39, "turbine_mw": 13, "distance_to_shore": 29638, "tippecanoe_feature_density": 0}, "geometry": {"type": "Point", "coordinates": [-70.44021606445312, 41.07055146999505]}}, {"type": "Feature", "properties": {"point_type": "turbine", "turbinemod": "Haliade-X 13", "foundation": "Monopile", "water_dept": -39, "turbine_mw": 13, "distance_to_shore": 31232, "tippecanoe_feature_density": 0}, "geometry": {"type": "Point", "coordinates": [-70.43987274169922, 41.05372527491369]}}, {"type": "Feature", "properties": {"point_type": "turbine", "turbinemod": "Haliade-X 13", "foundation": "Monopile", "water_dept": -39, "turbine_mw": 13, "distance_to_shore": 28694, "tippecanoe_feature_density": 0}, "geometry": {"type": "Point", "coordinates": [-70.41824340820312, 41.07081030091021]}}, {"type": "Feature", "properties": {"point_type": "turbine", "turbinemod": "Haliade-X 13", "foundation": "Monopile", "water_dept": -40, "turbine_mw": 13, "distance_to_shore": 30288, "tippecanoe_feature_density": 0}, "geometry": {"type": "Point", "coordinates": [-70.41790008544922, 41.05424306818378]}}, {"type": "Feature", "properties": {"point_type": "turbine", "turbinemod": "Haliade-X 13", "foundation": "Monopile", "water_dept": -42, "turbine_mw": 13, "distance_to_shore": 34713, "tippecanoe_feature_density": 0}, "geometry": {"type": "Point", "coordinates": [-70.48347473144531, 41.03663581071726]}}, {"type": "Feature", "properties": {"point_type": "turbine", "turbinemod": "Haliade-X 13", "foundation": "Monopile", "water_dept": -42, "turbine_mw": 13, "distance_to_shore": 36307, "tippecanoe_feature_density": 0}, "geometry": {"type": "Point", "coordinates": [-70.4831314086914, 41.01980094031293]}}, {"type": "Feature", "properties": {"point_type": "turbine", "turbinemod": "Haliade-X 13", "foundation": "Monopile", "water_dept": -38, "turbine_mw": 13, "distance_to_shore": 33769, "tippecanoe_feature_density": 0}, "geometry": {"type": "Point", "coordinates": [-70.46150207519531, 41.03689477510443]}}, {"type": "Feature", "properties": {"point_type": "turbine", "turbinemod": "Haliade-X 13", "foundation": "Monopile", "water_dept": -40, "turbine_mw": 13, "distance_to_shore": 35363, "tippecanoe_feature_density": 0}, "geometry": {"type": "Point", "coordinates": [-70.4611587524414, 41.02031900050545]}}, {"type": "Feature", "properties": {"point_type": "turbine", "turbinemod": "Haliade-X 13", "foundation": "Monopile", "water_dept": -42, "turbine_mw": 13, "distance_to_shore": 37901, "tippecanoe_feature_density": 0}, "geometry": {"type": "Point", "coordinates": [-70.4827880859375, 41.003220862708986]}}, {"type": "Feature", "properties": {"point_type": "turbine", "turbinemod": "Haliade-X 13", "foundation": "Monopile", "water_dept": -41, "turbine_mw": 13, "distance_to_shore": 36957, "tippecanoe_feature_density": 0}, "geometry": {"type": "Point", "coordinates": [-70.4608154296875, 41.00347995850896]}}, {"type": "Feature", "properties": {"point_type": "turbine", "turbinemod": "Haliade-X 13", "foundation": "Monopile", "water_dept": -37, "turbine_mw": 13, "distance_to_shore": 32825, "tippecanoe_feature_density": 0}, "geometry": {"type": "Point", "coordinates": [-70.43952941894531, 41.03715373847285]}}, {"type": "Feature", "properties": {"point_type": "turbine", "turbinemod": "Haliade-X 13", "foundation": "Monopile", "water_dept": -39, "turbine_mw": 13, "distance_to_shore": 34419, "tippecanoe_feature_density": 0}, "geometry": {"type": "Point", "coordinates": [-70.4391860961914, 41.020578029073675]}}, {"type": "Feature", "properties": {"point_type": "turbine", "turbinemod": "Haliade-X 13", "foundation": "Monopile", "water_dept": -38, "turbine_mw": 13, "distance_to_shore": 31881, "tippecanoe_feature_density": 0}, "geometry": {"type": "Point", "coordinates": [-70.41755676269531, 41.03741270082244]}}, {"type": "Feature", "properties": {"point_type": "turbine", "turbinemod": "Haliade-X 13", "foundation": "Monopile", "water_dept": -39, "turbine_mw": 13, "distance_to_shore": 33475, "tippecanoe_feature_density": 0}, "geometry": {"type": "Point", "coordinates": [-70.4172134399414, 41.02083705662315]}}, {"type": "Feature", "properties": {"point_type": "turbine", "turbinemod": "Haliade-X 13", "foundation": "Monopile", "water_dept": -40, "turbine_mw": 13, "distance_to_shore": 36013, "tippecanoe_feature_density": 0}, "geometry": {"type": "Point", "coordinates": [-70.4388427734375, 41.0037390532903]}}, {"type": "Feature", "properties": {"point_type": "turbine", "turbinemod": "Haliade-X 13", "foundation": "Monopile", "water_dept": -39, "turbine_mw": 13, "distance_to_shore": 35069, "tippecanoe_feature_density": 0}, "geometry": {"type": "Point", "coordinates": [-70.4168701171875, 41.00399814705304]}}, {"type": "Feature", "properties": {"point_type": "turbine", "turbinemod": "Haliade-X 13", "foundation": "Monopile", "water_dept": -37, "turbine_mw": 13, "distance_to_shore": 26156, "tippecanoe_feature_density": 0}, "geometry": {"type": "Point", "coordinates": [-70.39661407470703, 41.087632124679146]}}, {"type": "Feature", "properties": {"point_type": "turbine", "turbinemod": "Haliade-X 13", "foundation": "Monopile", "water_dept": -37, "turbine_mw": 13, "distance_to_shore": 27750, "tippecanoe_feature_density": 0}, "geometry": {"type": "Point", "coordinates": [-70.39627075195312, 41.07106913080642]}}, {"type": "Feature", "properties": {"point_type": "turbine", "turbinemod": "Haliade-X 13", "foundation": "Monopile", "water_dept": -37, "turbine_mw": 13, "distance_to_shore": 29344, "tippecanoe_feature_density": 0}, "geometry": {"type": "Point", "coordinates": [-70.39592742919922, 41.054501963290505]}}, {"type": "Feature", "properties": {"point_type": "turbine", "turbinemod": "Haliade-X 13", "foundation": "Monopile", "water_dept": -37, "turbine_mw": 13, "distance_to_shore": 26806, "tippecanoe_feature_density": 0}, "geometry": {"type": "Point", "coordinates": [-70.37429809570312, 41.07132795968366]}}, {"type": "Feature", "properties": {"point_type": "turbine", "turbinemod": "Haliade-X 13", "foundation": "Monopile", "water_dept": -37, "turbine_mw": 13, "distance_to_shore": 28400, "tippecanoe_feature_density": 0}, "geometry": {"type": "Point", "coordinates": [-70.37395477294922, 41.05476085737834]}}, {"type": "Feature", "properties": {"point_type": "turbine", "turbinemod": "Haliade-X 13", "foundation": "Monopile", "water_dept": -38, "turbine_mw": 13, "distance_to_shore": 30937, "tippecanoe_feature_density": 0}, "geometry": {"type": "Point", "coordinates": [-70.39558410644531, 41.03767166215326]}}, {"type": "Feature", "properties": {"point_type": "turbine", "turbinemod": "Haliade-X 13", "foundation": "Monopile", "water_dept": -38, "turbine_mw": 13, "distance_to_shore": 32531, "tippecanoe_feature_density": 0}, "geometry": {"type": "Point", "coordinates": [-70.3952407836914, 41.021096083153935]}}, {"type": "Feature", "properties": {"point_type": "turbine", "turbinemod": "Haliade-X 13", "foundation": "Monopile", "water_dept": -37, "turbine_mw": 13, "distance_to_shore": 29993, "tippecanoe_feature_density": 0}, "geometry": {"type": "Point", "coordinates": [-70.37361145019531, 41.037930622465296]}}]}