{"features":[{"id":"T6QqUmWgwZg2h215Xts9lBlrynd4nZ0o","type":"Feature","properties":{"fid":"T6QqUmWgwZg2h215Xts9lBlrynd4nZ0o","name":"Beacon_Wind"},"geometry":{"coordinates":[[[-70.3703740107931,41.020734136790026],[-70.38374516121537,41.020295519670526],[-70.38432651558126,41.00932914238129],[-70.39827902036942,41.0088904493189],[-70.3988603747359,40.999238462991514],[-70.41223152515755,40.99792217351148],[-70.41281287952404,40.986513230291024],[-70.42618402994574,40.986513230291024],[-70.42676538431219,40.97729687335399],[-70.43897382600214,40.97641905790556],[-70.44013653473448,40.96632334066703],[-70.4535076851562,40.96588436139629],[-70.455251748255,40.95490893059289],[-70.46746018994432,40.95359175625353],[-70.46862289867668,40.945249041833534],[-70.48199404909896,40.94261428144483],[-70.48315675783134,40.934270180091886],[-70.49594655388712,40.93295259405261],[-70.49652790825301,40.92285022810958],[-70.51048041304176,40.92241095977232],[-70.51106176740765,40.91142830251093],[-70.52443291782993,40.91011026102322],[-70.52385156346347,40.90044382063422],[-70.53780406825162,40.89868613421649],[-70.5383854226181,40.88901802403947],[-70.55350063613861,40.888139034874115],[-70.55408199050447,40.87802982026085],[-70.56570907782795,40.87802982026085],[-70.56629043219442,40.867919061553835],[-70.58140564571492,40.865720866215526],[-70.58140564571492,40.85604793988179],[-70.59419544177074,40.85428907423537],[-70.59419544177074,40.8450542634846],[-70.60698523782655,40.84461447848852],[-70.60872930092536,40.83405876308447],[-70.62268180571354,40.83317904425863],[-70.62268180571354,40.82350136677405],[-70.63547160176935,40.822181574050774],[-70.63633940248536,40.8116626192201],[-70.64936990775585,40.81232010227828],[-70.65023860810764,40.800484410413645],[-70.66240041302636,40.79982681008485],[-70.66326911337725,40.7886466077382],[-70.67716831899867,40.78930431881673],[-70.67803701935046,40.77878015984376],[-70.69106752462008,40.777464522716116],[-70.69193622497187,40.767596413726636],[-70.70583543059328,40.76628055512617],[-70.70670413094417,40.75575274836555],[-70.72060333656557,40.75575274836555],[-70.72147203691735,40.74522327419024],[-70.70583543059328,40.74522327419024],[-70.70322932953881,40.65960949644503],[-70.6458951063505,40.65960949644503],[-70.6458951063505,40.64906481137177],[-70.6319959007291,40.6497239030127],[-70.63112720037729,40.660927464900396],[-70.61983409581035,40.660927464900396],[-70.61809669510768,40.672129145374186],[-70.60506618983717,40.67278800916151],[-70.60419748948628,40.68135264593758],[-70.59116698421576,40.682670184703994],[-70.59116698421576,40.69386821270021],[-70.57726777859435,40.69386821270021],[-70.57639907824345,40.70440581420593],[-70.56249987262206,40.70506435895217],[-70.56163117227025,40.71560018930353],[-70.55033806770331,40.716258623350086],[-70.55033806770331,40.726792682442664],[-70.5355701617301,40.726792682442664],[-70.53470146137833,40.73732507437305],[-70.5216709561087,40.73864150613741],[-70.5216709561087,40.74983012430593],[-70.50690305013552,40.74983012430593],[-70.50690305013552,40.76035886899925],[-70.49387254486591,40.76035886899925],[-70.4930038445141,40.771543833197484],[-70.47910463889268,40.772201713644534],[-70.47823593854181,40.78338468459418],[-70.46694283397396,40.78206913866495],[-70.46607413362307,40.792592776489954],[-70.45130622764988,40.794565772919555],[-70.45130622764988,40.80442987557612],[-70.43827572238025,40.80442987557612],[-70.43740702202848,40.81626486380853],[-70.42350781640705,40.81692230126018],[-70.42177041570439,40.8261257414521],[-70.41047731113653,40.8261257414521],[-70.40787121008296,40.8372996305053],[-70.39570940516424,40.83861408188454],[-70.39397200446155,40.84847163641098],[-70.38181019954283,40.84978586623646],[-70.38094149919105,40.859641759063095],[-70.36704229356964,40.859641759063095],[-70.36704229356964,40.870153095237754],[-70.35401178830001,40.87146689495242],[-70.35140568724557,40.88131956185532],[-70.34098128302949,40.88263313997925],[-70.34011258267861,40.89182745686793],[-70.32621337705629,40.89248414490544],[-70.32534467670541,40.901677093036625],[-70.31144547108399,40.90299026705114],[-70.3105767707322,40.91349472052522],[-70.29667756511081,40.91415119346058],[-70.29667756511081,40.923997505239726],[-70.36791099392141,40.92531023599],[-70.3703740107931,41.020734136790026]]],"type":"Polygon"},"name":"Beacon_Wind"}],"name":"beacon_wind","type":"FeatureCollection"}