{"features":[{"id":"0Afs1omUFy5noX1zVqYhVWyvh4anNCRh","type":"Feature","properties":{"fid":"0Afs1omUFy5noX1zVqYhVWyvh4anNCRh","name":"SouthCoastWind"},"geometry":{"coordinates":[[[-70.29489313965357,40.923362859087064],[-70.294208142267,40.91145756820583],[-70.30996308216623,40.91145756820583],[-70.31064807955357,40.902138888438145],[-70.32366302990506,40.90006789238177],[-70.32503302467896,40.88971193942555],[-70.33804797503113,40.88971193942555],[-70.33804797503113,40.88039019575419],[-70.35037792799608,40.879354365406954],[-70.35037792799608,40.870549152994016],[-70.36613286789606,40.86795916176075],[-70.36613286789606,40.85915243381132],[-70.37914781824753,40.85811627118068],[-70.37983281563483,40.84827191782642],[-70.39216276859976,40.84775375344668],[-70.39421776076021,40.8368713655305],[-70.40723271111244,40.83531659282622],[-70.40723271111244,40.8259871908719],[-70.42093265885126,40.82495050962672],[-70.42093265885126,40.81406437817449],[-70.43600260136391,40.81406437817449],[-70.43600260136391,40.803694972983834],[-70.45038754649002,40.80317646018963],[-70.45038754649002,40.79176815386029],[-70.4647724916154,40.79124954789833],[-70.4647724916154,40.78035788702587],[-70.4777874419676,40.78035788702587],[-70.4784724393542,40.76998321600905],[-70.49285738448029,40.769464439930346],[-70.49422737925417,40.7585692067137],[-70.5058723348318,40.75805034153399],[-70.50655733221909,40.747672187475985],[-70.52094227734518,40.74819113365152],[-70.52231227211908,40.73625434705278],[-70.53464222508399,40.73625434705278],[-70.53464222508399,40.72483454669026],[-70.54902717020937,40.72483454669026],[-70.54902717020937,40.71445120932202],[-70.5606721257877,40.713412786505785],[-70.5618486398072,40.704528038127336],[-70.57572044157453,40.70421874404718],[-70.57653642991421,40.69370189071648],[-70.59040823168152,40.69339254636617],[-70.59081622585181,40.681636396811854],[-70.60387203928025,40.68070819141616],[-70.6046880276191,40.671425426575865],[-70.61815183521784,40.67080652963156],[-70.61815183521784,40.660284402709664],[-70.63079965447604,40.659974903258245],[-70.63161564281573,40.64790330459434],[-70.64630343292278,40.6472841893798],[-70.64507945041368,40.61755990496218],[-70.53288105376257,40.6191083714086],[-70.53124905315957,40.586892871704265],[-70.50309745545468,40.586892871704265],[-70.50268946128439,40.598355932046644],[-70.4884096653468,40.598355932046644],[-70.4884096653468,40.609197558754886],[-70.47453786357947,40.60888782239667],[-70.47453786357947,40.620347111525206],[-70.46189004432044,40.62065679476447],[-70.461482050151,40.63118517065445],[-70.44761024838284,40.63180443519667],[-70.44720225421342,40.64202147096276],[-70.43373844661552,40.64202147096276],[-70.43292245827581,40.653475075869636],[-70.4190506565085,40.653475075869636],[-70.4190506565085,40.66461723705862],[-70.40558684890978,40.66492671496991],[-70.40517885474034,40.67513868042076],[-70.39089905880273,40.67513868042076],[-70.39130705476781,40.68590207435159],[-70.37784324716993,40.68590207435159],[-70.3774352530005,40.69672948917915],[-70.36356345123234,40.697348145457],[-70.36315545706292,40.70786442315759],[-70.35009964363445,40.70817370030758],[-70.34928365529473,40.71899749561658],[-70.33622784186629,40.71930672105617],[-70.33581984769685,40.730128706446976],[-70.32194804592953,40.72981953128499],[-70.32072406342041,40.740948932094426],[-70.30726025582167,40.74125805554064],[-70.30766824999192,40.75207647106106],[-70.29338845405435,40.75207647106106],[-70.29298045988493,40.76320214807669],[-70.27870066394733,40.76351116808115],[-70.27870066394733,40.77463493131256],[-70.26523685634858,40.77463493131256],[-70.26523685634858,40.785447915824506],[-70.25054906624159,40.785447915824506],[-70.25136505458129,40.79625914008486],[-70.2374932528131,40.79625914008486],[-70.23790124698338,40.80737741995571],[-70.22321340676825,40.80675986305661],[-70.2240293951071,40.8184939137831],[-70.20974959916951,40.81818514956203],[-70.20934160500006,40.82868232681048],[-70.19669378574103,40.828991042166024],[-70.19628579157163,40.83917784258651],[-70.25340497532115,40.838560505299796],[-70.25422096366084,40.92462350802941],[-70.29489313965357,40.923362859087064]]],"type":"Polygon"},"name":"SouthCoastWind"}],"name":"southcoast_wind","type":"FeatureCollection"}